{
"type": "FeatureCollection",
"name": "acessibilidade",
"crs": { "type": "name", "properties": { "name": "urn:ogc:def:crs:OGC:1.3:CRS84" } },
"features": [
{ "type": "Feature", "properties": { "predio": "Bloco A", "tipo": "escada", "id": "Escada Bloco A1", "level": 0 }, "geometry": { "type": "Point", "coordinates": [ -34.854678580349308, -7.15970915796336 ] } },
{ "type": "Feature", "properties": { "predio": "Bloco A", "tipo": "escada", "id": "Escada Bloco A2", "level": 0 }, "geometry": { "type": "Point", "coordinates": [ -34.853907964192807, -7.15951069532976 ] } },
{ "type": "Feature", "properties": { "predio": "Bloco A", "tipo": "elevador", "id": "Elevador Bloco A1", "level": 0 }, "geometry": { "type": "Point", "coordinates": [ -34.855009569717843, -7.15970020255105 ] } },
{ "type": "Feature", "properties": { "predio": "Bloco A", "tipo": "elevador", "id": "Elevador Bloco A2", "level": 0 }, "geometry": { "type": "Point", "coordinates": [ -34.854268935045432, -7.15950986045683 ] } }
]
}
