{
"type": "FeatureCollection",
"name": "pontos_unipe",
"crs": { "type": "name", "properties": { "name": "urn:ogc:def:crs:OGC:1.3:CRS84" } },
"features": [
{ "type": "Feature", "properties": { "id": null, "level": 0, "nome": "bloco_a_sala_2", "layer": "pontos_lvl_0", "path": "C:/Users/ACER/Desktop/mapa_unipe/pontos_lvl_0.shp", "tipo": null }, "geometry": { "type": "Point", "coordinates": [ -34.854984802052812, -7.159793472313471 ] } },
{ "type": "Feature", "properties": { "id": null, "level": 0, "nome": "bloco_a_sala_3", "layer": "pontos_lvl_0", "path": "C:/Users/ACER/Desktop/mapa_unipe/pontos_lvl_0.shp", "tipo": null }, "geometry": { "type": "Point", "coordinates": [ -34.854915367902791, -7.159777110289602 ] } },
{ "type": "Feature", "properties": { "id": null, "level": 0, "nome": "bloco_a_sala_4", "layer": "pontos_lvl_0", "path": "C:/Users/ACER/Desktop/mapa_unipe/pontos_lvl_0.shp", "tipo": null }, "geometry": { "type": "Point", "coordinates": [ -34.854846367716213, -7.15975859536715 ] } },
{ "type": "Feature", "properties": { "id": null, "level": 0, "nome": "bloco_a_sala_7", "layer": "pontos_lvl_0", "path": "C:/Users/ACER/Desktop/mapa_unipe/pontos_lvl_0.shp", "tipo": null }, "geometry": { "type": "Point", "coordinates": [ -34.854615933130837, -7.159698744798728 ] } },
{ "type": "Feature", "properties": { "id": null, "level": 0, "nome": "bloco_a_sala_8", "layer": "pontos_lvl_0", "path": "C:/Users/ACER/Desktop/mapa_unipe/pontos_lvl_0.shp", "tipo": null }, "geometry": { "type": "Point", "coordinates": [ -34.854527404589568, -7.15967893813407 ] } },
{ "type": "Feature", "properties": { "id": null, "level": 0, "nome": "bloco_a_sala_9", "layer": "pontos_lvl_0", "path": "C:/Users/ACER/Desktop/mapa_unipe/pontos_lvl_0.shp", "tipo": null }, "geometry": { "type": "Point", "coordinates": [ -34.854441045865478, -7.159654825671582 ] } },
{ "type": "Feature", "properties": { "id": null, "level": 0, "nome": "bloco_a_sala_10", "layer": "pontos_lvl_0", "path": "C:/Users/ACER/Desktop/mapa_unipe/pontos_lvl_0.shp", "tipo": null }, "geometry": { "type": "Point", "coordinates": [ -34.854268762380748, -7.159610475960468 ] } },
{ "type": "Feature", "properties": { "id": null, "level": 0, "nome": "bloco_a_sala_11", "layer": "pontos_lvl_0", "path": "C:/Users/ACER/Desktop/mapa_unipe/pontos_lvl_0.shp", "tipo": null }, "geometry": { "type": "Point", "coordinates": [ -34.854178931949164, -7.159590238712217 ] } },
{ "type": "Feature", "properties": { "id": null, "level": 0, "nome": "bloco_a_sala_12", "layer": "pontos_lvl_0", "path": "C:/Users/ACER/Desktop/mapa_unipe/pontos_lvl_0.shp", "tipo": null }, "geometry": { "type": "Point", "coordinates": [ -34.854086063773515, -7.159564834505692 ] } },
{ "type": "Feature", "properties": { "id": null, "level": 0, "nome": "bloco_a_sala_15", "layer": "pontos_lvl_0", "path": "C:/Users/ACER/Desktop/mapa_unipe/pontos_lvl_0.shp", "tipo": null }, "geometry": { "type": "Point", "coordinates": [ -34.853855195224703, -7.159502615722721 ] } },
{ "type": "Feature", "properties": { "id": null, "level": 0, "nome": "bloco_a_sala_16", "layer": "pontos_lvl_0", "path": "C:/Users/ACER/Desktop/mapa_unipe/pontos_lvl_0.shp", "tipo": null }, "geometry": { "type": "Point", "coordinates": [ -34.853798779977815, -7.15948625368842 ] } },
{ "type": "Feature", "properties": { "id": null, "level": 0, "nome": "bloco_a_sala_17", "layer": "pontos_lvl_0", "path": "C:/Users/ACER/Desktop/mapa_unipe/pontos_lvl_0.shp", "tipo": null }, "geometry": { "type": "Point", "coordinates": [ -34.853733251498731, -7.159473336292505 ] } },
{ "type": "Feature", "properties": { "id": null, "level": 0, "nome": "bloco_a_sala_18", "layer": "pontos_lvl_0", "path": "C:/Users/ACER/Desktop/mapa_unipe/pontos_lvl_0.shp", "tipo": null }, "geometry": { "type": "Point", "coordinates": [ -34.853698968387157, -7.159394109589553 ] } },
{ "type": "Feature", "properties": { "id": null, "level": 0, "nome": "ct_sala_1", "layer": "pontos_lvl_0", "path": "C:/Users/ACER/Desktop/mapa_unipe/pontos_lvl_0.shp", "tipo": null }, "geometry": { "type": "Point", "coordinates": [ -34.856041503023363, -7.159609614800983 ] } },
{ "type": "Feature", "properties": { "id": null, "level": 0, "nome": "ct_sala_2", "layer": "pontos_lvl_0", "path": "C:/Users/ACER/Desktop/mapa_unipe/pontos_lvl_0.shp", "tipo": null }, "geometry": { "type": "Point", "coordinates": [ -34.856101823941195, -7.159624685091678 ] } },
{ "type": "Feature", "properties": { "id": null, "level": 0, "nome": "ct_sala_3", "layer": "pontos_lvl_0", "path": "C:/Users/ACER/Desktop/mapa_unipe/pontos_lvl_0.shp", "tipo": null }, "geometry": { "type": "Point", "coordinates": [ -34.856096616379951, -7.159402505898395 ] } },
{ "type": "Feature", "properties": { "id": null, "level": 0, "nome": "ct_sala_4", "layer": "pontos_lvl_0", "path": "C:/Users/ACER/Desktop/mapa_unipe/pontos_lvl_0.shp", "tipo": null }, "geometry": { "type": "Point", "coordinates": [ -34.856159975041841, -7.159419729095542 ] } },
{ "type": "Feature", "properties": { "id": null, "level": 0, "nome": "Cantina_CT", "layer": "pontos_lvl_0", "path": "C:/Users/ACER/Desktop/mapa_unipe/pontos_lvl_0.shp", "tipo": "comercio" }, "geometry": { "type": "Point", "coordinates": [ -34.855946356539668, -7.159410363982162 ] } },
{ "type": "Feature", "properties": { "id": null, "level": 0, "nome": "Tapiocabana", "layer": "pontos_lvl_0", "path": "C:/Users/ACER/Desktop/mapa_unipe/pontos_lvl_0.shp", "tipo": "comercio" }, "geometry": { "type": "Point", "coordinates": [ -34.855272845284496, -7.159350082788064 ] } },
{ "type": "Feature", "properties": { "id": null, "level": 0, "nome": "Restaurante - Piscina", "layer": "pontos_lvl_0", "path": "C:/Users/ACER/Desktop/mapa_unipe/pontos_lvl_0.shp", "tipo": "comercio" }, "geometry": { "type": "Point", "coordinates": [ -34.855834393972764, -7.158613790417268 ] } },
{ "type": "Feature", "properties": { "id": null, "level": 0, "nome": "Minaçaí", "layer": "pontos_lvl_0", "path": "C:/Users/ACER/Desktop/mapa_unipe/pontos_lvl_0.shp", "tipo": "comercio" }, "geometry": { "type": "Point", "coordinates": [ -34.854699145619975, -7.158417445584347 ] } },
{ "type": "Feature", "properties": { "id": null, "level": 0, "nome": "Pizzaria", "layer": "pontos_lvl_0", "path": "C:/Users/ACER/Desktop/mapa_unipe/pontos_lvl_0.shp", "tipo": "comercio" }, "geometry": { "type": "Point", "coordinates": [ -34.853570840682181, -7.158432085333574 ] } },
{ "type": "Feature", "properties": { "id": null, "level": 0, "nome": "Comercio_Museu", "layer": "pontos_lvl_0", "path": "C:/Users/ACER/Desktop/mapa_unipe/pontos_lvl_0.shp", "tipo": "comercio" }, "geometry": { "type": "Point", "coordinates": [ -34.853441085614335, -7.16042696206256 ] } },
{ "type": "Feature", "properties": { "id": null, "level": 1, "nome": "bloco_a_sala_19", "layer": "pontos_lvl_1", "path": "C:/Users/ACER/Desktop/mapa_unipe/pontos_lvl_1.shp", "tipo": null }, "geometry": { "type": "Point", "coordinates": [ -34.855056406019997, -7.159741802762407 ] } },
{ "type": "Feature", "properties": { "id": null, "level": 1, "nome": "bloco_a_sala_20", "layer": "pontos_lvl_1", "path": "C:/Users/ACER/Desktop/mapa_unipe/pontos_lvl_1.shp", "tipo": null }, "geometry": { "type": "Point", "coordinates": [ -34.854984802052812, -7.159793472313471 ] } },
{ "type": "Feature", "properties": { "id": null, "level": 1, "nome": "bloco_a_sala_21", "layer": "pontos_lvl_1", "path": "C:/Users/ACER/Desktop/mapa_unipe/pontos_lvl_1.shp", "tipo": null }, "geometry": { "type": "Point", "coordinates": [ -34.854915367902791, -7.159777110289602 ] } },
{ "type": "Feature", "properties": { "id": null, "level": 1, "nome": "bloco_a_sala_22", "layer": "pontos_lvl_1", "path": "C:/Users/ACER/Desktop/mapa_unipe/pontos_lvl_1.shp", "tipo": null }, "geometry": { "type": "Point", "coordinates": [ -34.854846367716213, -7.15975859536715 ] } },
{ "type": "Feature", "properties": { "id": null, "level": 1, "nome": "bloco_a_sala_25", "layer": "pontos_lvl_1", "path": "C:/Users/ACER/Desktop/mapa_unipe/pontos_lvl_1.shp", "tipo": null }, "geometry": { "type": "Point", "coordinates": [ -34.854615933130837, -7.159698744798728 ] } },
{ "type": "Feature", "properties": { "id": null, "level": 1, "nome": "bloco_a_sala_26", "layer": "pontos_lvl_1", "path": "C:/Users/ACER/Desktop/mapa_unipe/pontos_lvl_1.shp", "tipo": null }, "geometry": { "type": "Point", "coordinates": [ -34.854527404589568, -7.15967893813407 ] } },
{ "type": "Feature", "properties": { "id": null, "level": 1, "nome": "bloco_a_sala_27", "layer": "pontos_lvl_1", "path": "C:/Users/ACER/Desktop/mapa_unipe/pontos_lvl_1.shp", "tipo": null }, "geometry": { "type": "Point", "coordinates": [ -34.854441045865478, -7.159654825671582 ] } },
{ "type": "Feature", "properties": { "id": null, "level": 1, "nome": "bloco_a_sala_28", "layer": "pontos_lvl_1", "path": "C:/Users/ACER/Desktop/mapa_unipe/pontos_lvl_1.shp", "tipo": null }, "geometry": { "type": "Point", "coordinates": [ -34.854390272143249, -7.159569570883281 ] } },
{ "type": "Feature", "properties": { "id": null, "level": 1, "nome": "bloco_a_sala_29", "layer": "pontos_lvl_1", "path": "C:/Users/ACER/Desktop/mapa_unipe/pontos_lvl_1.shp", "tipo": null }, "geometry": { "type": "Point", "coordinates": [ -34.854268762380748, -7.159610475960468 ] } },
{ "type": "Feature", "properties": { "id": null, "level": 1, "nome": "bloco_a_sala_30", "layer": "pontos_lvl_1", "path": "C:/Users/ACER/Desktop/mapa_unipe/pontos_lvl_1.shp", "tipo": null }, "geometry": { "type": "Point", "coordinates": [ -34.854178931949164, -7.159590238712217 ] } },
{ "type": "Feature", "properties": { "id": null, "level": 1, "nome": "bloco_a_sala_31", "layer": "pontos_lvl_1", "path": "C:/Users/ACER/Desktop/mapa_unipe/pontos_lvl_1.shp", "tipo": null }, "geometry": { "type": "Point", "coordinates": [ -34.854086063773515, -7.159564834505692 ] } },
{ "type": "Feature", "properties": { "id": null, "level": 1, "nome": "bloco_a_sala_32", "layer": "pontos_lvl_1", "path": "C:/Users/ACER/Desktop/mapa_unipe/pontos_lvl_1.shp", "tipo": null }, "geometry": { "type": "Point", "coordinates": [ -34.853994931451581, -7.159537707978513 ] } },
{ "type": "Feature", "properties": { "id": null, "level": 1, "nome": "bloco_a_sala_33", "layer": "pontos_lvl_1", "path": "C:/Users/ACER/Desktop/mapa_unipe/pontos_lvl_1.shp", "tipo": null }, "geometry": { "type": "Point", "coordinates": [ -34.853855195224703, -7.159502615722721 ] } },
{ "type": "Feature", "properties": { "id": null, "level": 1, "nome": "bloco_a_sala_34", "layer": "pontos_lvl_1", "path": "C:/Users/ACER/Desktop/mapa_unipe/pontos_lvl_1.shp", "tipo": null }, "geometry": { "type": "Point", "coordinates": [ -34.853798779977815, -7.15948625368842 ] } },
{ "type": "Feature", "properties": { "id": null, "level": 1, "nome": "bloco_a_sala_35", "layer": "pontos_lvl_1", "path": "C:/Users/ACER/Desktop/mapa_unipe/pontos_lvl_1.shp", "tipo": null }, "geometry": { "type": "Point", "coordinates": [ -34.853733251498731, -7.159473336292505 ] } },
{ "type": "Feature", "properties": { "id": null, "level": 1, "nome": "bloco_a_sala_36", "layer": "pontos_lvl_1", "path": "C:/Users/ACER/Desktop/mapa_unipe/pontos_lvl_1.shp", "tipo": null }, "geometry": { "type": "Point", "coordinates": [ -34.853698968387157, -7.159394109589553 ] } },
{ "type": "Feature", "properties": { "id": null, "level": 1, "nome": "ct_sala_5", "layer": "pontos_lvl_1", "path": "C:/Users/ACER/Desktop/mapa_unipe/pontos_lvl_1.shp", "tipo": null }, "geometry": { "type": "Point", "coordinates": [ -34.856041503023363, -7.159609614800983 ] } },
{ "type": "Feature", "properties": { "id": null, "level": 1, "nome": "ct_sala_6", "layer": "pontos_lvl_1", "path": "C:/Users/ACER/Desktop/mapa_unipe/pontos_lvl_1.shp", "tipo": null }, "geometry": { "type": "Point", "coordinates": [ -34.856101823941195, -7.159624685091678 ] } },
{ "type": "Feature", "properties": { "id": null, "level": 1, "nome": "ct_sala_7", "layer": "pontos_lvl_1", "path": "C:/Users/ACER/Desktop/mapa_unipe/pontos_lvl_1.shp", "tipo": null }, "geometry": { "type": "Point", "coordinates": [ -34.856096616379951, -7.159402505898395 ] } },
{ "type": "Feature", "properties": { "id": null, "level": 1, "nome": "ct_sala_8", "layer": "pontos_lvl_1", "path": "C:/Users/ACER/Desktop/mapa_unipe/pontos_lvl_1.shp", "tipo": null }, "geometry": { "type": "Point", "coordinates": [ -34.856159975041841, -7.159419729095542 ] } },
{ "type": "Feature", "properties": { "id": null, "level": 2, "nome": "ct_sala_9", "layer": "pontos_lvl_2", "path": "C:/Users/ACER/Desktop/mapa_unipe/pontos_lvl_2.shp", "tipo": null }, "geometry": { "type": "Point", "coordinates": [ -34.856041503023363, -7.159609614800983 ] } },
{ "type": "Feature", "properties": { "id": null, "level": 2, "nome": "ct_sala_10", "layer": "pontos_lvl_2", "path": "C:/Users/ACER/Desktop/mapa_unipe/pontos_lvl_2.shp", "tipo": null }, "geometry": { "type": "Point", "coordinates": [ -34.856101823941195, -7.159624685091678 ] } },
{ "type": "Feature", "properties": { "id": null, "level": 2, "nome": "ct_sala_11", "layer": "pontos_lvl_2", "path": "C:/Users/ACER/Desktop/mapa_unipe/pontos_lvl_2.shp", "tipo": null }, "geometry": { "type": "Point", "coordinates": [ -34.856096616379951, -7.159402505898395 ] } },
{ "type": "Feature", "properties": { "id": null, "level": 2, "nome": "ct_sala_12", "layer": "pontos_lvl_2", "path": "C:/Users/ACER/Desktop/mapa_unipe/pontos_lvl_2.shp", "tipo": null }, "geometry": { "type": "Point", "coordinates": [ -34.856159975041841, -7.159419729095542 ] } }
]
}
