{
"type": "FeatureCollection",
"name": "pontos_indoor_icones",
"crs": { "type": "name", "properties": { "name": "urn:ogc:def:crs:OGC:1.3:CRS84" } },
"features": [
{ "type": "Feature", "properties": { "id": 1, "tipo": "banheiro", "predio": "CT", "rotation": 255, "layer": "pontos_banheiro", "path": "C:/Users/ACER/Desktop/mapa_unipe/pontos_banheiro.shp" }, "geometry": { "type": "Point", "coordinates": [ -34.856170331449349, -7.15958718251546 ] } },
{ "type": "Feature", "properties": { "id": 2, "tipo": "banheiro", "predio": "CT", "rotation": 255, "layer": "pontos_banheiro", "path": "C:/Users/ACER/Desktop/mapa_unipe/pontos_banheiro.shp" }, "geometry": { "type": "Point", "coordinates": [ -34.856197523398443, -7.15948411275076 ] } },
{ "type": "Feature", "properties": { "id": 3, "tipo": "banheiro", "predio": "EVA", "rotation": -15, "layer": "pontos_banheiro", "path": "C:/Users/ACER/Desktop/mapa_unipe/pontos_banheiro.shp" }, "geometry": { "type": "Point", "coordinates": [ -34.854370789706216, -7.16016482013736 ] } },
{ "type": "Feature", "properties": { "id": 3, "tipo": "banheiro", "predio": "Bloco A", "rotation": -15, "layer": "pontos_banheiro", "path": "C:/Users/ACER/Desktop/mapa_unipe/pontos_banheiro.shp" }, "geometry": { "type": "Point", "coordinates": [ -34.854767420175612, -7.159736816620254 ] } },
{ "type": "Feature", "properties": { "id": 3, "tipo": "banheiro", "predio": "Bloco A", "rotation": -15, "layer": "pontos_banheiro", "path": "C:/Users/ACER/Desktop/mapa_unipe/pontos_banheiro.shp" }, "geometry": { "type": "Point", "coordinates": [ -34.8539952696349, -7.159538213568165 ] } },
{ "type": "Feature", "properties": { "id": 3, "tipo": "banheiro", "predio": "Bloco C", "rotation": -15, "layer": "pontos_banheiro", "path": "C:/Users/ACER/Desktop/mapa_unipe/pontos_banheiro.shp" }, "geometry": { "type": "Point", "coordinates": [ -34.854879377385679, -7.159311393618264 ] } },
{ "type": "Feature", "properties": { "id": 3, "tipo": "banheiro", "predio": "Bloco C", "rotation": -15, "layer": "pontos_banheiro", "path": "C:/Users/ACER/Desktop/mapa_unipe/pontos_banheiro.shp" }, "geometry": { "type": "Point", "coordinates": [ -34.854108932398162, -7.159110733882252 ] } },
{ "type": "Feature", "properties": { "id": 2, "tipo": "banheiro", "predio": "Bloco J", "rotation": 255, "layer": "pontos_banheiro", "path": "C:/Users/ACER/Desktop/mapa_unipe/pontos_banheiro.shp" }, "geometry": { "type": "Point", "coordinates": [ -34.855852145902332, -7.158768364317682 ] } },
{ "type": "Feature", "properties": { "id": 1, "tipo": "escada", "predio": "Bloco A", "rotation": -285, "layer": "pontos_escadas", "path": "C:/Users/ACER/Desktop/mapa_unipe/pontos_escadas.shp" }, "geometry": { "type": "Point", "coordinates": [ -34.854666464383207, -7.159706975549496 ] } },
{ "type": "Feature", "properties": { "id": 1, "tipo": "escada", "predio": "Bloco C", "rotation": -285, "layer": "pontos_escadas", "path": "C:/Users/ACER/Desktop/mapa_unipe/pontos_escadas.shp" }, "geometry": { "type": "Point", "coordinates": [ -34.85400988498742, -7.159071298135609 ] } },
{ "type": "Feature", "properties": { "id": 1, "tipo": "escada", "predio": "Bloco A", "rotation": -285, "layer": "pontos_escadas", "path": "C:/Users/ACER/Desktop/mapa_unipe/pontos_escadas.shp" }, "geometry": { "type": "Point", "coordinates": [ -34.853895432981616, -7.159508620843461 ] } },
{ "type": "Feature", "properties": { "id": 1, "tipo": "escada", "predio": "Bloco C", "rotation": -285, "layer": "pontos_escadas", "path": "C:/Users/ACER/Desktop/mapa_unipe/pontos_escadas.shp" }, "geometry": { "type": "Point", "coordinates": [ -34.854780471708466, -7.159272139362006 ] } },
{ "type": "Feature", "properties": { "id": 2, "tipo": "escada", "predio": "CT", "rotation": 255, "layer": "pontos_escadas", "path": "C:/Users/ACER/Desktop/mapa_unipe/pontos_escadas.shp" }, "geometry": { "type": "Point", "coordinates": [ -34.856105943819806, -7.159515363146679 ] } },
{ "type": "Feature", "properties": { "id": 1, "tipo": "escada", "predio": "Bloco J", "rotation": -285, "layer": "pontos_escadas", "path": "C:/Users/ACER/Desktop/mapa_unipe/pontos_escadas.shp" }, "geometry": { "type": "Point", "coordinates": [ -34.85589300747575, -7.158895636478418 ] } }
]
}

