<?xml version='1.0' encoding='utf-8'?>
<osm version="0.6" generator="python_custom_converter_exact">
  <node id="1" lat="-7.15816903019853" lon="-34.857879736913844" version="1" />
  <node id="2" lat="-7.158798590657668" lon="-34.85799029101818" version="1" />
  <node id="3" lat="-7.158913188478684" lon="-34.8580041568453" version="1" />
  <node id="4" lat="-7.15898112127786" lon="-34.85798900093776" version="1" />
  <node id="5" lat="-7.159013789211662" lon="-34.8579690778076" version="1" />
  <node id="6" lat="-7.159047454993376" lon="-34.857930675458675" version="1" />
  <node id="7" lat="-7.159581110909334" lon="-34.8570273020108" version="1" />
  <node id="8" lat="-7.159408013157397" lon="-34.85636211383993" version="1" />
  <node id="9" lat="-7.15819113257109" lon="-34.85783733810547" version="1" />
  <node id="10" lat="-7.158317270331389" lon="-34.85784179875922" version="1" />
  <node id="11" lat="-7.158562906922406" lon="-34.857888635623596" version="1" />
  <node id="12" lat="-7.158758752217781" lon="-34.857923205690156" version="1" />
  <node id="13" lat="-7.158858334539119" lon="-34.85793435732454" version="1" />
  <node id="14" lat="-7.158941319790292" lon="-34.8579332421611" version="1" />
  <node id="15" lat="-7.158978939765849" lon="-34.85792543601704" version="1" />
  <node id="16" lat="-7.15900770798036" lon="-34.85790257516656" version="1" />
  <node id="17" lat="-7.159061924995084" lon="-34.85780053771203" version="1" />
  <node id="18" lat="-7.159124993759202" lon="-34.85758642633203" version="1" />
  <node id="19" lat="-7.159161507250234" lon="-34.85749275260327" version="1" />
  <node id="20" lat="-7.159443663942032" lon="-34.85709174203212" version="1" />
  <node id="21" lat="-7.159492341475154" lon="-34.85703274768529" version="1" />
  <node id="22" lat="-7.159500916606556" lon="-34.85700821408965" version="1" />
  <node id="23" lat="-7.15933863492359" lon="-34.85635976085237" version="1" />
  <node id="24" lat="-7.158742291889136" lon="-34.85633953568034" version="1" />
  <node id="25" lat="-7.158560096377787" lon="-34.85633335646435" version="1" />
  <node id="26" lat="-7.157435992580545" lon="-34.85629523219791" version="1" />
  <node id="27" lat="-7.159365898371822" lon="-34.85606416584377" version="1" />
  <node id="28" lat="-7.1594816261749" lon="-34.856033611761845" version="1" />
  <node id="29" lat="-7.15962427092065" lon="-34.85599595114475" version="1" />
  <node id="30" lat="-7.159634751749057" lon="-34.85603574531913" version="1" />
  <node id="31" lat="-7.159784985753371" lon="-34.855996188980725" version="1" />
  <node id="32" lat="-7.160204290295764" lon="-34.85588578679311" version="1" />
  <node id="33" lat="-7.160138736229384" lon="-34.855608948202836" version="1" />
  <node id="34" lat="-7.160069528463646" lon="-34.855626674085656" version="1" />
  <node id="35" lat="-7.159763445674447" lon="-34.85592576968657" version="1" />
  <node id="36" lat="-7.159486212545248" lon="-34.85604176252834" version="1" />
  <node id="37" lat="-7.159432915814296" lon="-34.8558641703871" version="1" />
  <node id="38" lat="-7.15941580705633" lon="-34.85580465673898" version="1" />
  <node id="39" lat="-7.159455330088828" lon="-34.85579432629123" version="1" />
  <node id="40" lat="-7.159395209784531" lon="-34.855810040410546" version="1" />
  <node id="41" lat="-7.159345164629277" lon="-34.85582312110691" version="1" />
  <node id="42" lat="-7.159295830530531" lon="-34.85583601594742" version="1" />
  <node id="43" lat="-7.159290067037538" lon="-34.855799658067646" version="1" />
  <node id="44" lat="-7.159318570846066" lon="-34.855713843016055" version="1" />
  <node id="45" lat="-7.159307692842982" lon="-34.855669143570665" version="1" />
  <node id="46" lat="-7.159270703812758" lon="-34.85551714976836" version="1" />
  <node id="47" lat="-7.159361173947371" lon="-34.85549390958048" version="1" />
  <node id="48" lat="-7.159410289770227" lon="-34.85548129258671" version="1" />
  <node id="49" lat="-7.159432974133199" lon="-34.85544364873514" version="1" />
  <node id="50" lat="-7.159455658495045" lon="-34.85540600488358" version="1" />
  <node id="51" lat="-7.159444073195091" lon="-34.855352544905855" version="1" />
  <node id="52" lat="-7.159440954244291" lon="-34.85533815261232" version="1" />
  <node id="53" lat="-7.159446293942306" lon="-34.85531389219139" version="1" />
  <node id="54" lat="-7.159489024517247" lon="-34.85525294313233" version="1" />
  <node id="55" lat="-7.159490558448591" lon="-34.85523176124392" version="1" />
  <node id="56" lat="-7.159473312804054" lon="-34.85515951954911" version="1" />
  <node id="57" lat="-7.159390448310974" lon="-34.854812401715975" version="1" />
  <node id="58" lat="-7.159501324617167" lon="-34.85515830073135" version="1" />
  <node id="59" lat="-7.159636617751023" lon="-34.855125494899326" version="1" />
  <node id="60" lat="-7.15972838597532" lon="-34.85510324296669" version="1" />
  <node id="61" lat="-7.159855346542721" lon="-34.85507245759744" version="1" />
  <node id="62" lat="-7.160050508121281" lon="-34.85517125874828" version="1" />
  <node id="63" lat="-7.159988747380352" lon="-34.85486795857562" version="1" />
  <node id="64" lat="-7.159544413714686" lon="-34.85477163995735" version="1" />
  <node id="65" lat="-7.159592182186527" lon="-34.854954918041905" version="1" />
  <node id="66" lat="-7.159721829388639" lon="-34.855041629876844" version="1" />
  <node id="67" lat="-7.159713081286938" lon="-34.855043916347334" version="1" />
  <node id="68" lat="-7.159665778067768" lon="-34.854823707459936" version="1" />
  <node id="69" lat="-7.159552889549537" lon="-34.85470091947772" version="1" />
  <node id="70" lat="-7.15952613129649" lon="-34.85460058571932" version="1" />
  <node id="71" lat="-7.15950602233884" lon="-34.854525184670386" version="1" />
  <node id="72" lat="-7.159467752563919" lon="-34.854381687871246" version="1" />
  <node id="73" lat="-7.159402110715935" lon="-34.85413555572353" version="1" />
  <node id="74" lat="-7.159364699166678" lon="-34.85399527655391" version="1" />
  <node id="75" lat="-7.159261301502621" lon="-34.854435648876574" version="1" />
  <node id="76" lat="-7.159458094544116" lon="-34.85401624274147" version="1" />
  <node id="77" lat="-7.159583699807615" lon="-34.854504594728255" version="1" />
  <node id="78" lat="-7.1585715" lon="-34.85603239999999" version="1" />
  <node id="79" lat="-7.158576" lon="-34.8559129" version="1" />
  <node id="80" lat="-7.1584656" lon="-34.8559046" version="1" />
  <node id="81" lat="-7.1584748" lon="-34.8557922" version="1" />
  <node id="82" lat="-7.158656213347054" lon="-34.855772751247564" version="1" />
  <node id="83" lat="-7.158759795925429" lon="-34.85574681784604" version="1" />
  <node id="84" lat="-7.158895817667837" lon="-34.85571276282014" version="1" />
  <node id="85" lat="-7.159091219230675" lon="-34.8556638411729" version="1" />
  <node id="86" lat="-7.159134226173898" lon="-34.85565307375106" version="1" />
  <node id="87" lat="-7.159148314704952" lon="-34.85571023295187" version="1" />
  <node id="88" lat="-7.159208824110219" lon="-34.855695427208786" version="1" />
  <node id="89" lat="-7.1587499" lon="-34.8560941" version="1" />
  <node id="90" lat="-7.159662661938654" lon="-34.8554962716764" version="1" />
  <node id="91" lat="-7.159643386120774" lon="-34.855427907260335" version="1" />
  <node id="92" lat="-7.159539741627617" lon="-34.8554545229909" version="1" />
  <node id="93" lat="-7.159437235154652" lon="-34.85516598793995" version="1" />
  <node id="94" lat="-7.159291558238208" lon="-34.85520373748164" version="1" />
  <node id="95" lat="-7.159255312976883" lon="-34.855210347568736" version="1" />
  <node id="96" lat="-7.159147661323333" lon="-34.8552386732593" version="1" />
  <node id="97" lat="-7.159205116016087" lon="-34.85483622526509" version="1" />
  <node id="98" lat="-7.159184337395924" lon="-34.854853147544276" version="1" />
  <node id="99" lat="-7.159056211373359" lon="-34.85488470921001" version="1" />
  <node id="100" lat="-7.159043148538654" lon="-34.85488792701659" version="1" />
  <node id="101" lat="-7.159183734683348" lon="-34.85537829798703" version="1" />
  <node id="102" lat="-7.158959698474698" lon="-34.85451114870625" version="1" />
  <node id="103" lat="-7.15885512025488" lon="-34.85410537321111" version="1" />
  <node id="104" lat="-7.158767676568433" lon="-34.853767913570394" version="1" />
  <node id="105" lat="-7.159791330062448" lon="-34.85429711297415" version="1" />
  <node id="106" lat="-7.159568275353344" lon="-34.85435541378689" version="1" />
  <node id="107" lat="-7.159131743275276" lon="-34.85446808099773" version="1" />
  <node id="108" lat="-7.159002045712619" lon="-34.85405708593183" version="1" />
  <node id="109" lat="-7.15884117251328" lon="-34.85410849875564" version="1" />
  <node id="110" lat="-7.158788160338948" lon="-34.854120378234384" version="1" />
  <node id="111" lat="-7.158700556719157" lon="-34.85414000929444" version="1" />
  <node id="112" lat="-7.158157068132999" lon="-34.85429494783934" version="1" />
  <node id="113" lat="-7.158098147456842" lon="-34.854345076120865" version="1" />
  <node id="114" lat="-7.158062758617714" lon="-34.854351909370386" version="1" />
  <node id="115" lat="-7.158009366096901" lon="-34.85436221895924" version="1" />
  <node id="116" lat="-7.157925015480323" lon="-34.85438290588882" version="1" />
  <node id="117" lat="-7.158019639537805" lon="-34.85475271643355" version="1" />
  <node id="118" lat="-7.158090643115667" lon="-34.85471816535278" version="1" />
  <node id="119" lat="-7.158048675366513" lon="-34.85473341209305" version="1" />
  <node id="120" lat="-7.158007195610649" lon="-34.85477718499254" version="1" />
  <node id="121" lat="-7.158003403891467" lon="-34.85479719541351" version="1" />
  <node id="122" lat="-7.159765386902586" lon="-34.85467902301282" version="1" />
  <node id="123" lat="-7.159890537100591" lon="-34.85464879293051" version="1" />
  <node id="124" lat="-7.1599306013498" lon="-34.85463917661708" version="1" />
  <node id="125" lat="-7.159767377472001" lon="-34.85420116727392" version="1" />
  <node id="126" lat="-7.159770281952604" lon="-34.85414826666558" version="1" />
  <node id="127" lat="-7.159704803821941" lon="-34.85387780784499" version="1" />
  <node id="128" lat="-7.159567086068059" lon="-34.85390803013192" version="1" />
  <node id="129" lat="-7.159731400576653" lon="-34.85387197116181" version="1" />
  <node id="130" lat="-7.15979349030461" lon="-34.85385643991582" version="1" />
  <node id="131" lat="-7.159900882772305" lon="-34.85425616919895" version="1" />
  <node id="132" lat="-7.159998450669969" lon="-34.85462070608962" version="1" />
  <node id="133" lat="-7.160046292528012" lon="-34.8547974041176" version="1" />
  <node id="134" lat="-7.159912647815295" lon="-34.85425101118446" version="1" />
  <node id="135" lat="-7.159967934404797" lon="-34.854153946027246" version="1" />
  <node id="136" lat="-7.160010198021547" lon="-34.854056905019206" version="1" />
  <node id="137" lat="-7.160004609452327" lon="-34.85401467811607" version="1" />
  <node id="138" lat="-7.15999390087928" lon="-34.85398036925788" version="1" />
  <node id="139" lat="-7.159839920327332" lon="-34.85387686354444" version="1" />
  <node id="140" lat="-7.159846591248723" lon="-34.85405408881086" version="1" />
  <node id="141" lat="-7.158889313579401" lon="-34.85453878001075" version="1" />
  <node id="142" lat="-7.158704595336434" lon="-34.85457599691011" version="1" />
  <node id="143" lat="-7.158680019103541" lon="-34.85458110756512" version="1" />
  <node id="144" lat="-7.158472399755336" lon="-34.85463461352686" version="1" />
  <node id="145" lat="-7.158518248029646" lon="-34.854744678420154" version="1" />
  <node id="146" lat="-7.15852391237771" lon="-34.85470242628282" version="1" />
  <node id="147" lat="-7.15847859475817" lon="-34.854659649055804" version="1" />
  <node id="148" lat="-7.158470681284101" lon="-34.85462766876234" version="1" />
  <node id="149" lat="-7.158460572953724" lon="-34.8545873375979" version="1" />
  <node id="150" lat="-7.158467469210968" lon="-34.854585579434385" version="1" />
  <node id="151" lat="-7.158669618294051" lon="-34.854531617821145" version="1" />
  <node id="152" lat="-7.158680567029556" lon="-34.85452909064996" version="1" />
  <node id="153" lat="-7.158710830250131" lon="-34.85460197158574" version="1" />
  <node id="154" lat="-7.158798324212801" lon="-34.85467336679465" version="1" />
  <node id="155" lat="-7.158478606630868" lon="-34.854659636268686" version="1" />
  <node id="156" lat="-7.158463312177662" lon="-34.85468988913572" version="1" />
  <node id="157" lat="-7.158454246791371" lon="-34.854692337818776" version="1" />
  <node id="158" lat="-7.158898294900003" lon="-34.85572147351375" version="1" />
  <node id="159" lat="-7.159134957957056" lon="-34.85448044386883" version="1" />
  <node id="160" lat="-7.159129204592421" lon="-34.85445831785136" version="1" />
  <node id="161" lat="-7.159570953238431" lon="-34.85436582515673" version="1" />
  <node id="162" lat="-7.15956544663559" lon="-34.85434441599366" version="1" />
  <node id="163" lat="-7.158982304579978" lon="-34.854902404354974" version="1" />
  <node id="164" lat="-7.15889609637554" lon="-34.854923775034536" version="1" />
  <node id="165" lat="-7.158880230284069" lon="-34.854861889876084" version="1" />
  <node id="166" lat="-7.158845054648025" lon="-34.854724710881484" version="1" />
  <node id="167" lat="-7.15851116801722" lon="-34.85478035570252" version="1" />
  <node id="168" lat="-7.158545512203773" lon="-34.85491253911083" version="1" />
  <node id="169" lat="-7.158554941980593" lon="-34.85494850977086" version="1" />
  <node id="170" lat="-7.158926356022005" lon="-34.85503548161467" version="1" />
  <node id="171" lat="-7.158969243272936" lon="-34.855193482738414" version="1" />
  <node id="172" lat="-7.159016354861275" lon="-34.85536704678067" version="1" />
  <node id="173" lat="-7.15860003930718" lon="-34.85512176090288" version="1" />
  <node id="174" lat="-7.158641280263862" lon="-34.855280197233185" version="1" />
  <node id="175" lat="-7.158687942933151" lon="-34.85545946214363" version="1" />
  <node id="176" lat="-7.158470493150425" lon="-34.85493398509689" version="1" />
  <node id="177" lat="-7.159187987642205" lon="-34.855895729266294" version="1" />
  <node id="178" lat="-7.159195208522987" lon="-34.85592346496842" version="1" />
  <node id="179" lat="-7.1593056523136" lon="-34.85589807810732" version="1" />
  <node id="180" lat="-7.159743330024852" lon="-34.85503601030663" version="1" />
  <node id="181" lat="-7.159681509066941" lon="-34.85479565605809" version="1" />
  <node id="182" lat="-7.159658722750383" lon="-34.854706952885444" version="1" />
  <node id="183" lat="-7.159605139538348" lon="-34.8544986946908" version="1" />
  <node id="184" lat="-7.159472914291513" lon="-34.853984658827876" version="1" />
  <node id="185" lat="-7.159460375694725" lon="-34.85393590993289" version="1" />
  <node id="186" lat="-7.159405000421091" lon="-34.853720616049245" version="1" />
  <node id="187" lat="-7.159715853824911" lon="-34.854691992451976" version="1" />
  <node id="188" lat="-7.159561302789342" lon="-34.854732463928244" version="1" />
  <node id="189" lat="-7.159535933409193" lon="-34.85473910272115" version="1" />
  <node id="190" lat="-7.15938249158886" lon="-34.85477928723686" version="1" />
  <node id="191" lat="-7.159223491780668" lon="-34.85482092309354" version="1" />
  <node id="192" lat="-7.159316180762572" lon="-34.85517738210185" version="1" />
  <node id="193" lat="-7.15902326672361" lon="-34.854050111612395" version="1" />
  <node id="194" lat="-7.15893445373441" lon="-34.853709354381614" version="1" />
  <node id="195" lat="-7.159517753804934" lon="-34.853920918979746" version="1" />
  <node id="196" lat="-7.159356294064585" lon="-34.85396310292616" version="1" />
  <node id="197" lat="-7.159183477085234" lon="-34.85587994990009" version="1" />
  <node id="198" lat="-7.158956835045053" lon="-34.85593663742067" version="1" />
  <node id="199" lat="-7.158540883895402" lon="-34.85561758974608" version="1" />
  <node id="200" lat="-7.158373797791535" lon="-34.854956935251806" version="1" />
  <node id="201" lat="-7.158359548951584" lon="-34.854900595687575" version="1" />
  <node id="202" lat="-7.159512007832427" lon="-34.85389859665213" version="1" />
  <node id="203" lat="-7.159492755546768" lon="-34.85390362924853" version="1" />
  <node id="204" lat="-7.159498505133532" lon="-34.85392597150048" version="1" />
  <node id="205" lat="-7.159510129724175" lon="-34.856083129508356" version="1" />
  <node id="206" lat="-7.159519837180786" lon="-34.856117704513565" version="1" />
  <node id="207" lat="-7.159502684468461" lon="-34.85612259638371" version="1" />
  <node id="208" lat="-7.159492977011489" lon="-34.856088021378504" version="1" />
  <node id="209" lat="-7.159486212614948" lon="-34.8560417624885" version="1" />
  <node id="210" lat="-7.15951010832382" lon="-34.856083142061536" version="1" />
  <node id="211" lat="-7.159710024741232" lon="-34.85466934723883" version="1" />
  <node id="212" lat="-7.159690772463932" lon="-34.85467437983523" version="1" />
  <node id="213" lat="-7.159695848670272" lon="-34.85469720693525" version="1" />
  <node id="214" lat="-7.158702319451119" lon="-34.85452407025886" version="1" />
  <node id="215" lat="-7.158608672465581" lon="-34.85416430403143" version="1" />
  <node id="216" lat="-7.158506076094667" lon="-34.853770157592734" version="1" />
  <node id="217" lat="-7.158489099889491" lon="-34.85458006480962" version="1" />
  <node id="218" lat="-7.158392439995511" lon="-34.854221477141245" version="1" />
  <node id="219" lat="-7.158287142195316" lon="-34.853828160464765" version="1" />
  <node id="220" lat="-7.158278107700386" lon="-34.85467066148295" version="1" />
  <node id="221" lat="-7.158176076087781" lon="-34.85427868497081" version="1" />
  <node id="222" lat="-7.158073180995339" lon="-34.85388339130287" version="1" />
  <node id="223" lat="-7.157925082920399" lon="-34.85799870492343" version="1" />
  <node id="224" lat="-7.157995179141003" lon="-34.85793865513159" version="1" />
  <node id="225" lat="-7.15803197965251" lon="-34.85792540885398" version="1" />
  <node id="226" lat="-7.158089809021734" lon="-34.85792187651328" version="1" />
  <node id="227" lat="-7.158225620390336" lon="-34.85793688896124" version="1" />
  <node id="228" lat="-7.158762732051971" lon="-34.85802961290452" version="1" />
  <node id="229" lat="-7.158908181430649" lon="-34.85804904077835" version="1" />
  <node id="230" lat="-7.158959877282983" lon="-34.85804285918213" version="1" />
  <node id="231" lat="-7.15900193492124" lon="-34.85802872981934" version="1" />
  <node id="232" lat="-7.159044868756293" lon="-34.85800312034929" version="1" />
  <node id="233" lat="-7.159077288180084" lon="-34.85797044619785" version="1" />
  <node id="234" lat="-7.159312484384386" lon="-34.857568682113644" version="1" />
  <node id="235" lat="-7.159677485204346" lon="-34.856945184310696" version="1" />
  <node id="236" lat="-7.160308118531649" lon="-34.85597119711994" version="1" />
  <node id="237" lat="-7.160109865888597" lon="-34.855205023186834" version="1" />
  <node id="238" lat="-7.159960646068862" lon="-34.854630992707015" version="1" />
  <node id="239" lat="-7.159761653998356" lon="-34.853864403512" version="1" />
  <node id="240" lat="-7.159699766976312" lon="-34.85362734003081" version="1" />
  <node id="241" lat="-7.159448903101212" lon="-34.85537482452511" version="1" />
  <node id="242" lat="-7.159415908933409" lon="-34.85538323893862" version="1" />
  <node id="243" lat="-7.159167157926539" lon="-34.85546566675683" version="1" />
  <node id="244" lat="-7.158674440482651" lon="-34.85564739241393" version="1" />
  <node id="245" lat="-7.15841122335704" lon="-34.85575028967948" version="1" />
  <node id="246" lat="-7.158188109937337" lon="-34.85581946752561" version="1" />
  <node id="247" lat="-7.158103656027252" lon="-34.85583943161164" version="1" />
  <node id="248" lat="-7.157914489602586" lon="-34.8558841487081" version="1" />
  <node id="249" lat="-7.157590308925288" lon="-34.85596078181298" version="1" />
  <node id="250" lat="-7.157495277066932" lon="-34.856021799274345" version="1" />
  <node id="251" lat="-7.157448008408461" lon="-34.85608233878133" version="1" />
  <node id="252" lat="-7.157412967847185" lon="-34.85613885580771" version="1" />
  <node id="253" lat="-7.157390588970772" lon="-34.85620473249375" version="1" />
  <node id="254" lat="-7.157220721119304" lon="-34.85736410940678" version="1" />
  <node id="255" lat="-7.15721712628679" lon="-34.85741014479206" version="1" />
  <node id="256" lat="-7.157225902688627" lon="-34.85746135375961" version="1" />
  <node id="257" lat="-7.157242492678854" lon="-34.85749139416482" version="1" />
  <node id="258" lat="-7.157274943989622" lon="-34.85751255272845" version="1" />
  <node id="259" lat="-7.157829568028516" lon="-34.857781028416284" version="1" />
  <node id="260" lat="-7.157756881512578" lon="-34.85792323739717" version="1" />
  <node id="261" lat="-7.15870030782281" lon="-34.85343782572986" version="1" />
  <node id="262" lat="-7.158617006336794" lon="-34.85335373490445" version="1" />
  <node id="263" lat="-7.158429416538368" lon="-34.85319282923994" version="1" />
  <node id="264" lat="-7.15810000967628" lon="-34.85293344669655" version="1" />
  <node id="265" lat="-7.157917770950169" lon="-34.85282395728389" version="1" />
  <node id="266" lat="-7.157892429189942" lon="-34.85281501301868" version="1" />
  <node id="267" lat="-7.157714549430359" lon="-34.85275676241893" version="1" />
  <node id="268" lat="-7.15700321014436" lon="-34.85256197799429" version="1" />
  <node id="269" lat="-7.156864659290762" lon="-34.85251471285737" version="1" />
  <node id="270" lat="-7.156819066141273" lon="-34.85248475767111" version="1" />
  <node id="271" lat="-7.156659011934308" lon="-34.85233167927393" version="1" />
  <node id="272" lat="-7.156593240556182" lon="-34.85228846679634" version="1" />
  <node id="273" lat="-7.156531904123934" lon="-34.852262860930054" version="1" />
  <node id="274" lat="-7.156329497761856" lon="-34.85222578865659" version="1" />
  <node id="275" lat="-7.156284814731198" lon="-34.85222996632005" version="1" />
  <node id="276" lat="-7.15624118440168" lon="-34.85224854118944" version="1" />
  <node id="277" lat="-7.156209022214699" lon="-34.852272352147885" version="1" />
  <node id="278" lat="-7.156182299056739" lon="-34.852300832953965" version="1" />
  <node id="279" lat="-7.156161198364492" lon="-34.85236667484414" version="1" />
  <node id="280" lat="-7.156097716287728" lon="-34.85266767924493" version="1" />
  <node id="281" lat="-7.156266414267437" lon="-34.85271389549709" version="1" />
  <node id="282" lat="-7.156333778514637" lon="-34.85246571999597" version="1" />
  <node id="283" lat="-7.156366266708022" lon="-34.85239420249848" version="1" />
  <node id="284" lat="-7.156413617577946" lon="-34.8523606624665" version="1" />
  <node id="285" lat="-7.156477574826129" lon="-34.852350913897745" version="1" />
  <node id="286" lat="-7.15655382853383" lon="-34.85238180837399" version="1" />
  <node id="287" lat="-7.156744728551734" lon="-34.85256122329817" version="1" />
  <node id="288" lat="-7.156797417360056" lon="-34.852599946329896" version="1" />
  <node id="289" lat="-7.156875373278525" lon="-34.85263089510974" version="1" />
  <node id="290" lat="-7.157419965825831" lon="-34.85278620945147" version="1" />
  <node id="291" lat="-7.157590808873001" lon="-34.85283041899846" version="1" />
  <node id="292" lat="-7.157825667887351" lon="-34.85289829268057" version="1" />
  <node id="293" lat="-7.157921100633245" lon="-34.85294355265182" version="1" />
  <node id="294" lat="-7.1579523923217" lon="-34.85296629819794" version="1" />
  <node id="295" lat="-7.158188344669039" lon="-34.853137809127354" version="1" />
  <node id="296" lat="-7.158332058721448" lon="-34.85323404258378" version="1" />
  <node id="297" lat="-7.158360667027006" lon="-34.85325815074985" version="1" />
  <node id="298" lat="-7.158498594440612" lon="-34.853374381946864" version="1" />
  <node id="299" lat="-7.158641847991156" lon="-34.85347393174296" version="1" />
  <node id="300" lat="-7.158734175961269" lon="-34.853641803805075" version="1" />
  <node id="301" lat="-7.158749968389853" lon="-34.85363856474887" version="1" />
  <node id="302" lat="-7.158763431508068" lon="-34.85363362678138" version="1" />
  <node id="303" lat="-7.158779089313954" lon="-34.853624879275074" version="1" />
  <node id="304" lat="-7.158785236381278" lon="-34.85361986231063" version="1" />
  <node id="305" lat="-7.158793000739202" lon="-34.85361352538504" version="1" />
  <node id="306" lat="-7.158804745830986" lon="-34.853599908394685" version="1" />
  <node id="307" lat="-7.158805689589077" lon="-34.85359829356003" version="1" />
  <node id="308" lat="-7.158814736890285" lon="-34.853582813008636" version="1" />
  <node id="309" lat="-7.158819871479741" lon="-34.853569332492434" version="1" />
  <node id="310" lat="-7.158823094579041" lon="-34.85355526146317" version="1" />
  <node id="311" lat="-7.158824342824612" lon="-34.85353726204249" version="1" />
  <node id="312" lat="-7.158822798746029" lon="-34.85352109602167" version="1" />
  <node id="313" lat="-7.158819871831815" lon="-34.85350880670918" version="1" />
  <node id="314" lat="-7.158814736890285" lon="-34.85349532619392" version="1" />
  <node id="315" lat="-7.158806800707119" lon="-34.85348118976249" version="1" />
  <node id="316" lat="-7.158797980242326" lon="-34.85346981075627" version="1" />
  <node id="317" lat="-7.15878346675064" lon="-34.85345640690719" version="1" />
  <node id="318" lat="-7.158766680335406" lon="-34.853446039276626" version="1" />
  <node id="319" lat="-7.158748239570133" lon="-34.85343909038807" version="1" />
  <node id="320" lat="-7.158728824028785" lon="-34.85343581601628" version="1" />
  <node id="321" lat="-7.158707365648069" lon="-34.85343657082276" version="1" />
  <node id="322" lat="-7.158696815102361" lon="-34.85343863852054" version="1" />
  <node id="323" lat="-7.158684856134721" lon="-34.85344243868731" version="1" />
  <node id="324" lat="-7.158668765884828" lon="-34.85345034807892" version="1" />
  <node id="325" lat="-7.158654283595054" lon="-34.85346095284299" version="1" />
  <node id="326" lat="-7.158632720282843" lon="-34.853487316741415" version="1" />
  <node id="327" lat="-7.15862455705099" lon="-34.85350537020281" version="1" />
  <node id="328" lat="-7.158619960699418" lon="-34.8535246643893" version="1" />
  <node id="329" lat="-7.158619703720444" lon="-34.853529609579304" version="1" />
  <node id="330" lat="-7.158619024369202" lon="-34.85354268271481" version="1" />
  <node id="331" lat="-7.158620848108733" lon="-34.853558819423675" version="1" />
  <node id="332" lat="-7.158625154503319" lon="-34.853574469567626" version="1" />
  <node id="333" lat="-7.158631837657462" lon="-34.85358925016996" version="1" />
  <node id="334" lat="-7.158641848129646" lon="-34.853604208084626" version="1" />
  <node id="335" lat="-7.158648310286235" lon="-34.853610835594196" version="1" />
  <node id="336" lat="-7.158655646554961" lon="-34.853618359582704" version="1" />
  <node id="337" lat="-7.158671871560244" lon="-34.85362959871739" version="1" />
  <node id="338" lat="-7.158678052772074" lon="-34.85363224290772" version="1" />
  <node id="339" lat="-7.1586916338747" lon="-34.85363805261333" version="1" />
  <node id="340" lat="-7.158705594475719" lon="-34.85364130099384" version="1" />
  <node id="341" lat="-7.158719868618434" lon="-34.85364256020123" version="1" />
  <node id="342" lat="-7.159706308405385" lon="-34.85362412426364" version="1" />
  <node id="343" lat="-7.159713055682061" lon="-34.85361945086995" version="1" />
  <node id="344" lat="-7.159720189008681" lon="-34.853612385977854" version="1" />
  <node id="345" lat="-7.1597262876985" lon="-34.85360327300465" version="1" />
  <node id="346" lat="-7.159730844571333" lon="-34.85359130858015" version="1" />
  <node id="347" lat="-7.159732394454129" lon="-34.853578587662824" version="1" />
  <node id="348" lat="-7.159731436012146" lon="-34.85356855423037" version="1" />
  <node id="349" lat="-7.159728247103001" lon="-34.853558042581426" version="1" />
  <node id="350" lat="-7.159723717084404" lon="-34.853550134754755" version="1" />
  <node id="351" lat="-7.159721889193635" lon="-34.853546943897385" version="1" />
  <node id="352" lat="-7.159711620696052" lon="-34.8535365945111" version="1" />
  <node id="353" lat="-7.159703908197864" lon="-34.85353173738822" version="1" />
  <node id="354" lat="-7.159695476689447" lon="-34.853528304085145" version="1" />
  <node id="355" lat="-7.159685677166971" lon="-34.853526294790626" version="1" />
  <node id="356" lat="-7.15967476995962" lon="-34.853526294585045" version="1" />
  <node id="357" lat="-7.1596623801587" lon="-34.853529177485335" version="1" />
  <node id="358" lat="-7.159650299196138" lon="-34.853535515728694" version="1" />
  <node id="359" lat="-7.159641452631619" lon="-34.85354340401242" version="1" />
  <node id="360" lat="-7.159634593427382" lon="-34.85355309582871" version="1" />
  <node id="361" lat="-7.159631402572323" lon="-34.85356105550012" version="1" />
  <node id="362" lat="-7.159629829803687" lon="-34.85356497881261" version="1" />
  <node id="363" lat="-7.159628052195189" lon="-34.853578587662824" version="1" />
  <node id="364" lat="-7.159629192426435" lon="-34.853589520306855" version="1" />
  <node id="365" lat="-7.159632562626806" lon="-34.85359997433214" version="1" />
  <node id="366" lat="-7.159638015989787" lon="-34.8536094940625" version="1" />
  <node id="367" lat="-7.159645314026811" lon="-34.85361766305204" version="1" />
  <node id="368" lat="-7.159654137473337" lon="-34.8536241236322" version="1" />
  <node id="369" lat="-7.159665843015238" lon="-34.853629131881966" version="1" />
  <node id="370" lat="-7.159673865519157" lon="-34.853630777072965" version="1" />
  <node id="371" lat="-7.159682953753584" lon="-34.85363109672488" version="1" />
  <node id="372" lat="-7.159691959688827" lon="-34.85362982064656" version="1" />
  <node id="373" lat="-7.160584632298873" lon="-34.85361679186773" version="1" />
  <node id="374" lat="-7.160590299985036" lon="-34.85361579765722" version="1" />
  <node id="375" lat="-7.160595326393478" lon="-34.85361459903207" version="1" />
  <node id="376" lat="-7.160605674510988" lon="-34.85361110930377" version="1" />
  <node id="377" lat="-7.160614152864286" lon="-34.85360712466943" version="1" />
  <node id="378" lat="-7.160622172181264" lon="-34.853602268383206" version="1" />
  <node id="379" lat="-7.160631998307432" lon="-34.85359453064861" version="1" />
  <node id="380" lat="-7.160640659838148" lon="-34.85358549116973" version="1" />
  <node id="381" lat="-7.160650363713075" lon="-34.853571261094984" version="1" />
  <node id="382" lat="-7.160657195560352" lon="-34.85355542544096" version="1" />
  <node id="383" lat="-7.160659616563587" lon="-34.85354631814526" version="1" />
  <node id="384" lat="-7.160661229850684" lon="-34.853535440397614" version="1" />
  <node id="385" lat="-7.160661229942429" lon="-34.85351973811913" version="1" />
  <node id="386" lat="-7.16065852452646" lon="-34.85350427532899" version="1" />
  <node id="387" lat="-7.160652524392384" lon="-34.85348810135011" version="1" />
  <node id="388" lat="-7.160644500572256" lon="-34.85347464237658" version="1" />
  <node id="389" lat="-7.160631996568691" lon="-34.85346064709854" version="1" />
  <node id="390" lat="-7.160616881729379" lon="-34.853449578777386" version="1" />
  <node id="391" lat="-7.160604222702035" lon="-34.85344349327965" version="1" />
  <node id="392" lat="-7.160590775910801" lon="-34.85343947892016" version="1" />
  <node id="393" lat="-7.160579982919921" lon="-34.85343785340467" version="1" />
  <node id="394" lat="-7.16057063206258" lon="-34.853437524528495" version="1" />
  <node id="395" lat="-7.160556673241365" lon="-34.85343887912803" version="1" />
  <node id="396" lat="-7.16054457465207" lon="-34.853441919258394" version="1" />
  <node id="397" lat="-7.160533013434416" lon="-34.85344662701029" version="1" />
  <node id="398" lat="-7.160522214811916" lon="-34.853452910604844" version="1" />
  <node id="399" lat="-7.1605079011399" lon="-34.85346501606915" version="1" />
  <node id="400" lat="-7.160497236082944" lon="-34.8534785289454" version="1" />
  <node id="401" lat="-7.160489922046843" lon="-34.85349239278671" version="1" />
  <node id="402" lat="-7.160484770116657" lon="-34.853508861013395" version="1" />
  <node id="403" lat="-7.160483306591834" lon="-34.8535181737116" version="1" />
  <node id="404" lat="-7.160482817002597" lon="-34.85352758921203" version="1" />
  <node id="405" lat="-7.160483306725066" lon="-34.853537004965375" version="1" />
  <node id="406" lat="-7.160484770116657" lon="-34.853546317974654" version="1" />
  <node id="407" lat="-7.160488207567678" lon="-34.853558398576645" version="1" />
  <node id="408" lat="-7.160492558479416" lon="-34.85356848451175" version="1" />
  <node id="409" lat="-7.160499886406976" lon="-34.85358053656301" version="1" />
  <node id="410" lat="-7.160510107385932" lon="-34.85359238691577" version="1" />
  <node id="411" lat="-7.16051840547482" lon="-34.853599530579935" version="1" />
  <node id="412" lat="-7.160528862927467" lon="-34.85360637437706" version="1" />
  <node id="413" lat="-7.160538712066536" lon="-34.85361110903907" version="1" />
  <node id="414" lat="-7.16054906116755" lon="-34.853614599142475" version="1" />
  <node id="415" lat="-7.160556673333658" lon="-34.853616299843935" version="1" />
  <node id="416" lat="-7.160565957859354" lon="-34.853617448530144" version="1" />
  <node id="417" lat="-7.160575312869192" lon="-34.853617613648936" version="1" />
  <node id="418" lat="-7.160805845517937" lon="-34.853066791076046" version="1" />
  <node id="419" lat="-7.160816530835771" lon="-34.85306878700361" version="1" />
  <node id="420" lat="-7.160827397516174" lon="-34.853068691454176" version="1" />
  <node id="421" lat="-7.160838990650662" lon="-34.85306620767485" version="1" />
  <node id="422" lat="-7.160844403930608" lon="-34.85306377863159" version="1" />
  <node id="423" lat="-7.160849817210487" lon="-34.85306134958833" version="1" />
  <node id="424" lat="-7.160857911988887" lon="-34.85305563650357" version="1" />
  <node id="425" lat="-7.16086954841953" lon="-34.85304214559178" version="1" />
  <node id="426" lat="-7.160875966977869" lon="-34.853027615372625" version="1" />
  <node id="427" lat="-7.160878154096618" lon="-34.85301286492529" version="1" />
  <node id="428" lat="-7.160877121067782" lon="-34.85300096574546" version="1" />
  <node id="429" lat="-7.160873261533067" lon="-34.8529886281617" version="1" />
  <node id="430" lat="-7.16086954855139" lon="-34.85298159013234" version="1" />
  <node id="431" lat="-7.160864898372323" lon="-34.85297513944476" version="1" />
  <node id="432" lat="-7.160858664878925" lon="-34.85296874620159" version="1" />
  <node id="433" lat="-7.160852347843918" lon="-34.85296394888146" version="1" />
  <node id="434" lat="-7.16084086052144" lon="-34.852958176573566" version="1" />
  <node id="435" lat="-7.160832288911807" lon="-34.85295578081708" version="1" />
  <node id="436" lat="-7.160823450177249" lon="-34.852954765855806" version="1" />
  <node id="437" lat="-7.160812602384452" lon="-34.8529554344927" version="1" />
  <node id="438" lat="-7.160805845400337" lon="-34.85295694448798" version="1" />
  <node id="439" lat="-7.160799320731285" lon="-34.85295927314022" version="1" />
  <node id="440" lat="-7.160788954974357" lon="-34.85296506411573" version="1" />
  <node id="441" lat="-7.160784278914766" lon="-34.85296874611943" version="1" />
  <node id="442" lat="-7.160779342028702" lon="-34.85297363583583" version="1" />
  <node id="443" lat="-7.160775033283969" lon="-34.85297909518151" version="1" />
  <node id="444" lat="-7.1607696818376" lon="-34.8529886281617" version="1" />
  <node id="445" lat="-7.160766233901596" lon="-34.85299901455989" version="1" />
  <node id="446" lat="-7.160765091111325" lon="-34.8530058952435" version="1" />
  <node id="447" lat="-7.160764780638563" lon="-34.853011867752336" version="1" />
  <node id="448" lat="-7.160765203231078" lon="-34.85301883103639" version="1" />
  <node id="449" lat="-7.160766464929099" lon="-34.85302569093278" version="1" />
  <node id="450" lat="-7.160768545909447" lon="-34.85303234403431" version="1" />
  <node id="451" lat="-7.160771888579363" lon="-34.85303956817546" version="1" />
  <node id="452" lat="-7.160776798289071" lon="-34.853047044295195" version="1" />
  <node id="453" lat="-7.160782808486106" lon="-34.85305365489133" version="1" />
  <node id="454" lat="-7.160791428862784" lon="-34.853060322993095" version="1" />
  <node id="455" lat="-7.16079841367952" lon="-34.85306406495757" version="1" />
  <node id="456" lat="-7.160898762171819" lon="-34.85506839776969" version="1" />
  <node id="457" lat="-7.160924634229922" lon="-34.85498799932126" version="1" />
  <node id="458" lat="-7.160933916731346" lon="-34.854959996727665" version="1" />
  <node id="459" lat="-7.160916109181376" lon="-34.85488772459258" version="1" />
  <node id="460" lat="-7.160842828996016" lon="-34.85459087923649" version="1" />
  <node id="461" lat="-7.16074520724827" lon="-34.85420766425134" version="1" />
  <node id="462" lat="-7.160643356410251" lon="-34.85342007297162" version="1" />
  <node id="463" lat="-7.160789838107852" lon="-34.85312293332135" version="1" />
  <node id="464" lat="-7.160429208185251" lon="-34.85353142449497" version="1" />
  <node id="465" lat="-7.160415884300804" lon="-34.85353252534361" version="1" />
  <node id="466" lat="-7.16009607177288" lon="-34.85355235849803" version="1" />
  <node id="467" lat="-7.159781957501568" lon="-34.85356892801925" version="1" />
  <node id="468" lat="-7.159674020690541" lon="-34.85346833909663" version="1" />
  <node id="469" lat="-7.159524136582642" lon="-34.85295497774955" version="1" />
  <node id="470" lat="-7.159513950760394" lon="-34.85291954395692" version="1" />
  <node id="471" lat="-7.159509569761505" lon="-34.85287185735753" version="1" />
  <node id="472" lat="-7.159518550809179" lon="-34.85283763780704" version="1" />
  <node id="473" lat="-7.159689409731211" lon="-34.852566530658585" version="1" />
  <node id="474" lat="-7.159706057520191" lon="-34.85251177937779" version="1" />
  <node id="475" lat="-7.159698171725488" lon="-34.85246674203391" version="1" />
  <node id="476" lat="-7.159645599757305" lon="-34.85241552309382" version="1" />
  <node id="477" lat="-7.159357987174116" lon="-34.85225502236341" version="1" />
  <node id="478" lat="-7.159277492474121" lon="-34.85221821161218" version="1" />
  <node id="479" lat="-7.159254376503756" lon="-34.852215062759285" version="1" />
  <node id="480" lat="-7.159235538197525" lon="-34.852225659781375" version="1" />
  <node id="481" lat="-7.1589586588162" lon="-34.85271047354197" version="1" />
  <node id="482" lat="-7.158946574878915" lon="-34.852720579421906" version="1" />
  <node id="483" lat="-7.158914254063247" lon="-34.85274760954125" version="1" />
  <node id="484" lat="-7.158395088232911" lon="-34.8532254350152" version="1" />
  <node id="485" lat="-7.159030207252435" lon="-34.852767209252406" version="1" />
  <node id="486" lat="-7.159161110616447" lon="-34.852840195380324" version="1" />
  <node id="487" lat="-7.159255909854226" lon="-34.8528930514017" version="1" />
  <node id="488" lat="-7.159261168991634" lon="-34.852896505635414" version="1" />
  <node id="489" lat="-7.15939759696715" lon="-34.85298611238068" version="1" />
  <node id="490" lat="-7.159455683471759" lon="-34.852988424600504" version="1" />
  <node id="491" lat="-7.159571832054079" lon="-34.8535881046463" version="1" />
  <node id="492" lat="-7.159137648759764" lon="-34.85359104704419" version="1" />
  <node id="493" lat="-7.159037162733016" lon="-34.85359172802318" version="1" />
  <node id="494" lat="-7.159139244391991" lon="-34.85328872453056" version="1" />
  <node id="495" lat="-7.159141127604578" lon="-34.852939854915924" version="1" />
  <node id="496" lat="-7.159145172400668" lon="-34.85290975326965" version="1" />
  <node id="497" lat="-7.158906276356613" lon="-34.85352191330351" version="1" />
  <node id="498" lat="-7.158993049697861" lon="-34.85333812632945" version="1" />
  <node id="499" lat="-7.159013202315212" lon="-34.85332223079631" version="1" />
  <node id="500" lat="-7.159061393353087" lon="-34.85330633526318" version="1" />
  <node id="501" lat="-7.158787339426917" lon="-34.85328980684138" version="1" />
  <node id="502" lat="-7.158797656883486" lon="-34.853263505632235" version="1" />
  <node id="503" lat="-7.158980782886864" lon="-34.852857727994724" version="1" />
  <node id="504" lat="-7.159007730698909" lon="-34.85280828051066" version="1" />
  <node id="505" lat="-7.159181432825302" lon="-34.85205853591216" version="1" />
  <node id="506" lat="-7.158981659087662" lon="-34.85183423227793" version="1" />
  <node id="507" lat="-7.158849352748347" lon="-34.851721197375646" version="1" />
  <node id="508" lat="-7.158785390067235" lon="-34.851677043116936" version="1" />
  <node id="509" lat="-7.158702150948249" lon="-34.851657615243106" version="1" />
  <node id="510" lat="-7.158663598087994" lon="-34.851669095350374" version="1" />
  <node id="511" lat="-7.158623292821517" lon="-34.85170530184251" version="1" />
  <node id="512" lat="-7.158548815689306" lon="-34.85180509046718" version="1" />
  <node id="513" lat="-7.158285078923367" lon="-34.85216362304788" version="1" />
  <node id="514" lat="-7.15801958959968" lon="-34.85259545169802" version="1" />
  <node id="515" lat="-7.157966141235304" lon="-34.852699655748566" version="1" />
  <node id="516" lat="-7.158090113428139" lon="-34.85578051068275" version="1" />
  <node id="517" lat="-7.158028789727342" lon="-34.85551360665587" version="1" />
  <node id="518" lat="-7.157958693511903" lon="-34.85525574578502" version="1" />
  <node id="519" lat="-7.158301398187811" lon="-34.855364365261515" version="1" />
  <node id="520" lat="-7.158172596460618" lon="-34.854867188308496" version="1" />
  <node id="521" lat="-7.158040413083948" lon="-34.85435622408095" version="1" />
  <node id="522" lat="-7.157920842342328" lon="-34.85392904932771" version="1" />
  <node id="523" lat="-7.157887073520501" lon="-34.85381129074617" version="1" />
  <node id="524" lat="-7.157865816009859" lon="-34.85368208800475" version="1" />
  <node id="525" lat="-7.157844787138847" lon="-34.85321935137351" version="1" />
  <node id="526" lat="-7.157855301574474" lon="-34.85316283392237" version="1" />
  <node id="527" lat="-7.157904368937531" lon="-34.853044500509036" version="1" />
  <node id="528" lat="-7.159017704283004" lon="-34.85489398164823" version="1" />
  <node id="529" lat="-7.158958040349194" lon="-34.854665747367086" version="1" />
  <node id="530" lat="-7.158814705793183" lon="-34.85411442967344" version="1" />
  <node id="531" lat="-7.158723289304904" lon="-34.8537677472667" version="1" />
  <node id="532" lat="-7.15851999772602" lon="-34.85364335173112" version="1" />
  <node id="533" lat="-7.157732742669138" lon="-34.85384457567686" version="1" />
  <node id="534" lat="-7.158845306507566" lon="-34.85348843878455" version="1" />
  <node id="535" lat="-7.159017058994479" lon="-34.85489413518275" version="1" />
  <node id="536" lat="-7.159274516947493" lon="-34.85287276987706" version="1" />
  <node id="537" lat="-7.159242429342269" lon="-34.85292982907295" version="1" />
  <node id="538" lat="-7.159167558254631" lon="-34.85291979260201" version="1" />
  <node id="539" lat="-7.159109226568998" lon="-34.85289363272634" version="1" />
  <node id="540" lat="-7.159032937795207" lon="-34.85282277338294" version="1" />
  <node id="541" lat="-7.158977983130489" lon="-34.85279117708554" version="1" />
  <node id="542" lat="-7.158936306098469" lon="-34.85276701521106" version="1" />
  <node id="543" lat="-7.158886883772378" lon="-34.85272352383699" version="1" />
  <node id="544" lat="-7.160417850977967" lon="-34.85356225737966" version="1" />
  <node id="545" lat="-7.160413072237385" lon="-34.85349001283973" version="1" />
  <node id="546" lat="-7.160778574806829" lon="-34.854199256785996" version="1" />
  <node id="547" lat="-7.160703335149474" lon="-34.85421821456443" version="1" />
  <node id="548" lat="-7.160948417223018" lon="-34.854877833737746" version="1" />
  <node id="549" lat="-7.160894384843403" lon="-34.85489437532873" version="1" />
  <node id="550" lat="-7.158123545584304" lon="-34.855772613000894" version="1" />
  <node id="551" lat="-7.158058324675044" lon="-34.85578802014279" version="1" />
  <node id="552" lat="-7.157923147343439" lon="-34.85591660847978" version="1" />
  <node id="553" lat="-7.157904706136657" lon="-34.855847468346646" version="1" />
  <node id="554" lat="-7.159341642735033" lon="-34.85758563642462" version="1" />
  <node id="555" lat="-7.159284106346319" lon="-34.85755218152149" version="1" />
  <way id="1" version="1">
    <nd ref="1" />
    <nd ref="2" />
    <nd ref="3" />
    <nd ref="4" />
    <nd ref="5" />
    <nd ref="6" />
    <nd ref="7" />
    <nd ref="8" />
    <tag k="highway" v="footway" />
    <tag k="layer" v="calcadas_unipe" />
    <tag k="path" v="C:/Users/ACER/Desktop/mapa_unipe/calcadas_unipe.shp" />
  </way>
  <way id="2" version="1">
    <nd ref="9" />
    <nd ref="10" />
    <nd ref="11" />
    <nd ref="12" />
    <nd ref="13" />
    <nd ref="14" />
    <nd ref="15" />
    <nd ref="16" />
    <nd ref="17" />
    <nd ref="18" />
    <nd ref="19" />
    <nd ref="20" />
    <nd ref="21" />
    <nd ref="22" />
    <nd ref="23" />
    <tag k="highway" v="footway" />
    <tag k="layer" v="calcadas_unipe" />
    <tag k="path" v="C:/Users/ACER/Desktop/mapa_unipe/calcadas_unipe.shp" />
  </way>
  <way id="3" version="1">
    <nd ref="8" />
    <nd ref="23" />
    <nd ref="24" />
    <nd ref="25" />
    <nd ref="26" />
    <tag k="highway" v="footway" />
    <tag k="layer" v="calcadas_unipe" />
    <tag k="path" v="C:/Users/ACER/Desktop/mapa_unipe/calcadas_unipe.shp" />
  </way>
  <way id="4" version="1">
    <nd ref="8" />
    <nd ref="27" />
    <nd ref="28" />
    <nd ref="29" />
    <nd ref="30" />
    <nd ref="31" />
    <nd ref="32" />
    <nd ref="33" />
    <nd ref="34" />
    <tag k="highway" v="footway" />
    <tag k="layer" v="calcadas_unipe" />
    <tag k="path" v="C:/Users/ACER/Desktop/mapa_unipe/calcadas_unipe.shp" />
  </way>
  <way id="5" version="1">
    <nd ref="31" />
    <nd ref="35" />
    <tag k="highway" v="footway" />
    <tag k="layer" v="calcadas_unipe" />
    <tag k="path" v="C:/Users/ACER/Desktop/mapa_unipe/calcadas_unipe.shp" />
  </way>
  <way id="6" version="1">
    <nd ref="36" />
    <nd ref="28" />
    <nd ref="37" />
    <nd ref="38" />
    <tag k="highway" v="footway" />
    <tag k="layer" v="calcadas_unipe" />
    <tag k="path" v="C:/Users/ACER/Desktop/mapa_unipe/calcadas_unipe.shp" />
  </way>
  <way id="7" version="1">
    <nd ref="39" />
    <nd ref="38" />
    <nd ref="40" />
    <nd ref="41" />
    <nd ref="42" />
    <nd ref="43" />
    <nd ref="44" />
    <tag k="highway" v="footway" />
    <tag k="layer" v="calcadas_unipe" />
    <tag k="path" v="C:/Users/ACER/Desktop/mapa_unipe/calcadas_unipe.shp" />
  </way>
  <way id="8" version="1">
    <nd ref="41" />
    <nd ref="44" />
    <nd ref="45" />
    <nd ref="46" />
    <nd ref="47" />
    <tag k="highway" v="footway" />
    <tag k="layer" v="calcadas_unipe" />
    <tag k="path" v="C:/Users/ACER/Desktop/mapa_unipe/calcadas_unipe.shp" />
  </way>
  <way id="9" version="1">
    <nd ref="40" />
    <nd ref="47" />
    <nd ref="48" />
    <nd ref="49" />
    <nd ref="50" />
    <tag k="highway" v="footway" />
    <tag k="layer" v="calcadas_unipe" />
    <tag k="path" v="C:/Users/ACER/Desktop/mapa_unipe/calcadas_unipe.shp" />
  </way>
  <way id="10" version="1">
    <nd ref="51" />
    <nd ref="52" />
    <nd ref="53" />
    <nd ref="54" />
    <nd ref="55" />
    <nd ref="56" />
    <nd ref="57" />
    <tag k="highway" v="footway" />
    <tag k="layer" v="calcadas_unipe" />
    <tag k="path" v="C:/Users/ACER/Desktop/mapa_unipe/calcadas_unipe.shp" />
  </way>
  <way id="11" version="1">
    <nd ref="56" />
    <nd ref="58" />
    <nd ref="59" />
    <nd ref="60" />
    <nd ref="61" />
    <tag k="highway" v="footway" />
    <tag k="layer" v="calcadas_unipe" />
    <tag k="path" v="C:/Users/ACER/Desktop/mapa_unipe/calcadas_unipe.shp" />
  </way>
  <way id="12" version="1">
    <nd ref="61" />
    <nd ref="62" />
    <tag k="highway" v="footway" />
    <tag k="layer" v="calcadas_unipe" />
    <tag k="path" v="C:/Users/ACER/Desktop/mapa_unipe/calcadas_unipe.shp" />
  </way>
  <way id="13" version="1">
    <nd ref="61" />
    <nd ref="63" />
    <tag k="highway" v="footway" />
    <tag k="layer" v="calcadas_unipe" />
    <tag k="path" v="C:/Users/ACER/Desktop/mapa_unipe/calcadas_unipe.shp" />
  </way>
  <way id="14" version="1">
    <nd ref="64" />
    <nd ref="65" />
    <nd ref="59" />
    <tag k="highway" v="footway" />
    <tag k="layer" v="calcadas_unipe" />
    <tag k="path" v="C:/Users/ACER/Desktop/mapa_unipe/calcadas_unipe.shp" />
  </way>
  <way id="15" version="1">
    <nd ref="66" />
    <nd ref="67" />
    <nd ref="60" />
    <tag k="highway" v="footway" />
    <tag k="layer" v="calcadas_unipe" />
    <tag k="path" v="C:/Users/ACER/Desktop/mapa_unipe/calcadas_unipe.shp" />
  </way>
  <way id="16" version="1">
    <nd ref="68" />
    <nd ref="65" />
    <tag k="highway" v="footway" />
    <tag k="layer" v="calcadas_unipe" />
    <tag k="path" v="C:/Users/ACER/Desktop/mapa_unipe/calcadas_unipe.shp" />
  </way>
  <way id="17" version="1">
    <nd ref="69" />
    <nd ref="70" />
    <nd ref="71" />
    <nd ref="72" />
    <nd ref="73" />
    <nd ref="74" />
    <tag k="highway" v="footway" />
    <tag k="layer" v="calcadas_unipe" />
    <tag k="path" v="C:/Users/ACER/Desktop/mapa_unipe/calcadas_unipe.shp" />
  </way>
  <way id="18" version="1">
    <nd ref="73" />
    <nd ref="75" />
    <nd ref="70" />
    <tag k="highway" v="footway" />
    <tag k="layer" v="calcadas_unipe" />
    <tag k="path" v="C:/Users/ACER/Desktop/mapa_unipe/calcadas_unipe.shp" />
  </way>
  <way id="19" version="1">
    <nd ref="76" />
    <nd ref="73" />
    <tag k="highway" v="footway" />
    <tag k="layer" v="calcadas_unipe" />
    <tag k="path" v="C:/Users/ACER/Desktop/mapa_unipe/calcadas_unipe.shp" />
  </way>
  <way id="20" version="1">
    <nd ref="77" />
    <nd ref="71" />
    <tag k="highway" v="footway" />
    <tag k="layer" v="calcadas_unipe" />
    <tag k="path" v="C:/Users/ACER/Desktop/mapa_unipe/calcadas_unipe.shp" />
  </way>
  <way id="21" version="1">
    <nd ref="25" />
    <nd ref="78" />
    <nd ref="79" />
    <nd ref="80" />
    <nd ref="81" />
    <nd ref="82" />
    <nd ref="83" />
    <nd ref="84" />
    <nd ref="85" />
    <nd ref="86" />
    <nd ref="87" />
    <nd ref="88" />
    <tag k="highway" v="footway" />
    <tag k="layer" v="calcadas_unipe" />
    <tag k="path" v="C:/Users/ACER/Desktop/mapa_unipe/calcadas_unipe.shp" />
  </way>
  <way id="22" version="1">
    <nd ref="24" />
    <nd ref="89" />
    <nd ref="78" />
    <tag k="highway" v="footway" />
    <tag k="layer" v="calcadas_unipe" />
    <tag k="path" v="C:/Users/ACER/Desktop/mapa_unipe/calcadas_unipe.shp" />
  </way>
  <way id="23" version="1">
    <nd ref="90" />
    <nd ref="91" />
    <nd ref="92" />
    <nd ref="49" />
    <tag k="highway" v="footway" />
    <tag k="layer" v="calcadas_unipe" />
    <tag k="path" v="C:/Users/ACER/Desktop/mapa_unipe/calcadas_unipe.shp" />
  </way>
  <way id="24" version="1">
    <nd ref="56" />
    <nd ref="93" />
    <nd ref="94" />
    <nd ref="95" />
    <nd ref="96" />
    <tag k="highway" v="footway" />
    <tag k="layer" v="calcadas_unipe" />
    <tag k="path" v="C:/Users/ACER/Desktop/mapa_unipe/calcadas_unipe.shp" />
  </way>
  <way id="25" version="1">
    <nd ref="97" />
    <nd ref="98" />
    <nd ref="99" />
    <nd ref="100" />
    <tag k="highway" v="footway" />
    <tag k="layer" v="calcadas_unipe" />
    <tag k="path" v="C:/Users/ACER/Desktop/mapa_unipe/calcadas_unipe.shp" />
  </way>
  <way id="26" version="1">
    <nd ref="95" />
    <nd ref="101" />
    <tag k="highway" v="footway" />
    <tag k="layer" v="calcadas_unipe" />
    <tag k="path" v="C:/Users/ACER/Desktop/mapa_unipe/calcadas_unipe.shp" />
  </way>
  <way id="27" version="1">
    <nd ref="101" />
    <nd ref="96" />
    <nd ref="99" />
    <nd ref="102" />
    <nd ref="103" />
    <nd ref="104" />
    <tag k="highway" v="footway" />
    <tag k="layer" v="calcadas_unipe" />
    <tag k="path" v="C:/Users/ACER/Desktop/mapa_unipe/calcadas_unipe.shp" />
  </way>
  <way id="28" version="1">
    <nd ref="105" />
    <nd ref="106" />
    <nd ref="72" />
    <nd ref="75" />
    <nd ref="107" />
    <nd ref="102" />
    <tag k="highway" v="footway" />
    <tag k="layer" v="calcadas_unipe" />
    <tag k="path" v="C:/Users/ACER/Desktop/mapa_unipe/calcadas_unipe.shp" />
  </way>
  <way id="29" version="1">
    <nd ref="108" />
    <nd ref="103" />
    <nd ref="109" />
    <tag k="highway" v="footway" />
    <tag k="layer" v="calcadas_unipe" />
    <tag k="path" v="C:/Users/ACER/Desktop/mapa_unipe/calcadas_unipe.shp" />
  </way>
  <way id="30" version="1">
    <nd ref="110" />
    <nd ref="111" />
    <tag k="highway" v="footway" />
    <tag k="layer" v="calcadas_unipe" />
    <tag k="path" v="C:/Users/ACER/Desktop/mapa_unipe/calcadas_unipe.shp" />
  </way>
  <way id="31" version="1">
    <nd ref="112" />
    <nd ref="113" />
    <nd ref="114" />
    <tag k="highway" v="footway" />
    <tag k="layer" v="calcadas_unipe" />
    <tag k="path" v="C:/Users/ACER/Desktop/mapa_unipe/calcadas_unipe.shp" />
  </way>
  <way id="32" version="1">
    <nd ref="115" />
    <nd ref="116" />
    <nd ref="117" />
    <tag k="highway" v="footway" />
    <tag k="layer" v="calcadas_unipe" />
    <tag k="path" v="C:/Users/ACER/Desktop/mapa_unipe/calcadas_unipe.shp" />
  </way>
  <way id="33" version="1">
    <nd ref="118" />
    <nd ref="119" />
    <nd ref="117" />
    <nd ref="120" />
    <nd ref="121" />
    <tag k="highway" v="footway" />
    <tag k="layer" v="calcadas_unipe" />
    <tag k="path" v="C:/Users/ACER/Desktop/mapa_unipe/calcadas_unipe.shp" />
  </way>
  <way id="34" version="1">
    <nd ref="122" />
    <nd ref="123" />
    <nd ref="124" />
    <tag k="highway" v="footway" />
    <tag k="layer" v="calcadas_unipe" />
    <tag k="path" v="C:/Users/ACER/Desktop/mapa_unipe/calcadas_unipe.shp" />
  </way>
  <way id="35" version="1">
    <nd ref="123" />
    <nd ref="105" />
    <nd ref="125" />
    <nd ref="126" />
    <nd ref="127" />
    <tag k="highway" v="footway" />
    <tag k="layer" v="calcadas_unipe" />
    <tag k="path" v="C:/Users/ACER/Desktop/mapa_unipe/calcadas_unipe.shp" />
  </way>
  <way id="36" version="1">
    <nd ref="128" />
    <nd ref="127" />
    <nd ref="129" />
    <tag k="highway" v="footway" />
    <tag k="layer" v="calcadas_unipe" />
    <tag k="path" v="C:/Users/ACER/Desktop/mapa_unipe/calcadas_unipe.shp" />
  </way>
  <way id="37" version="1">
    <nd ref="130" />
    <nd ref="131" />
    <nd ref="132" />
    <nd ref="133" />
    <tag k="highway" v="footway" />
    <tag k="layer" v="calcadas_unipe" />
    <tag k="path" v="C:/Users/ACER/Desktop/mapa_unipe/calcadas_unipe.shp" />
  </way>
  <way id="38" version="1">
    <nd ref="131" />
    <nd ref="134" />
    <nd ref="135" />
    <nd ref="136" />
    <nd ref="137" />
    <nd ref="138" />
    <nd ref="139" />
    <nd ref="130" />
    <tag k="highway" v="footway" />
    <tag k="layer" v="calcadas_unipe" />
    <tag k="path" v="C:/Users/ACER/Desktop/mapa_unipe/calcadas_unipe.shp" />
  </way>
  <way id="39" version="1">
    <nd ref="137" />
    <nd ref="140" />
    <tag k="highway" v="footway" />
    <tag k="layer" v="calcadas_unipe" />
    <tag k="path" v="C:/Users/ACER/Desktop/mapa_unipe/calcadas_unipe.shp" />
  </way>
  <way id="40" version="1">
    <nd ref="141" />
    <nd ref="142" />
    <nd ref="143" />
    <nd ref="144" />
    <tag k="highway" v="footway" />
    <tag k="layer" v="calcadas_unipe" />
    <tag k="path" v="C:/Users/ACER/Desktop/mapa_unipe/calcadas_unipe.shp" />
  </way>
  <way id="41" version="1">
    <nd ref="145" />
    <nd ref="146" />
    <nd ref="147" />
    <nd ref="148" />
    <nd ref="149" />
    <nd ref="150" />
    <tag k="highway" v="footway" />
    <tag k="layer" v="calcadas_unipe" />
    <tag k="path" v="C:/Users/ACER/Desktop/mapa_unipe/calcadas_unipe.shp" />
  </way>
  <way id="42" version="1">
    <nd ref="143" />
    <nd ref="151" />
    <nd ref="152" />
    <tag k="highway" v="footway" />
    <tag k="layer" v="calcadas_unipe" />
    <tag k="path" v="C:/Users/ACER/Desktop/mapa_unipe/calcadas_unipe.shp" />
  </way>
  <way id="43" version="1">
    <nd ref="142" />
    <nd ref="153" />
    <nd ref="154" />
    <tag k="highway" v="footway" />
    <tag k="layer" v="calcadas_unipe" />
    <tag k="path" v="C:/Users/ACER/Desktop/mapa_unipe/calcadas_unipe.shp" />
  </way>
  <way id="44" version="1">
    <nd ref="155" />
    <nd ref="156" />
    <nd ref="157" />
    <tag k="highway" v="footway" />
    <tag k="layer" v="calcadas_unipe" />
    <tag k="path" v="C:/Users/ACER/Desktop/mapa_unipe/calcadas_unipe.shp" />
  </way>
  <way id="45" version="1">
    <nd ref="84" />
    <nd ref="158" />
    <tag k="highway" v="footway" />
    <tag k="layer" v="calcadas_unipe" />
    <tag k="path" v="C:/Users/ACER/Desktop/mapa_unipe/calcadas_unipe.shp" />
  </way>
  <way id="46" version="1">
    <nd ref="159" />
    <nd ref="107" />
    <nd ref="160" />
    <tag k="highway" v="footway" />
    <tag k="layer" v="conexoes_fantasmas" />
    <tag k="path" v="C:/Users/ACER/Desktop/mapa_unipe/conexoes_fantasmas.shp" />
  </way>
  <way id="47" version="1">
    <nd ref="161" />
    <nd ref="106" />
    <nd ref="162" />
    <tag k="highway" v="footway" />
    <tag k="layer" v="conexoes_fantasmas" />
    <tag k="path" v="C:/Users/ACER/Desktop/mapa_unipe/conexoes_fantasmas.shp" />
  </way>
  <way id="48" version="1">
    <nd ref="163" />
    <nd ref="164" />
    <nd ref="165" />
    <nd ref="166" />
    <nd ref="154" />
    <tag k="highway" v="footway" />
    <tag k="layer" v="conexoes_fantasmas" />
    <tag k="path" v="C:/Users/ACER/Desktop/mapa_unipe/conexoes_fantasmas.shp" />
  </way>
  <way id="49" version="1">
    <nd ref="145" />
    <nd ref="167" />
    <nd ref="168" />
    <nd ref="169" />
    <nd ref="165" />
    <tag k="highway" v="footway" />
    <tag k="layer" v="conexoes_fantasmas" />
    <tag k="path" v="C:/Users/ACER/Desktop/mapa_unipe/conexoes_fantasmas.shp" />
  </way>
  <way id="50" version="1">
    <nd ref="164" />
    <nd ref="170" />
    <nd ref="171" />
    <nd ref="172" />
    <nd ref="85" />
    <tag k="highway" v="footway" />
    <tag k="layer" v="conexoes_fantasmas" />
    <tag k="path" v="C:/Users/ACER/Desktop/mapa_unipe/conexoes_fantasmas.shp" />
  </way>
  <way id="51" version="1">
    <nd ref="169" />
    <nd ref="173" />
    <nd ref="174" />
    <nd ref="175" />
    <nd ref="83" />
    <tag k="highway" v="footway" />
    <tag k="layer" v="conexoes_fantasmas" />
    <tag k="path" v="C:/Users/ACER/Desktop/mapa_unipe/conexoes_fantasmas.shp" />
  </way>
  <way id="52" version="1">
    <nd ref="172" />
    <nd ref="175" />
    <tag k="highway" v="footway" />
    <tag k="layer" v="conexoes_fantasmas" />
    <tag k="path" v="C:/Users/ACER/Desktop/mapa_unipe/conexoes_fantasmas.shp" />
  </way>
  <way id="53" version="1">
    <nd ref="171" />
    <nd ref="174" />
    <tag k="highway" v="footway" />
    <tag k="layer" v="conexoes_fantasmas" />
    <tag k="path" v="C:/Users/ACER/Desktop/mapa_unipe/conexoes_fantasmas.shp" />
  </way>
  <way id="54" version="1">
    <nd ref="170" />
    <nd ref="173" />
    <tag k="highway" v="footway" />
    <tag k="layer" v="conexoes_fantasmas" />
    <tag k="path" v="C:/Users/ACER/Desktop/mapa_unipe/conexoes_fantasmas.shp" />
  </way>
  <way id="55" version="1">
    <nd ref="141" />
    <nd ref="102" />
    <tag k="highway" v="footway" />
    <tag k="layer" v="conexoes_fantasmas" />
    <tag k="path" v="C:/Users/ACER/Desktop/mapa_unipe/conexoes_fantasmas.shp" />
  </way>
  <way id="56" version="1">
    <nd ref="63" />
    <nd ref="133" />
    <tag k="highway" v="footway" />
    <tag k="layer" v="conexoes_fantasmas" />
    <tag k="path" v="C:/Users/ACER/Desktop/mapa_unipe/conexoes_fantasmas.shp" />
  </way>
  <way id="57" version="1">
    <nd ref="105" />
    <nd ref="131" />
    <tag k="highway" v="footway" />
    <tag k="layer" v="conexoes_fantasmas" />
    <tag k="path" v="C:/Users/ACER/Desktop/mapa_unipe/conexoes_fantasmas.shp" />
  </way>
  <way id="58" version="1">
    <nd ref="88" />
    <nd ref="45" />
    <tag k="highway" v="footway" />
    <tag k="layer" v="conexoes_fantasmas" />
    <tag k="path" v="C:/Users/ACER/Desktop/mapa_unipe/conexoes_fantasmas.shp" />
  </way>
  <way id="59" version="1">
    <nd ref="176" />
    <nd ref="168" />
    <tag k="highway" v="footway" />
    <tag k="layer" v="conexoes_fantasmas" />
    <tag k="path" v="C:/Users/ACER/Desktop/mapa_unipe/conexoes_fantasmas.shp" />
  </way>
  <way id="60" version="1">
    <nd ref="177" />
    <nd ref="178" />
    <nd ref="179" />
    <nd ref="42" />
    <tag k="highway" v="footway" />
    <tag k="layer" v="conexoes_fantasmas" />
    <tag k="path" v="C:/Users/ACER/Desktop/mapa_unipe/conexoes_fantasmas.shp" />
  </way>
  <way id="61" version="1">
    <nd ref="179" />
    <nd ref="37" />
    <tag k="highway" v="footway" />
    <tag k="layer" v="conexoes_fantasmas" />
    <tag k="path" v="C:/Users/ACER/Desktop/mapa_unipe/conexoes_fantasmas.shp" />
  </way>
  <way id="62" version="1">
    <nd ref="179" />
    <nd ref="27" />
    <tag k="highway" v="footway" />
    <tag k="layer" v="conexoes_fantasmas" />
    <tag k="path" v="C:/Users/ACER/Desktop/mapa_unipe/conexoes_fantasmas.shp" />
  </way>
  <way id="63" version="1">
    <nd ref="66" />
    <nd ref="180" />
    <nd ref="181" />
    <nd ref="182" />
    <nd ref="183" />
    <nd ref="161" />
    <tag k="highway" v="steps" />
    <tag k="level" v="2" />
    <tag k="layer" v="corredores_level_0" />
    <tag k="path" v="C:/Users/ACER/Desktop/mapa_unipe/corredores_level_0.shp" />
  </way>
  <way id="64" version="1">
    <nd ref="162" />
    <nd ref="184" />
    <nd ref="185" />
    <nd ref="186" />
    <tag k="highway" v="footway" />
    <tag k="level" v="2" />
    <tag k="layer" v="corredores_level_0" />
    <tag k="path" v="C:/Users/ACER/Desktop/mapa_unipe/corredores_level_0.shp" />
  </way>
  <way id="65" version="1">
    <nd ref="122" />
    <nd ref="187" />
    <nd ref="182" />
    <nd ref="188" />
    <nd ref="189" />
    <nd ref="190" />
    <nd ref="191" />
    <nd ref="97" />
    <tag k="highway" v="footway" />
    <tag k="level" v="2" />
    <tag k="layer" v="corredores_level_0" />
    <tag k="path" v="C:/Users/ACER/Desktop/mapa_unipe/corredores_level_0.shp" />
  </way>
  <way id="66" version="1">
    <nd ref="192" />
    <nd ref="191" />
    <nd ref="159" />
    <tag k="highway" v="footway" />
    <tag k="level" v="2" />
    <tag k="layer" v="corredores_level_0" />
    <tag k="path" v="C:/Users/ACER/Desktop/mapa_unipe/corredores_level_0.shp" />
  </way>
  <way id="67" version="1">
    <nd ref="160" />
    <nd ref="193" />
    <nd ref="194" />
    <tag k="highway" v="footway" />
    <tag k="level" v="2" />
    <tag k="layer" v="corredores_level_0" />
    <tag k="path" v="C:/Users/ACER/Desktop/mapa_unipe/corredores_level_0.shp" />
  </way>
  <way id="68" version="1">
    <nd ref="128" />
    <nd ref="195" />
    <nd ref="185" />
    <nd ref="196" />
    <nd ref="193" />
    <nd ref="108" />
    <tag k="highway" v="footway" />
    <tag k="level" v="2" />
    <tag k="layer" v="corredores_level_0" />
    <tag k="path" v="C:/Users/ACER/Desktop/mapa_unipe/corredores_level_0.shp" />
  </way>
  <way id="69" version="1">
    <nd ref="69" />
    <nd ref="188" />
    <tag k="highway" v="footway" />
    <tag k="level" v="2" />
    <tag k="layer" v="corredores_level_0" />
    <tag k="path" v="C:/Users/ACER/Desktop/mapa_unipe/corredores_level_0.shp" />
  </way>
  <way id="70" version="1">
    <nd ref="64" />
    <nd ref="189" />
    <tag k="highway" v="footway" />
    <tag k="level" v="2" />
    <tag k="layer" v="corredores_level_0" />
    <tag k="path" v="C:/Users/ACER/Desktop/mapa_unipe/corredores_level_0.shp" />
  </way>
  <way id="71" version="1">
    <nd ref="190" />
    <nd ref="57" />
    <tag k="highway" v="footway" />
    <tag k="level" v="2" />
    <tag k="layer" v="corredores_level_0" />
    <tag k="path" v="C:/Users/ACER/Desktop/mapa_unipe/corredores_level_0.shp" />
  </way>
  <way id="72" version="1">
    <nd ref="68" />
    <nd ref="181" />
    <tag k="highway" v="footway" />
    <tag k="level" v="2" />
    <tag k="layer" v="corredores_level_0" />
    <tag k="path" v="C:/Users/ACER/Desktop/mapa_unipe/corredores_level_0.shp" />
  </way>
  <way id="73" version="1">
    <nd ref="76" />
    <nd ref="184" />
    <tag k="highway" v="footway" />
    <tag k="level" v="2" />
    <tag k="layer" v="corredores_level_0" />
    <tag k="path" v="C:/Users/ACER/Desktop/mapa_unipe/corredores_level_0.shp" />
  </way>
  <way id="74" version="1">
    <nd ref="177" />
    <nd ref="197" />
    <nd ref="198" />
    <nd ref="158" />
    <tag k="highway" v="footway" />
    <tag k="level" v="2" />
    <tag k="layer" v="corredores_level_0" />
    <tag k="path" v="C:/Users/ACER/Desktop/mapa_unipe/corredores_level_0.shp" />
  </way>
  <way id="75" version="1">
    <nd ref="199" />
    <nd ref="200" />
    <nd ref="201" />
    <tag k="highway" v="footway" />
    <tag k="level" v="2" />
    <tag k="layer" v="corredores_level_0" />
    <tag k="path" v="C:/Users/ACER/Desktop/mapa_unipe/corredores_level_0.shp" />
  </way>
  <way id="76" version="1">
    <nd ref="195" />
    <nd ref="202" />
    <nd ref="203" />
    <nd ref="204" />
    <tag k="highway" v="steps" />
    <tag k="level" v="2" />
    <tag k="layer" v="corredores_level_0" />
    <tag k="path" v="C:/Users/ACER/Desktop/mapa_unipe/corredores_level_0.shp" />
  </way>
  <way id="77" version="1">
    <nd ref="205" />
    <nd ref="206" />
    <nd ref="207" />
    <nd ref="208" />
    <tag k="highway" v="steps" />
    <tag k="level" v="2" />
    <tag k="layer" v="corredores_level_0" />
    <tag k="path" v="C:/Users/ACER/Desktop/mapa_unipe/corredores_level_0.shp" />
  </way>
  <way id="78" version="1">
    <nd ref="209" />
    <nd ref="210" />
    <tag k="highway" v="footway" />
    <tag k="level" v="2" />
    <tag k="layer" v="corredores_level_0" />
    <tag k="path" v="C:/Users/ACER/Desktop/mapa_unipe/corredores_level_0.shp" />
  </way>
  <way id="79" version="1">
    <nd ref="77" />
    <nd ref="183" />
    <tag k="highway" v="footway" />
    <tag k="level" v="2" />
    <tag k="layer" v="corredores_level_0" />
    <tag k="path" v="C:/Users/ACER/Desktop/mapa_unipe/corredores_level_0.shp" />
  </way>
  <way id="80" version="1">
    <nd ref="74" />
    <nd ref="196" />
    <tag k="highway" v="footway" />
    <tag k="level" v="2" />
    <tag k="layer" v="corredores_level_0" />
    <tag k="path" v="C:/Users/ACER/Desktop/mapa_unipe/corredores_level_0.shp" />
  </way>
  <way id="81" version="1">
    <nd ref="187" />
    <nd ref="211" />
    <nd ref="212" />
    <nd ref="213" />
    <tag k="highway" v="stairs" />
    <tag k="level" v="0" />
    <tag k="layer" v="corredores_level_0" />
    <tag k="path" v="C:/Users/ACER/Desktop/mapa_unipe/corredores_level_0.shp" />
  </way>
  <way id="82" version="1">
    <nd ref="152" />
    <nd ref="214" />
    <nd ref="215" />
    <nd ref="216" />
    <tag k="highway" v="footway" />
    <tag k="layer" v="corredores_level_0" />
    <tag k="path" v="C:/Users/ACER/Desktop/mapa_unipe/corredores_level_0.shp" />
  </way>
  <way id="83" version="1">
    <nd ref="150" />
    <nd ref="217" />
    <nd ref="218" />
    <nd ref="219" />
    <tag k="highway" v="footway" />
    <tag k="layer" v="corredores_level_0" />
    <tag k="path" v="C:/Users/ACER/Desktop/mapa_unipe/corredores_level_0.shp" />
  </way>
  <way id="84" version="1">
    <nd ref="220" />
    <nd ref="221" />
    <nd ref="222" />
    <tag k="highway" v="footway" />
    <tag k="layer" v="corredores_level_0" />
    <tag k="path" v="C:/Users/ACER/Desktop/mapa_unipe/corredores_level_0.shp" />
  </way>
  <way id="85" version="1">
    <nd ref="111" />
    <nd ref="215" />
    <nd ref="218" />
    <nd ref="221" />
    <nd ref="112" />
    <tag k="highway" v="footway" />
    <tag k="layer" v="corredores_level_0" />
    <tag k="path" v="C:/Users/ACER/Desktop/mapa_unipe/corredores_level_0.shp" />
  </way>
  <way id="86" version="1">
    <nd ref="176" />
    <nd ref="200" />
    <tag k="highway" v="footway" />
    <tag k="level" v="0" />
    <tag k="layer" v="corredores_level_0" />
    <tag k="path" v="C:/Users/ACER/Desktop/mapa_unipe/corredores_level_0.shp" />
  </way>
  <way id="87" version="1">
    <nd ref="223" />
    <nd ref="224" />
    <nd ref="225" />
    <nd ref="226" />
    <nd ref="227" />
    <nd ref="228" />
    <nd ref="229" />
    <nd ref="230" />
    <nd ref="231" />
    <nd ref="232" />
    <nd ref="233" />
    <nd ref="234" />
    <nd ref="235" />
    <nd ref="236" />
    <nd ref="237" />
    <nd ref="238" />
    <nd ref="239" />
    <nd ref="240" />
    <tag k="oneway" v="no" />
    <tag k="highway" v="service" />
    <tag k="layer" v="estradas_unipe" />
    <tag k="path" v="C:/Users/ACER/Desktop/mapa_unipe/estradas_unipe.shp" />
  </way>
  <way id="88" version="1">
    <nd ref="237" />
    <nd ref="241" />
    <nd ref="242" />
    <nd ref="243" />
    <nd ref="244" />
    <nd ref="245" />
    <nd ref="246" />
    <nd ref="247" />
    <nd ref="248" />
    <nd ref="249" />
    <nd ref="250" />
    <nd ref="251" />
    <nd ref="252" />
    <nd ref="253" />
    <nd ref="254" />
    <nd ref="255" />
    <nd ref="256" />
    <nd ref="257" />
    <nd ref="258" />
    <nd ref="259" />
    <nd ref="260" />
    <tag k="oneway" v="no" />
    <tag k="highway" v="service" />
    <tag k="layer" v="estradas_unipe" />
    <tag k="path" v="C:/Users/ACER/Desktop/mapa_unipe/estradas_unipe.shp" />
  </way>
  <way id="89" version="1">
    <nd ref="261" />
    <nd ref="262" />
    <nd ref="263" />
    <nd ref="264" />
    <nd ref="265" />
    <nd ref="266" />
    <nd ref="267" />
    <nd ref="268" />
    <nd ref="269" />
    <nd ref="270" />
    <nd ref="271" />
    <nd ref="272" />
    <nd ref="273" />
    <nd ref="274" />
    <nd ref="275" />
    <nd ref="276" />
    <nd ref="277" />
    <nd ref="278" />
    <nd ref="279" />
    <nd ref="280" />
    <tag k="oneway" v="no" />
    <tag k="highway" v="service" />
    <tag k="layer" v="estradas_unipe" />
    <tag k="path" v="C:/Users/ACER/Desktop/mapa_unipe/estradas_unipe.shp" />
  </way>
  <way id="90" version="1">
    <nd ref="281" />
    <nd ref="282" />
    <nd ref="283" />
    <nd ref="284" />
    <nd ref="285" />
    <nd ref="286" />
    <nd ref="287" />
    <nd ref="288" />
    <nd ref="289" />
    <nd ref="290" />
    <nd ref="291" />
    <nd ref="292" />
    <nd ref="293" />
    <nd ref="294" />
    <nd ref="295" />
    <nd ref="296" />
    <nd ref="297" />
    <nd ref="298" />
    <nd ref="299" />
    <tag k="oneway" v="no" />
    <tag k="highway" v="service" />
    <tag k="layer" v="estradas_unipe" />
    <tag k="path" v="C:/Users/ACER/Desktop/mapa_unipe/estradas_unipe.shp" />
  </way>
  <way id="91" version="1">
    <nd ref="300" />
    <nd ref="301" />
    <nd ref="302" />
    <nd ref="303" />
    <nd ref="304" />
    <nd ref="305" />
    <nd ref="306" />
    <nd ref="307" />
    <nd ref="308" />
    <nd ref="309" />
    <nd ref="310" />
    <nd ref="311" />
    <nd ref="312" />
    <nd ref="313" />
    <nd ref="314" />
    <nd ref="315" />
    <nd ref="316" />
    <nd ref="317" />
    <nd ref="318" />
    <nd ref="319" />
    <nd ref="320" />
    <nd ref="321" />
    <nd ref="261" />
    <nd ref="322" />
    <nd ref="323" />
    <nd ref="324" />
    <nd ref="325" />
    <nd ref="299" />
    <nd ref="326" />
    <nd ref="327" />
    <nd ref="328" />
    <nd ref="329" />
    <nd ref="330" />
    <nd ref="331" />
    <nd ref="332" />
    <nd ref="333" />
    <nd ref="334" />
    <nd ref="335" />
    <nd ref="336" />
    <nd ref="337" />
    <nd ref="338" />
    <nd ref="339" />
    <nd ref="340" />
    <nd ref="341" />
    <nd ref="300" />
    <tag k="oneway" v="yes" />
    <tag k="highway" v="service" />
    <tag k="roundabout" v="yes" />
    <tag k="layer" v="estradas_unipe" />
    <tag k="path" v="C:/Users/ACER/Desktop/mapa_unipe/estradas_unipe.shp" />
  </way>
  <way id="92" version="1">
    <nd ref="240" />
    <nd ref="342" />
    <nd ref="343" />
    <nd ref="344" />
    <nd ref="345" />
    <nd ref="346" />
    <nd ref="347" />
    <nd ref="348" />
    <nd ref="349" />
    <nd ref="350" />
    <nd ref="351" />
    <nd ref="352" />
    <nd ref="353" />
    <nd ref="354" />
    <nd ref="355" />
    <nd ref="356" />
    <nd ref="357" />
    <nd ref="358" />
    <nd ref="359" />
    <nd ref="360" />
    <nd ref="361" />
    <nd ref="362" />
    <nd ref="363" />
    <nd ref="364" />
    <nd ref="365" />
    <nd ref="366" />
    <nd ref="367" />
    <nd ref="368" />
    <nd ref="369" />
    <nd ref="370" />
    <nd ref="371" />
    <nd ref="372" />
    <nd ref="240" />
    <tag k="oneway" v="yes" />
    <tag k="highway" v="service" />
    <tag k="roundabout" v="yes" />
    <tag k="layer" v="estradas_unipe" />
    <tag k="path" v="C:/Users/ACER/Desktop/mapa_unipe/estradas_unipe.shp" />
  </way>
  <way id="93" version="1">
    <nd ref="373" />
    <nd ref="374" />
    <nd ref="375" />
    <nd ref="376" />
    <nd ref="377" />
    <nd ref="378" />
    <nd ref="379" />
    <nd ref="380" />
    <nd ref="381" />
    <nd ref="382" />
    <nd ref="383" />
    <nd ref="384" />
    <nd ref="385" />
    <nd ref="386" />
    <nd ref="387" />
    <nd ref="388" />
    <nd ref="389" />
    <nd ref="390" />
    <nd ref="391" />
    <nd ref="392" />
    <nd ref="393" />
    <nd ref="394" />
    <nd ref="395" />
    <nd ref="396" />
    <nd ref="397" />
    <nd ref="398" />
    <nd ref="399" />
    <nd ref="400" />
    <nd ref="401" />
    <nd ref="402" />
    <nd ref="403" />
    <nd ref="404" />
    <nd ref="405" />
    <nd ref="406" />
    <nd ref="407" />
    <nd ref="408" />
    <nd ref="409" />
    <nd ref="410" />
    <nd ref="411" />
    <nd ref="412" />
    <nd ref="413" />
    <nd ref="414" />
    <nd ref="415" />
    <nd ref="416" />
    <nd ref="417" />
    <nd ref="373" />
    <tag k="oneway" v="yes" />
    <tag k="highway" v="service" />
    <tag k="roundabout" v="yes" />
    <tag k="layer" v="estradas_unipe" />
    <tag k="path" v="C:/Users/ACER/Desktop/mapa_unipe/estradas_unipe.shp" />
  </way>
  <way id="94" version="1">
    <nd ref="418" />
    <nd ref="419" />
    <nd ref="420" />
    <nd ref="421" />
    <nd ref="422" />
    <nd ref="423" />
    <nd ref="424" />
    <nd ref="425" />
    <nd ref="426" />
    <nd ref="427" />
    <nd ref="428" />
    <nd ref="429" />
    <nd ref="430" />
    <nd ref="431" />
    <nd ref="432" />
    <nd ref="433" />
    <nd ref="434" />
    <nd ref="435" />
    <nd ref="436" />
    <nd ref="437" />
    <nd ref="438" />
    <nd ref="439" />
    <nd ref="440" />
    <nd ref="441" />
    <nd ref="442" />
    <nd ref="443" />
    <nd ref="444" />
    <nd ref="445" />
    <nd ref="446" />
    <nd ref="447" />
    <nd ref="448" />
    <nd ref="449" />
    <nd ref="450" />
    <nd ref="451" />
    <nd ref="452" />
    <nd ref="453" />
    <nd ref="454" />
    <nd ref="455" />
    <nd ref="418" />
    <tag k="oneway" v="yes" />
    <tag k="highway" v="service" />
    <tag k="roundabout" v="yes" />
    <tag k="layer" v="estradas_unipe" />
    <tag k="path" v="C:/Users/ACER/Desktop/mapa_unipe/estradas_unipe.shp" />
  </way>
  <way id="95" version="1">
    <nd ref="236" />
    <nd ref="456" />
    <nd ref="457" />
    <nd ref="458" />
    <nd ref="459" />
    <nd ref="460" />
    <nd ref="461" />
    <nd ref="374" />
    <tag k="oneway" v="no" />
    <tag k="highway" v="service" />
    <tag k="layer" v="estradas_unipe" />
    <tag k="path" v="C:/Users/ACER/Desktop/mapa_unipe/estradas_unipe.shp" />
  </way>
  <way id="96" version="1">
    <nd ref="462" />
    <nd ref="463" />
    <tag k="oneway" v="no" />
    <tag k="highway" v="service" />
    <tag k="layer" v="estradas_unipe" />
    <tag k="path" v="C:/Users/ACER/Desktop/mapa_unipe/estradas_unipe.shp" />
  </way>
  <way id="97" version="1">
    <nd ref="464" />
    <nd ref="465" />
    <nd ref="466" />
    <nd ref="467" />
    <tag k="oneway" v="no" />
    <tag k="highway" v="service" />
    <tag k="layer" v="estradas_unipe" />
    <tag k="path" v="C:/Users/ACER/Desktop/mapa_unipe/estradas_unipe.shp" />
  </way>
  <way id="98" version="1">
    <nd ref="468" />
    <nd ref="469" />
    <nd ref="470" />
    <nd ref="471" />
    <nd ref="472" />
    <nd ref="473" />
    <nd ref="474" />
    <nd ref="475" />
    <nd ref="476" />
    <nd ref="477" />
    <nd ref="478" />
    <nd ref="479" />
    <nd ref="480" />
    <nd ref="481" />
    <nd ref="482" />
    <nd ref="483" />
    <nd ref="263" />
    <nd ref="484" />
    <nd ref="297" />
    <tag k="oneway" v="no" />
    <tag k="highway" v="service" />
    <tag k="layer" v="estradas_unipe" />
    <tag k="path" v="C:/Users/ACER/Desktop/mapa_unipe/estradas_unipe.shp" />
  </way>
  <way id="99" version="1">
    <nd ref="482" />
    <nd ref="485" />
    <nd ref="486" />
    <nd ref="487" />
    <nd ref="488" />
    <nd ref="489" />
    <nd ref="490" />
    <nd ref="469" />
    <tag k="oneway" v="no" />
    <tag k="highway" v="service" />
    <tag k="layer" v="estradas_unipe" />
    <tag k="path" v="C:/Users/ACER/Desktop/mapa_unipe/estradas_unipe.shp" />
  </way>
  <way id="100" version="1">
    <nd ref="491" />
    <nd ref="492" />
    <nd ref="493" />
    <tag k="oneway" v="no" />
    <tag k="highway" v="service" />
    <tag k="layer" v="estradas_unipe" />
    <tag k="path" v="C:/Users/ACER/Desktop/mapa_unipe/estradas_unipe.shp" />
  </way>
  <way id="101" version="1">
    <nd ref="492" />
    <nd ref="494" />
    <nd ref="495" />
    <nd ref="496" />
    <nd ref="486" />
    <tag k="oneway" v="no" />
    <tag k="highway" v="service" />
    <tag k="layer" v="estradas_unipe" />
    <tag k="path" v="C:/Users/ACER/Desktop/mapa_unipe/estradas_unipe.shp" />
  </way>
  <way id="102" version="1">
    <nd ref="497" />
    <nd ref="498" />
    <nd ref="499" />
    <nd ref="500" />
    <nd ref="494" />
    <tag k="oneway" v="no" />
    <tag k="highway" v="service" />
    <tag k="layer" v="estradas_unipe" />
    <tag k="path" v="C:/Users/ACER/Desktop/mapa_unipe/estradas_unipe.shp" />
  </way>
  <way id="103" version="1">
    <nd ref="501" />
    <nd ref="502" />
    <nd ref="503" />
    <nd ref="504" />
    <nd ref="485" />
    <tag k="oneway" v="no" />
    <tag k="highway" v="service" />
    <tag k="layer" v="estradas_unipe" />
    <tag k="path" v="C:/Users/ACER/Desktop/mapa_unipe/estradas_unipe.shp" />
  </way>
  <way id="104" version="1">
    <nd ref="479" />
    <nd ref="505" />
    <nd ref="506" />
    <nd ref="507" />
    <nd ref="508" />
    <nd ref="509" />
    <nd ref="510" />
    <nd ref="511" />
    <nd ref="512" />
    <nd ref="513" />
    <nd ref="514" />
    <nd ref="515" />
    <nd ref="266" />
    <tag k="oneway" v="no" />
    <tag k="highway" v="service" />
    <tag k="layer" v="estradas_unipe" />
    <tag k="path" v="C:/Users/ACER/Desktop/mapa_unipe/estradas_unipe.shp" />
  </way>
  <way id="105" version="1">
    <nd ref="247" />
    <nd ref="516" />
    <nd ref="517" />
    <nd ref="518" />
    <tag k="oneway" v="no" />
    <tag k="highway" v="service" />
    <tag k="layer" v="estradas_unipe" />
    <tag k="path" v="C:/Users/ACER/Desktop/mapa_unipe/estradas_unipe.shp" />
  </way>
  <way id="106" version="1">
    <nd ref="245" />
    <nd ref="519" />
    <nd ref="520" />
    <nd ref="521" />
    <nd ref="522" />
    <nd ref="523" />
    <nd ref="524" />
    <nd ref="525" />
    <nd ref="526" />
    <nd ref="527" />
    <nd ref="294" />
    <tag k="oneway" v="no" />
    <tag k="highway" v="service" />
    <tag k="layer" v="estradas_unipe" />
    <tag k="path" v="C:/Users/ACER/Desktop/mapa_unipe/estradas_unipe.shp" />
  </way>
  <way id="107" version="1">
    <nd ref="243" />
    <nd ref="528" />
    <nd ref="529" />
    <nd ref="530" />
    <nd ref="531" />
    <tag k="oneway" v="no" />
    <tag k="highway" v="service" />
    <tag k="layer" v="estradas_unipe" />
    <tag k="path" v="C:/Users/ACER/Desktop/mapa_unipe/estradas_unipe.shp" />
  </way>
  <way id="108" version="1">
    <nd ref="529" />
    <nd ref="520" />
    <tag k="oneway" v="no" />
    <tag k="highway" v="service" />
    <tag k="layer" v="estradas_unipe" />
    <tag k="path" v="C:/Users/ACER/Desktop/mapa_unipe/estradas_unipe.shp" />
  </way>
  <way id="109" version="1">
    <nd ref="532" />
    <nd ref="523" />
    <nd ref="533" />
    <tag k="oneway" v="no" />
    <tag k="highway" v="service" />
    <tag k="layer" v="estradas_unipe" />
    <tag k="path" v="C:/Users/ACER/Desktop/mapa_unipe/estradas_unipe.shp" />
  </way>
  <way id="110" version="1">
    <nd ref="457" />
    <nd ref="237" />
    <tag k="oneway" v="no" />
    <tag k="highway" v="service" />
    <tag k="layer" v="estradas_unipe" />
    <tag k="path" v="C:/Users/ACER/Desktop/mapa_unipe/estradas_unipe.shp" />
  </way>
  <way id="111" version="1">
    <nd ref="493" />
    <nd ref="497" />
    <nd ref="534" />
    <nd ref="315" />
    <tag k="oneway" v="no" />
    <tag k="highway" v="service" />
    <tag k="layer" v="estradas_unipe" />
    <tag k="path" v="C:/Users/ACER/Desktop/mapa_unipe/estradas_unipe.shp" />
  </way>
  <way id="112" version="1">
    <nd ref="307" />
    <nd ref="493" />
    <tag k="oneway" v="no" />
    <tag k="highway" v="service" />
    <tag k="layer" v="estradas_unipe" />
    <tag k="path" v="C:/Users/ACER/Desktop/mapa_unipe/estradas_unipe.shp" />
  </way>
  <way id="113" version="1">
    <nd ref="501" />
    <nd ref="320" />
    <tag k="oneway" v="no" />
    <tag k="highway" v="service" />
    <tag k="layer" v="estradas_unipe" />
    <tag k="path" v="C:/Users/ACER/Desktop/mapa_unipe/estradas_unipe.shp" />
  </way>
  <way id="114" version="1">
    <nd ref="315" />
    <nd ref="502" />
    <tag k="oneway" v="no" />
    <tag k="highway" v="service" />
    <tag k="layer" v="estradas_unipe" />
    <tag k="path" v="C:/Users/ACER/Desktop/mapa_unipe/estradas_unipe.shp" />
  </way>
  <way id="115" version="1">
    <nd ref="531" />
    <nd ref="304" />
    <tag k="oneway" v="no" />
    <tag k="highway" v="service" />
    <tag k="layer" v="estradas_unipe" />
    <tag k="path" v="C:/Users/ACER/Desktop/mapa_unipe/estradas_unipe.shp" />
  </way>
  <way id="116" version="1">
    <nd ref="338" />
    <nd ref="531" />
    <tag k="oneway" v="no" />
    <tag k="highway" v="service" />
    <tag k="layer" v="estradas_unipe" />
    <tag k="path" v="C:/Users/ACER/Desktop/mapa_unipe/estradas_unipe.shp" />
  </way>
  <way id="117" version="1">
    <nd ref="532" />
    <nd ref="335" />
    <tag k="oneway" v="no" />
    <tag k="highway" v="service" />
    <tag k="layer" v="estradas_unipe" />
    <tag k="path" v="C:/Users/ACER/Desktop/mapa_unipe/estradas_unipe.shp" />
  </way>
  <way id="118" version="1">
    <nd ref="329" />
    <nd ref="532" />
    <tag k="oneway" v="no" />
    <tag k="highway" v="service" />
    <tag k="layer" v="estradas_unipe" />
    <tag k="path" v="C:/Users/ACER/Desktop/mapa_unipe/estradas_unipe.shp" />
  </way>
  <way id="119" version="1">
    <nd ref="491" />
    <nd ref="367" />
    <tag k="oneway" v="no" />
    <tag k="highway" v="service" />
    <tag k="layer" v="estradas_unipe" />
    <tag k="path" v="C:/Users/ACER/Desktop/mapa_unipe/estradas_unipe.shp" />
  </way>
  <way id="120" version="1">
    <nd ref="361" />
    <nd ref="491" />
    <tag k="oneway" v="no" />
    <tag k="highway" v="service" />
    <tag k="layer" v="estradas_unipe" />
    <tag k="path" v="C:/Users/ACER/Desktop/mapa_unipe/estradas_unipe.shp" />
  </way>
  <way id="121" version="1">
    <nd ref="467" />
    <nd ref="350" />
    <tag k="oneway" v="no" />
    <tag k="highway" v="service" />
    <tag k="layer" v="estradas_unipe" />
    <tag k="path" v="C:/Users/ACER/Desktop/mapa_unipe/estradas_unipe.shp" />
  </way>
  <way id="122" version="1">
    <nd ref="346" />
    <nd ref="467" />
    <tag k="oneway" v="no" />
    <tag k="highway" v="service" />
    <tag k="layer" v="estradas_unipe" />
    <tag k="path" v="C:/Users/ACER/Desktop/mapa_unipe/estradas_unipe.shp" />
  </way>
  <way id="123" version="1">
    <nd ref="468" />
    <nd ref="358" />
    <tag k="oneway" v="no" />
    <tag k="highway" v="service" />
    <tag k="layer" v="estradas_unipe" />
    <tag k="path" v="C:/Users/ACER/Desktop/mapa_unipe/estradas_unipe.shp" />
  </way>
  <way id="124" version="1">
    <nd ref="352" />
    <nd ref="468" />
    <tag k="oneway" v="no" />
    <tag k="highway" v="service" />
    <tag k="layer" v="estradas_unipe" />
    <tag k="path" v="C:/Users/ACER/Desktop/mapa_unipe/estradas_unipe.shp" />
  </way>
  <way id="125" version="1">
    <nd ref="464" />
    <nd ref="410" />
    <tag k="oneway" v="no" />
    <tag k="highway" v="service" />
    <tag k="layer" v="estradas_unipe" />
    <tag k="path" v="C:/Users/ACER/Desktop/mapa_unipe/estradas_unipe.shp" />
  </way>
  <way id="126" version="1">
    <nd ref="399" />
    <nd ref="464" />
    <tag k="oneway" v="no" />
    <tag k="highway" v="service" />
    <tag k="layer" v="estradas_unipe" />
    <tag k="path" v="C:/Users/ACER/Desktop/mapa_unipe/estradas_unipe.shp" />
  </way>
  <way id="127" version="1">
    <nd ref="462" />
    <nd ref="394" />
    <tag k="oneway" v="no" />
    <tag k="highway" v="service" />
    <tag k="layer" v="estradas_unipe" />
    <tag k="path" v="C:/Users/ACER/Desktop/mapa_unipe/estradas_unipe.shp" />
  </way>
  <way id="128" version="1">
    <nd ref="388" />
    <nd ref="462" />
    <tag k="oneway" v="no" />
    <tag k="highway" v="service" />
    <tag k="layer" v="estradas_unipe" />
    <tag k="path" v="C:/Users/ACER/Desktop/mapa_unipe/estradas_unipe.shp" />
  </way>
  <way id="129" version="1">
    <nd ref="463" />
    <nd ref="422" />
    <tag k="oneway" v="no" />
    <tag k="highway" v="service" />
    <tag k="layer" v="estradas_unipe" />
    <tag k="path" v="C:/Users/ACER/Desktop/mapa_unipe/estradas_unipe.shp" />
  </way>
  <way id="130" version="1">
    <nd ref="452" />
    <nd ref="463" />
    <tag k="oneway" v="no" />
    <tag k="highway" v="service" />
    <tag k="layer" v="estradas_unipe" />
    <tag k="path" v="C:/Users/ACER/Desktop/mapa_unipe/estradas_unipe.shp" />
  </way>
  <way id="131" version="1">
    <nd ref="100" />
    <nd ref="535" />
    <nd ref="163" />
    <tag k="highway" v="footway" />
    <tag k="footway" v="crossing" />
    <tag k="layer" v="faixa_pedestre_unipe" />
    <tag k="path" v="C:/Users/ACER/Desktop/mapa_unipe/faixa_pedestre_unipe.shp" />
  </way>
  <way id="132" version="1">
    <nd ref="124" />
    <nd ref="238" />
    <nd ref="132" />
    <tag k="highway" v="footway" />
    <tag k="footway" v="crossing" />
    <tag k="layer" v="faixa_pedestre_unipe" />
    <tag k="path" v="C:/Users/ACER/Desktop/mapa_unipe/faixa_pedestre_unipe.shp" />
  </way>
  <way id="133" version="1">
    <nd ref="129" />
    <nd ref="239" />
    <nd ref="130" />
    <tag k="highway" v="footway" />
    <tag k="footway" v="crossing" />
    <tag k="layer" v="faixa_pedestre_unipe" />
    <tag k="path" v="C:/Users/ACER/Desktop/mapa_unipe/faixa_pedestre_unipe.shp" />
  </way>
  <way id="134" version="1">
    <nd ref="50" />
    <nd ref="241" />
    <nd ref="51" />
    <tag k="highway" v="footway" />
    <tag k="footway" v="crossing" />
    <tag k="layer" v="faixa_pedestre_unipe" />
    <tag k="path" v="C:/Users/ACER/Desktop/mapa_unipe/faixa_pedestre_unipe.shp" />
  </way>
  <way id="135" version="1">
    <nd ref="114" />
    <nd ref="521" />
    <nd ref="115" />
    <tag k="highway" v="footway" />
    <tag k="footway" v="crossing" />
    <tag k="layer" v="faixa_pedestre_unipe" />
    <tag k="path" v="C:/Users/ACER/Desktop/mapa_unipe/faixa_pedestre_unipe.shp" />
  </way>
  <way id="136" version="1">
    <nd ref="536" />
    <nd ref="488" />
    <nd ref="537" />
    <tag k="highway" v="footway" />
    <tag k="footway" v="crossing" />
    <tag k="layer" v="faixa_pedestre_unipe" />
    <tag k="path" v="C:/Users/ACER/Desktop/mapa_unipe/faixa_pedestre_unipe.shp" />
  </way>
  <way id="137" version="1">
    <nd ref="538" />
    <nd ref="496" />
    <nd ref="539" />
    <tag k="highway" v="footway" />
    <tag k="footway" v="crossing" />
    <tag k="layer" v="faixa_pedestre_unipe" />
    <tag k="path" v="C:/Users/ACER/Desktop/mapa_unipe/faixa_pedestre_unipe.shp" />
  </way>
  <way id="138" version="1">
    <nd ref="540" />
    <nd ref="504" />
    <nd ref="541" />
    <tag k="highway" v="footway" />
    <tag k="footway" v="crossing" />
    <tag k="layer" v="faixa_pedestre_unipe" />
    <tag k="path" v="C:/Users/ACER/Desktop/mapa_unipe/faixa_pedestre_unipe.shp" />
  </way>
  <way id="139" version="1">
    <nd ref="542" />
    <nd ref="483" />
    <nd ref="543" />
    <tag k="highway" v="footway" />
    <tag k="footway" v="crossing" />
    <tag k="layer" v="faixa_pedestre_unipe" />
    <tag k="path" v="C:/Users/ACER/Desktop/mapa_unipe/faixa_pedestre_unipe.shp" />
  </way>
  <way id="140" version="1">
    <nd ref="544" />
    <nd ref="465" />
    <nd ref="545" />
    <tag k="highway" v="footway" />
    <tag k="footway" v="crossing" />
    <tag k="layer" v="faixa_pedestre_unipe" />
    <tag k="path" v="C:/Users/ACER/Desktop/mapa_unipe/faixa_pedestre_unipe.shp" />
  </way>
  <way id="141" version="1">
    <nd ref="546" />
    <nd ref="461" />
    <nd ref="547" />
    <tag k="highway" v="footway" />
    <tag k="footway" v="crossing" />
    <tag k="layer" v="faixa_pedestre_unipe" />
    <tag k="path" v="C:/Users/ACER/Desktop/mapa_unipe/faixa_pedestre_unipe.shp" />
  </way>
  <way id="142" version="1">
    <nd ref="548" />
    <nd ref="459" />
    <nd ref="549" />
    <tag k="highway" v="footway" />
    <tag k="footway" v="crossing" />
    <tag k="layer" v="faixa_pedestre_unipe" />
    <tag k="path" v="C:/Users/ACER/Desktop/mapa_unipe/faixa_pedestre_unipe.shp" />
  </way>
  <way id="143" version="1">
    <nd ref="550" />
    <nd ref="516" />
    <nd ref="551" />
    <tag k="highway" v="footway" />
    <tag k="footway" v="crossing" />
    <tag k="layer" v="faixa_pedestre_unipe" />
    <tag k="path" v="C:/Users/ACER/Desktop/mapa_unipe/faixa_pedestre_unipe.shp" />
  </way>
  <way id="144" version="1">
    <nd ref="552" />
    <nd ref="248" />
    <nd ref="553" />
    <tag k="highway" v="footway" />
    <tag k="footway" v="crossing" />
    <tag k="layer" v="faixa_pedestre_unipe" />
    <tag k="path" v="C:/Users/ACER/Desktop/mapa_unipe/faixa_pedestre_unipe.shp" />
  </way>
  <way id="145" version="1">
    <nd ref="554" />
    <nd ref="234" />
    <nd ref="555" />
    <tag k="highway" v="footway" />
    <tag k="footway" v="crossing" />
    <tag k="layer" v="faixa_pedestre_unipe" />
    <tag k="path" v="C:/Users/ACER/Desktop/mapa_unipe/faixa_pedestre_unipe.shp" />
  </way>
  <way id="146" version="1">
    <nd ref="109" />
    <nd ref="530" />
    <nd ref="110" />
    <tag k="highway" v="footway" />
    <tag k="footway" v="crossing" />
    <tag k="layer" v="faixa_pedestre_unipe" />
    <tag k="path" v="C:/Users/ACER/Desktop/mapa_unipe/faixa_pedestre_unipe.shp" />
  </way>
</osm>