{
"type": "FeatureCollection",
"name": "caminhos_unipe",
"crs": { "type": "name", "properties": { "name": "urn:ogc:def:crs:OGC:1.3:CRS84" } },
"features": [
{ "type": "Feature", "properties": { "id": null, "oneway": null, "highway": "footway", "junction": null, "level": null, "roundabout": null, "footway": null, "layer": "calcadas_unipe", "path": "C:/Users/ACER/Desktop/mapa_unipe/calcadas_unipe.shp" }, "geometry": { "type": "MultiLineString", "coordinates": [ ] } },
{ "type": "Feature", "properties": { "id": null, "oneway": null, "highway": "footway", "junction": null, "level": null, "roundabout": null, "footway": null, "layer": "calcadas_unipe", "path": "C:/Users/ACER/Desktop/mapa_unipe/calcadas_unipe.shp" }, "geometry": { "type": "MultiLineString", "coordinates": [ [ [ -34.857879736913844, -7.15816903019853 ], [ -34.857990291018183, -7.158798590657668 ], [ -34.858004156845297, -7.158913188478684 ], [ -34.857989000937764, -7.15898112127786 ], [ -34.857969077807603, -7.159013789211662 ], [ -34.857930675458675, -7.159047454993376 ], [ -34.857027302010799, -7.159581110909334 ], [ -34.856362113839928, -7.159408013157397 ] ] ] } },
{ "type": "Feature", "properties": { "id": null, "oneway": null, "highway": "footway", "junction": null, "level": null, "roundabout": null, "footway": null, "layer": "calcadas_unipe", "path": "C:/Users/ACER/Desktop/mapa_unipe/calcadas_unipe.shp" }, "geometry": { "type": "MultiLineString", "coordinates": [ [ [ -34.857837338105469, -7.15819113257109 ], [ -34.857841798759218, -7.158317270331389 ], [ -34.857888635623596, -7.158562906922406 ], [ -34.857923205690156, -7.158758752217781 ], [ -34.857934357324538, -7.158858334539119 ], [ -34.857933242161103, -7.158941319790292 ], [ -34.857925436017041, -7.158978939765849 ], [ -34.857902575166563, -7.15900770798036 ], [ -34.857800537712031, -7.159061924995084 ], [ -34.857586426332027, -7.159124993759202 ], [ -34.857492752603271, -7.159161507250234 ], [ -34.857091742032118, -7.159443663942032 ], [ -34.857032747685288, -7.159492341475154 ], [ -34.857008214089653, -7.159500916606556 ], [ -34.856359760852371, -7.15933863492359 ] ] ] } },
{ "type": "Feature", "properties": { "id": null, "oneway": null, "highway": "footway", "junction": null, "level": null, "roundabout": null, "footway": null, "layer": "calcadas_unipe", "path": "C:/Users/ACER/Desktop/mapa_unipe/calcadas_unipe.shp" }, "geometry": { "type": "MultiLineString", "coordinates": [ [ [ -34.856362113839928, -7.159408013157397 ], [ -34.856359760852371, -7.15933863492359 ], [ -34.856339535680341, -7.158742291889136 ], [ -34.856333356464347, -7.158560096377787 ], [ -34.856295232197908, -7.157435992580545 ] ] ] } },
{ "type": "Feature", "properties": { "id": null, "oneway": null, "highway": "footway", "junction": null, "level": null, "roundabout": null, "footway": null, "layer": "calcadas_unipe", "path": "C:/Users/ACER/Desktop/mapa_unipe/calcadas_unipe.shp" }, "geometry": { "type": "MultiLineString", "coordinates": [ [ [ -34.856362113839928, -7.159408013157397 ], [ -34.856064165843769, -7.159365898371822 ], [ -34.856033611761845, -7.1594816261749 ], [ -34.855995951144749, -7.15962427092065 ], [ -34.856035745319133, -7.159634751749057 ], [ -34.855996188980725, -7.159784985753371 ], [ -34.85588578679311, -7.160204290295764 ], [ -34.855608948202836, -7.160138736229384 ], [ -34.855626674085656, -7.160069528463646 ] ] ] } },
{ "type": "Feature", "properties": { "id": null, "oneway": null, "highway": "footway", "junction": null, "level": null, "roundabout": null, "footway": null, "layer": "calcadas_unipe", "path": "C:/Users/ACER/Desktop/mapa_unipe/calcadas_unipe.shp" }, "geometry": { "type": "MultiLineString", "coordinates": [ [ [ -34.855996188980725, -7.159784985753371 ], [ -34.855925769686571, -7.159763445674447 ] ] ] } },
{ "type": "Feature", "properties": { "id": null, "oneway": null, "highway": "footway", "junction": null, "level": null, "roundabout": null, "footway": null, "layer": "calcadas_unipe", "path": "C:/Users/ACER/Desktop/mapa_unipe/calcadas_unipe.shp" }, "geometry": { "type": "MultiLineString", "coordinates": [ [ [ -34.856041762528342, -7.159486212545248 ], [ -34.856033611761845, -7.1594816261749 ], [ -34.8558641703871, -7.159432915814296 ], [ -34.855804656738982, -7.15941580705633 ] ] ] } },
{ "type": "Feature", "properties": { "id": null, "oneway": null, "highway": "footway", "junction": null, "level": null, "roundabout": null, "footway": null, "layer": "calcadas_unipe", "path": "C:/Users/ACER/Desktop/mapa_unipe/calcadas_unipe.shp" }, "geometry": { "type": "MultiLineString", "coordinates": [ [ [ -34.855794326291232, -7.159455330088828 ], [ -34.855804656738982, -7.15941580705633 ], [ -34.855810040410546, -7.159395209784531 ], [ -34.855823121106909, -7.159345164629277 ], [ -34.855836015947418, -7.159295830530531 ], [ -34.855799658067646, -7.159290067037538 ], [ -34.855713843016055, -7.159318570846066 ] ] ] } },
{ "type": "Feature", "properties": { "id": null, "oneway": null, "highway": "footway", "junction": null, "level": null, "roundabout": null, "footway": null, "layer": "calcadas_unipe", "path": "C:/Users/ACER/Desktop/mapa_unipe/calcadas_unipe.shp" }, "geometry": { "type": "MultiLineString", "coordinates": [ [ [ -34.855823121106909, -7.159345164629277 ], [ -34.855713843016055, -7.159318570846066 ], [ -34.855669143570665, -7.159307692842982 ], [ -34.85551714976836, -7.159270703812758 ], [ -34.855493909580481, -7.159361173947371 ] ] ] } },
{ "type": "Feature", "properties": { "id": null, "oneway": null, "highway": "footway", "junction": null, "level": null, "roundabout": null, "footway": null, "layer": "calcadas_unipe", "path": "C:/Users/ACER/Desktop/mapa_unipe/calcadas_unipe.shp" }, "geometry": { "type": "MultiLineString", "coordinates": [ [ [ -34.855810040410546, -7.159395209784531 ], [ -34.855493909580481, -7.159361173947371 ], [ -34.85548129258671, -7.159410289770227 ], [ -34.85544364873514, -7.159432974133199 ], [ -34.855406004883577, -7.159455658495045 ] ] ] } },
{ "type": "Feature", "properties": { "id": null, "oneway": null, "highway": "footway", "junction": null, "level": null, "roundabout": null, "footway": null, "layer": "calcadas_unipe", "path": "C:/Users/ACER/Desktop/mapa_unipe/calcadas_unipe.shp" }, "geometry": { "type": "MultiLineString", "coordinates": [ [ [ -34.855352544905855, -7.159444073195091 ], [ -34.855338152612319, -7.159440954244291 ], [ -34.85531389219139, -7.159446293942306 ], [ -34.855252943132328, -7.159489024517247 ], [ -34.855231761243921, -7.159490558448591 ], [ -34.855159519549112, -7.159473312804054 ], [ -34.854812401715975, -7.159390448310974 ] ] ] } },
{ "type": "Feature", "properties": { "id": null, "oneway": null, "highway": "footway", "junction": null, "level": null, "roundabout": null, "footway": null, "layer": "calcadas_unipe", "path": "C:/Users/ACER/Desktop/mapa_unipe/calcadas_unipe.shp" }, "geometry": { "type": "MultiLineString", "coordinates": [ [ [ -34.855159519549112, -7.159473312804054 ], [ -34.855158300731347, -7.159501324617167 ], [ -34.855125494899326, -7.159636617751023 ], [ -34.855103242966692, -7.15972838597532 ], [ -34.855072457597437, -7.159855346542721 ] ] ] } },
{ "type": "Feature", "properties": { "id": null, "oneway": null, "highway": "footway", "junction": null, "level": null, "roundabout": null, "footway": null, "layer": "calcadas_unipe", "path": "C:/Users/ACER/Desktop/mapa_unipe/calcadas_unipe.shp" }, "geometry": { "type": "MultiLineString", "coordinates": [ [ [ -34.855072457597437, -7.159855346542721 ], [ -34.855171258748278, -7.160050508121281 ] ] ] } },
{ "type": "Feature", "properties": { "id": null, "oneway": null, "highway": "footway", "junction": null, "level": null, "roundabout": null, "footway": null, "layer": "calcadas_unipe", "path": "C:/Users/ACER/Desktop/mapa_unipe/calcadas_unipe.shp" }, "geometry": { "type": "MultiLineString", "coordinates": [ [ [ -34.855072457597437, -7.159855346542721 ], [ -34.854867958575618, -7.159988747380352 ] ] ] } },
{ "type": "Feature", "properties": { "id": null, "oneway": null, "highway": "footway", "junction": null, "level": null, "roundabout": null, "footway": null, "layer": "calcadas_unipe", "path": "C:/Users/ACER/Desktop/mapa_unipe/calcadas_unipe.shp" }, "geometry": { "type": "MultiLineString", "coordinates": [ [ [ -34.854771639957349, -7.159544413714686 ], [ -34.854954918041905, -7.159592182186527 ], [ -34.855125494899326, -7.159636617751023 ] ] ] } },
{ "type": "Feature", "properties": { "id": null, "oneway": null, "highway": "footway", "junction": null, "level": null, "roundabout": null, "footway": null, "layer": "calcadas_unipe", "path": "C:/Users/ACER/Desktop/mapa_unipe/calcadas_unipe.shp" }, "geometry": { "type": "MultiLineString", "coordinates": [ [ [ -34.855041629876844, -7.159721829388639 ], [ -34.855043916347334, -7.159713081286938 ], [ -34.855103242966692, -7.15972838597532 ] ] ] } },
{ "type": "Feature", "properties": { "id": null, "oneway": null, "highway": "footway", "junction": null, "level": null, "roundabout": null, "footway": null, "layer": "calcadas_unipe", "path": "C:/Users/ACER/Desktop/mapa_unipe/calcadas_unipe.shp" }, "geometry": { "type": "MultiLineString", "coordinates": [ [ [ -34.854823707459936, -7.159665778067768 ], [ -34.854954918041905, -7.159592182186527 ] ] ] } },
{ "type": "Feature", "properties": { "id": null, "oneway": null, "highway": "footway", "junction": null, "level": null, "roundabout": null, "footway": null, "layer": "calcadas_unipe", "path": "C:/Users/ACER/Desktop/mapa_unipe/calcadas_unipe.shp" }, "geometry": { "type": "MultiLineString", "coordinates": [ [ [ -34.854700919477722, -7.159552889549537 ], [ -34.854600585719318, -7.15952613129649 ], [ -34.854525184670386, -7.15950602233884 ], [ -34.854381687871246, -7.159467752563919 ], [ -34.854135555723531, -7.159402110715935 ], [ -34.85399527655391, -7.159364699166678 ] ] ] } },
{ "type": "Feature", "properties": { "id": null, "oneway": null, "highway": "footway", "junction": null, "level": null, "roundabout": null, "footway": null, "layer": "calcadas_unipe", "path": "C:/Users/ACER/Desktop/mapa_unipe/calcadas_unipe.shp" }, "geometry": { "type": "MultiLineString", "coordinates": [ [ [ -34.854135555723531, -7.159402110715935 ], [ -34.854435648876574, -7.159261301502621 ], [ -34.854600585719318, -7.15952613129649 ] ] ] } },
{ "type": "Feature", "properties": { "id": null, "oneway": null, "highway": "footway", "junction": null, "level": null, "roundabout": null, "footway": null, "layer": "calcadas_unipe", "path": "C:/Users/ACER/Desktop/mapa_unipe/calcadas_unipe.shp" }, "geometry": { "type": "MultiLineString", "coordinates": [ [ [ -34.854016242741473, -7.159458094544116 ], [ -34.854135555723531, -7.159402110715935 ] ] ] } },
{ "type": "Feature", "properties": { "id": null, "oneway": null, "highway": "footway", "junction": null, "level": null, "roundabout": null, "footway": null, "layer": "calcadas_unipe", "path": "C:/Users/ACER/Desktop/mapa_unipe/calcadas_unipe.shp" }, "geometry": { "type": "MultiLineString", "coordinates": [ [ [ -34.854504594728255, -7.159583699807615 ], [ -34.854525184670386, -7.15950602233884 ] ] ] } },
{ "type": "Feature", "properties": { "id": null, "oneway": null, "highway": "footway", "junction": null, "level": null, "roundabout": null, "footway": null, "layer": "calcadas_unipe", "path": "C:/Users/ACER/Desktop/mapa_unipe/calcadas_unipe.shp" }, "geometry": { "type": "MultiLineString", "coordinates": [ [ [ -34.856333356464347, -7.158560096377787 ], [ -34.856032399999989, -7.1585715 ], [ -34.8559129, -7.158576 ], [ -34.8559046, -7.1584656 ], [ -34.8557922, -7.1584748 ], [ -34.855772751247564, -7.158656213347054 ], [ -34.85574681784604, -7.158759795925429 ], [ -34.85571276282014, -7.158895817667837 ], [ -34.855663841172898, -7.159091219230675 ], [ -34.855653073751057, -7.159134226173898 ], [ -34.855710232951871, -7.159148314704952 ], [ -34.855695427208786, -7.159208824110219 ] ] ] } },
{ "type": "Feature", "properties": { "id": null, "oneway": null, "highway": "footway", "junction": null, "level": null, "roundabout": null, "footway": null, "layer": "calcadas_unipe", "path": "C:/Users/ACER/Desktop/mapa_unipe/calcadas_unipe.shp" }, "geometry": { "type": "MultiLineString", "coordinates": [ [ [ -34.856339535680341, -7.158742291889136 ], [ -34.8560941, -7.1587499 ], [ -34.856032399999989, -7.1585715 ] ] ] } },
{ "type": "Feature", "properties": { "id": null, "oneway": null, "highway": "footway", "junction": null, "level": null, "roundabout": null, "footway": null, "layer": "calcadas_unipe", "path": "C:/Users/ACER/Desktop/mapa_unipe/calcadas_unipe.shp" }, "geometry": { "type": "MultiLineString", "coordinates": [ [ [ -34.855496271676401, -7.159662661938654 ], [ -34.855427907260335, -7.159643386120774 ], [ -34.855454522990897, -7.159539741627617 ], [ -34.85544364873514, -7.159432974133199 ] ] ] } },
{ "type": "Feature", "properties": { "id": null, "oneway": null, "highway": "footway", "junction": null, "level": null, "roundabout": null, "footway": null, "layer": "calcadas_unipe", "path": "C:/Users/ACER/Desktop/mapa_unipe/calcadas_unipe.shp" }, "geometry": { "type": "MultiLineString", "coordinates": [ [ [ -34.855159519549112, -7.159473312804054 ], [ -34.855165987939948, -7.159437235154652 ], [ -34.855203737481638, -7.159291558238208 ], [ -34.855210347568736, -7.159255312976883 ], [ -34.855238673259301, -7.159147661323333 ] ] ] } },
{ "type": "Feature", "properties": { "id": null, "oneway": null, "highway": "footway", "junction": null, "level": null, "roundabout": null, "footway": null, "layer": "calcadas_unipe", "path": "C:/Users/ACER/Desktop/mapa_unipe/calcadas_unipe.shp" }, "geometry": { "type": "MultiLineString", "coordinates": [ ] } },
{ "type": "Feature", "properties": { "id": null, "oneway": null, "highway": "footway", "junction": null, "level": null, "roundabout": null, "footway": null, "layer": "calcadas_unipe", "path": "C:/Users/ACER/Desktop/mapa_unipe/calcadas_unipe.shp" }, "geometry": { "type": "MultiLineString", "coordinates": [ ] } },
{ "type": "Feature", "properties": { "id": null, "oneway": null, "highway": "footway", "junction": null, "level": null, "roundabout": null, "footway": null, "layer": "calcadas_unipe", "path": "C:/Users/ACER/Desktop/mapa_unipe/calcadas_unipe.shp" }, "geometry": { "type": "MultiLineString", "coordinates": [ [ [ -34.854836225265089, -7.159205116016087 ], [ -34.854853147544276, -7.159184337395924 ], [ -34.854884709210012, -7.159056211373359 ], [ -34.854887927016591, -7.159043148538654 ] ] ] } },
{ "type": "Feature", "properties": { "id": null, "oneway": null, "highway": "footway", "junction": null, "level": null, "roundabout": null, "footway": null, "layer": "calcadas_unipe", "path": "C:/Users/ACER/Desktop/mapa_unipe/calcadas_unipe.shp" }, "geometry": { "type": "MultiLineString", "coordinates": [ [ [ -34.855210347568736, -7.159255312976883 ], [ -34.855378297987031, -7.159183734683348 ] ] ] } },
{ "type": "Feature", "properties": { "id": null, "oneway": null, "highway": "footway", "junction": null, "level": null, "roundabout": null, "footway": null, "layer": "calcadas_unipe", "path": "C:/Users/ACER/Desktop/mapa_unipe/calcadas_unipe.shp" }, "geometry": { "type": "MultiLineString", "coordinates": [ [ [ -34.855378297987031, -7.159183734683348 ], [ -34.855238673259301, -7.159147661323333 ], [ -34.854884709210012, -7.159056211373359 ], [ -34.854511148706251, -7.158959698474698 ], [ -34.854105373211112, -7.15885512025488 ], [ -34.853767913570394, -7.158767676568433 ] ] ] } },
{ "type": "Feature", "properties": { "id": null, "oneway": null, "highway": "footway", "junction": null, "level": null, "roundabout": null, "footway": null, "layer": "calcadas_unipe", "path": "C:/Users/ACER/Desktop/mapa_unipe/calcadas_unipe.shp" }, "geometry": { "type": "MultiLineString", "coordinates": [ [ [ -34.854297112974152, -7.159791330062448 ], [ -34.854355413786891, -7.159568275353344 ], [ -34.854381687871246, -7.159467752563919 ], [ -34.854435648876574, -7.159261301502621 ], [ -34.854468080997727, -7.159131743275276 ], [ -34.854511148706251, -7.158959698474698 ] ] ] } },
{ "type": "Feature", "properties": { "id": null, "oneway": null, "highway": "footway", "junction": null, "level": null, "roundabout": null, "footway": null, "layer": "calcadas_unipe", "path": "C:/Users/ACER/Desktop/mapa_unipe/calcadas_unipe.shp" }, "geometry": { "type": "MultiLineString", "coordinates": [ [ [ -34.854057085931828, -7.159002045712619 ], [ -34.854105373211112, -7.15885512025488 ], [ -34.854108498755643, -7.15884117251328 ] ] ] } },
{ "type": "Feature", "properties": { "id": null, "oneway": null, "highway": "footway", "junction": null, "level": null, "roundabout": null, "footway": null, "layer": "calcadas_unipe", "path": "C:/Users/ACER/Desktop/mapa_unipe/calcadas_unipe.shp" }, "geometry": { "type": "MultiLineString", "coordinates": [ [ [ -34.854120378234384, -7.158788160338948 ], [ -34.85414000929444, -7.158700556719157 ] ] ] } },
{ "type": "Feature", "properties": { "id": null, "oneway": null, "highway": "footway", "junction": null, "level": null, "roundabout": null, "footway": null, "layer": "calcadas_unipe", "path": "C:/Users/ACER/Desktop/mapa_unipe/calcadas_unipe.shp" }, "geometry": { "type": "MultiLineString", "coordinates": [ [ [ -34.854294947839342, -7.158157068132999 ], [ -34.854345076120865, -7.158098147456842 ], [ -34.854351909370386, -7.158062758617714 ] ] ] } },
{ "type": "Feature", "properties": { "id": null, "oneway": null, "highway": "footway", "junction": null, "level": null, "roundabout": null, "footway": null, "layer": "calcadas_unipe", "path": "C:/Users/ACER/Desktop/mapa_unipe/calcadas_unipe.shp" }, "geometry": { "type": "MultiLineString", "coordinates": [ [ [ -34.854362218959238, -7.158009366096901 ], [ -34.854382905888819, -7.157925015480323 ], [ -34.854752716433552, -7.158019639537805 ] ] ] } },
{ "type": "Feature", "properties": { "id": null, "oneway": null, "highway": "footway", "junction": null, "level": null, "roundabout": null, "footway": null, "layer": "calcadas_unipe", "path": "C:/Users/ACER/Desktop/mapa_unipe/calcadas_unipe.shp" }, "geometry": { "type": "MultiLineString", "coordinates": [ ] } },
{ "type": "Feature", "properties": { "id": null, "oneway": null, "highway": "footway", "junction": null, "level": null, "roundabout": null, "footway": null, "layer": "calcadas_unipe", "path": "C:/Users/ACER/Desktop/mapa_unipe/calcadas_unipe.shp" }, "geometry": { "type": "MultiLineString", "coordinates": [ [ [ -34.854718165352779, -7.158090643115667 ], [ -34.854733412093047, -7.158048675366513 ], [ -34.854752716433552, -7.158019639537805 ], [ -34.854777184992543, -7.158007195610649 ], [ -34.854797195413511, -7.158003403891467 ] ] ] } },
{ "type": "Feature", "properties": { "id": null, "oneway": null, "highway": "footway", "junction": null, "level": null, "roundabout": null, "footway": null, "layer": "calcadas_unipe", "path": "C:/Users/ACER/Desktop/mapa_unipe/calcadas_unipe.shp" }, "geometry": { "type": "MultiLineString", "coordinates": [ [ [ -34.854679023012821, -7.159765386902586 ], [ -34.854648792930512, -7.159890537100591 ], [ -34.854639176617077, -7.1599306013498 ] ] ] } },
{ "type": "Feature", "properties": { "id": null, "oneway": null, "highway": "footway", "junction": null, "level": null, "roundabout": null, "footway": null, "layer": "calcadas_unipe", "path": "C:/Users/ACER/Desktop/mapa_unipe/calcadas_unipe.shp" }, "geometry": { "type": "MultiLineString", "coordinates": [ [ [ -34.854648792930512, -7.159890537100591 ], [ -34.854297112974152, -7.159791330062448 ], [ -34.854201167273921, -7.159767377472001 ], [ -34.854148266665582, -7.159770281952604 ], [ -34.853877807844988, -7.159704803821941 ] ] ] } },
{ "type": "Feature", "properties": { "id": null, "oneway": null, "highway": "footway", "junction": null, "level": null, "roundabout": null, "footway": null, "layer": "calcadas_unipe", "path": "C:/Users/ACER/Desktop/mapa_unipe/calcadas_unipe.shp" }, "geometry": { "type": "MultiLineString", "coordinates": [ ] } },
{ "type": "Feature", "properties": { "id": null, "oneway": null, "highway": "footway", "junction": null, "level": null, "roundabout": null, "footway": null, "layer": "calcadas_unipe", "path": "C:/Users/ACER/Desktop/mapa_unipe/calcadas_unipe.shp" }, "geometry": { "type": "MultiLineString", "coordinates": [ [ [ -34.853908030131919, -7.159567086068059 ], [ -34.853877807844988, -7.159704803821941 ], [ -34.853871971161809, -7.159731400576653 ] ] ] } },
{ "type": "Feature", "properties": { "id": null, "oneway": null, "highway": "footway", "junction": null, "level": null, "roundabout": null, "footway": null, "layer": "calcadas_unipe", "path": "C:/Users/ACER/Desktop/mapa_unipe/calcadas_unipe.shp" }, "geometry": { "type": "MultiLineString", "coordinates": [ [ [ -34.853856439915823, -7.15979349030461 ], [ -34.854256169198948, -7.159900882772305 ], [ -34.854620706089619, -7.159998450669969 ], [ -34.854797404117598, -7.160046292528012 ] ] ] } },
{ "type": "Feature", "properties": { "id": null, "oneway": null, "highway": "footway", "junction": null, "level": null, "roundabout": null, "footway": null, "layer": "calcadas_unipe", "path": "C:/Users/ACER/Desktop/mapa_unipe/calcadas_unipe.shp" }, "geometry": { "type": "MultiLineString", "coordinates": [ [ [ -34.854256169198948, -7.159900882772305 ], [ -34.854251011184459, -7.159912647815295 ], [ -34.854153946027246, -7.159967934404797 ], [ -34.854056905019206, -7.160010198021547 ], [ -34.854014678116073, -7.160004609452327 ], [ -34.853980369257883, -7.15999390087928 ], [ -34.853876863544443, -7.159839920327332 ], [ -34.853856439915823, -7.15979349030461 ] ] ] } },
{ "type": "Feature", "properties": { "id": null, "oneway": null, "highway": "footway", "junction": null, "level": null, "roundabout": null, "footway": null, "layer": "calcadas_unipe", "path": "C:/Users/ACER/Desktop/mapa_unipe/calcadas_unipe.shp" }, "geometry": { "type": "MultiLineString", "coordinates": [ [ [ -34.854014678116073, -7.160004609452327 ], [ -34.854054088810862, -7.159846591248723 ] ] ] } },
{ "type": "Feature", "properties": { "id": null, "oneway": null, "highway": "footway", "junction": null, "level": null, "roundabout": null, "footway": null, "layer": "calcadas_unipe", "path": "C:/Users/ACER/Desktop/mapa_unipe/calcadas_unipe.shp" }, "geometry": { "type": "MultiLineString", "coordinates": [ ] } },
{ "type": "Feature", "properties": { "id": null, "oneway": null, "highway": "footway", "junction": null, "level": null, "roundabout": null, "footway": null, "layer": "calcadas_unipe", "path": "C:/Users/ACER/Desktop/mapa_unipe/calcadas_unipe.shp" }, "geometry": { "type": "MultiLineString", "coordinates": [ ] } },
{ "type": "Feature", "properties": { "id": null, "oneway": null, "highway": "footway", "junction": null, "level": null, "roundabout": null, "footway": null, "layer": "calcadas_unipe", "path": "C:/Users/ACER/Desktop/mapa_unipe/calcadas_unipe.shp" }, "geometry": { "type": "MultiLineString", "coordinates": [ ] } },
{ "type": "Feature", "properties": { "id": null, "oneway": null, "highway": "footway", "junction": null, "level": null, "roundabout": null, "footway": null, "layer": "calcadas_unipe", "path": "C:/Users/ACER/Desktop/mapa_unipe/calcadas_unipe.shp" }, "geometry": { "type": "MultiLineString", "coordinates": [ ] } },
{ "type": "Feature", "properties": { "id": null, "oneway": null, "highway": "footway", "junction": null, "level": null, "roundabout": null, "footway": null, "layer": "calcadas_unipe", "path": "C:/Users/ACER/Desktop/mapa_unipe/calcadas_unipe.shp" }, "geometry": { "type": "MultiLineString", "coordinates": [ ] } },
{ "type": "Feature", "properties": { "id": null, "oneway": null, "highway": "footway", "junction": null, "level": null, "roundabout": null, "footway": null, "layer": "calcadas_unipe", "path": "C:/Users/ACER/Desktop/mapa_unipe/calcadas_unipe.shp" }, "geometry": { "type": "MultiLineString", "coordinates": [ ] } },
{ "type": "Feature", "properties": { "id": null, "oneway": null, "highway": "footway", "junction": null, "level": null, "roundabout": null, "footway": null, "layer": "calcadas_unipe", "path": "C:/Users/ACER/Desktop/mapa_unipe/calcadas_unipe.shp" }, "geometry": { "type": "MultiLineString", "coordinates": [ [ [ -34.854538780010749, -7.158889313579401 ], [ -34.854575996910107, -7.158704595336434 ], [ -34.854581107565117, -7.158680019103541 ], [ -34.854634613526862, -7.158472399755336 ] ] ] } },
{ "type": "Feature", "properties": { "id": null, "oneway": null, "highway": "footway", "junction": null, "level": null, "roundabout": null, "footway": null, "layer": "calcadas_unipe", "path": "C:/Users/ACER/Desktop/mapa_unipe/calcadas_unipe.shp" }, "geometry": { "type": "MultiLineString", "coordinates": [ [ [ -34.854744678420154, -7.158518248029646 ], [ -34.85470242628282, -7.15852391237771 ], [ -34.854659649055804, -7.15847859475817 ], [ -34.85462766876234, -7.158470681284101 ], [ -34.854587337597899, -7.158460572953724 ], [ -34.854585579434385, -7.158467469210968 ] ] ] } },
{ "type": "Feature", "properties": { "id": null, "oneway": null, "highway": "footway", "junction": null, "level": null, "roundabout": null, "footway": null, "layer": "calcadas_unipe", "path": "C:/Users/ACER/Desktop/mapa_unipe/calcadas_unipe.shp" }, "geometry": { "type": "MultiLineString", "coordinates": [ [ [ -34.854581107565117, -7.158680019103541 ], [ -34.854531617821145, -7.158669618294051 ], [ -34.854529090649962, -7.158680567029556 ] ] ] } },
{ "type": "Feature", "properties": { "id": null, "oneway": null, "highway": "footway", "junction": null, "level": null, "roundabout": null, "footway": null, "layer": "calcadas_unipe", "path": "C:/Users/ACER/Desktop/mapa_unipe/calcadas_unipe.shp" }, "geometry": { "type": "MultiLineString", "coordinates": [ [ [ -34.854575996910107, -7.158704595336434 ], [ -34.854601971585737, -7.158710830250131 ], [ -34.85467336679465, -7.158798324212801 ] ] ] } },
{ "type": "Feature", "properties": { "id": null, "oneway": null, "highway": "footway", "junction": null, "level": null, "roundabout": null, "footway": null, "layer": "calcadas_unipe", "path": "C:/Users/ACER/Desktop/mapa_unipe/calcadas_unipe.shp" }, "geometry": { "type": "MultiLineString", "coordinates": [ [ [ -34.854659636268686, -7.158478606630868 ], [ -34.85468988913572, -7.158463312177662 ], [ -34.854692337818776, -7.158454246791371 ] ] ] } },
{ "type": "Feature", "properties": { "id": null, "oneway": null, "highway": "footway", "junction": null, "level": null, "roundabout": null, "footway": null, "layer": "calcadas_unipe", "path": "C:/Users/ACER/Desktop/mapa_unipe/calcadas_unipe.shp" }, "geometry": { "type": "MultiLineString", "coordinates": [ [ [ -34.85571276282014, -7.158895817667837 ], [ -34.855721473513753, -7.158898294900003 ] ] ] } },
{ "type": "Feature", "properties": { "id": null, "oneway": null, "highway": "footway", "junction": null, "level": null, "roundabout": null, "footway": null, "layer": "conexoes_fantasmas", "path": "C:/Users/ACER/Desktop/mapa_unipe/conexoes_fantasmas.shp" }, "geometry": { "type": "MultiLineString", "coordinates": [ [ [ -34.85448044386883, -7.159134957957056 ], [ -34.854468080997727, -7.159131743275276 ], [ -34.854458317851361, -7.159129204592421 ] ] ] } },
{ "type": "Feature", "properties": { "id": null, "oneway": null, "highway": "footway", "junction": null, "level": null, "roundabout": null, "footway": null, "layer": "conexoes_fantasmas", "path": "C:/Users/ACER/Desktop/mapa_unipe/conexoes_fantasmas.shp" }, "geometry": { "type": "MultiLineString", "coordinates": [ [ [ -34.854365825156727, -7.159570953238431 ], [ -34.854355413786891, -7.159568275353344 ], [ -34.854344415993658, -7.15956544663559 ] ] ] } },
{ "type": "Feature", "properties": { "id": null, "oneway": null, "highway": "footway", "junction": null, "level": null, "roundabout": null, "footway": null, "layer": "conexoes_fantasmas", "path": "C:/Users/ACER/Desktop/mapa_unipe/conexoes_fantasmas.shp" }, "geometry": { "type": "MultiLineString", "coordinates": [ [ [ -34.854902404354974, -7.158982304579978 ], [ -34.854923775034536, -7.15889609637554 ], [ -34.854861889876084, -7.158880230284069 ], [ -34.854724710881484, -7.158845054648025 ], [ -34.85467336679465, -7.158798324212801 ] ] ] } },
{ "type": "Feature", "properties": { "id": null, "oneway": null, "highway": "footway", "junction": null, "level": null, "roundabout": null, "footway": null, "layer": "conexoes_fantasmas", "path": "C:/Users/ACER/Desktop/mapa_unipe/conexoes_fantasmas.shp" }, "geometry": { "type": "MultiLineString", "coordinates": [ [ [ -34.854744678420154, -7.158518248029646 ], [ -34.854780355702523, -7.15851116801722 ], [ -34.854912539110828, -7.158545512203773 ], [ -34.854948509770857, -7.158554941980593 ], [ -34.854861889876084, -7.158880230284069 ] ] ] } },
{ "type": "Feature", "properties": { "id": null, "oneway": null, "highway": "footway", "junction": null, "level": null, "roundabout": null, "footway": null, "layer": "conexoes_fantasmas", "path": "C:/Users/ACER/Desktop/mapa_unipe/conexoes_fantasmas.shp" }, "geometry": { "type": "MultiLineString", "coordinates": [ [ [ -34.854923775034536, -7.15889609637554 ], [ -34.855035481614671, -7.158926356022005 ], [ -34.855193482738414, -7.158969243272936 ], [ -34.855367046780671, -7.159016354861275 ], [ -34.855663841172898, -7.159091219230675 ] ] ] } },
{ "type": "Feature", "properties": { "id": null, "oneway": null, "highway": "footway", "junction": null, "level": null, "roundabout": null, "footway": null, "layer": "conexoes_fantasmas", "path": "C:/Users/ACER/Desktop/mapa_unipe/conexoes_fantasmas.shp" }, "geometry": { "type": "MultiLineString", "coordinates": [ [ [ -34.854948509770857, -7.158554941980593 ], [ -34.855121760902882, -7.15860003930718 ], [ -34.855280197233185, -7.158641280263862 ], [ -34.855459462143628, -7.158687942933151 ], [ -34.85574681784604, -7.158759795925429 ] ] ] } },
{ "type": "Feature", "properties": { "id": null, "oneway": null, "highway": "footway", "junction": null, "level": null, "roundabout": null, "footway": null, "layer": "conexoes_fantasmas", "path": "C:/Users/ACER/Desktop/mapa_unipe/conexoes_fantasmas.shp" }, "geometry": { "type": "MultiLineString", "coordinates": [ [ [ -34.855367046780671, -7.159016354861275 ], [ -34.855459462143628, -7.158687942933151 ] ] ] } },
{ "type": "Feature", "properties": { "id": null, "oneway": null, "highway": "footway", "junction": null, "level": null, "roundabout": null, "footway": null, "layer": "conexoes_fantasmas", "path": "C:/Users/ACER/Desktop/mapa_unipe/conexoes_fantasmas.shp" }, "geometry": { "type": "MultiLineString", "coordinates": [ [ [ -34.855193482738414, -7.158969243272936 ], [ -34.855280197233185, -7.158641280263862 ] ] ] } },
{ "type": "Feature", "properties": { "id": null, "oneway": null, "highway": "footway", "junction": null, "level": null, "roundabout": null, "footway": null, "layer": "conexoes_fantasmas", "path": "C:/Users/ACER/Desktop/mapa_unipe/conexoes_fantasmas.shp" }, "geometry": { "type": "MultiLineString", "coordinates": [ [ [ -34.855035481614671, -7.158926356022005 ], [ -34.855121760902882, -7.15860003930718 ] ] ] } },
{ "type": "Feature", "properties": { "id": null, "oneway": null, "highway": "footway", "junction": null, "level": null, "roundabout": null, "footway": null, "layer": "conexoes_fantasmas", "path": "C:/Users/ACER/Desktop/mapa_unipe/conexoes_fantasmas.shp" }, "geometry": { "type": "MultiLineString", "coordinates": [ [ [ -34.854538780010749, -7.158889313579401 ], [ -34.854511148706251, -7.158959698474698 ] ] ] } },
{ "type": "Feature", "properties": { "id": null, "oneway": null, "highway": "footway", "junction": null, "level": null, "roundabout": null, "footway": null, "layer": "conexoes_fantasmas", "path": "C:/Users/ACER/Desktop/mapa_unipe/conexoes_fantasmas.shp" }, "geometry": { "type": "MultiLineString", "coordinates": [ [ [ -34.854867958575618, -7.159988747380352 ], [ -34.854797404117598, -7.160046292528012 ] ] ] } },
{ "type": "Feature", "properties": { "id": null, "oneway": null, "highway": "footway", "junction": null, "level": null, "roundabout": null, "footway": null, "layer": "conexoes_fantasmas", "path": "C:/Users/ACER/Desktop/mapa_unipe/conexoes_fantasmas.shp" }, "geometry": { "type": "MultiLineString", "coordinates": [ [ [ -34.854297112974152, -7.159791330062448 ], [ -34.854256169198948, -7.159900882772305 ] ] ] } },
{ "type": "Feature", "properties": { "id": null, "oneway": null, "highway": "footway", "junction": null, "level": null, "roundabout": null, "footway": null, "layer": "conexoes_fantasmas", "path": "C:/Users/ACER/Desktop/mapa_unipe/conexoes_fantasmas.shp" }, "geometry": { "type": "MultiLineString", "coordinates": [ [ [ -34.855695427208786, -7.159208824110219 ], [ -34.855669143570665, -7.159307692842982 ] ] ] } },
{ "type": "Feature", "properties": { "id": null, "oneway": null, "highway": "footway", "junction": null, "level": null, "roundabout": null, "footway": null, "layer": "conexoes_fantasmas", "path": "C:/Users/ACER/Desktop/mapa_unipe/conexoes_fantasmas.shp" }, "geometry": { "type": "MultiLineString", "coordinates": [ [ [ -34.854933985096892, -7.158470493150425 ], [ -34.854912539110828, -7.158545512203773 ] ] ] } },
{ "type": "Feature", "properties": { "id": null, "oneway": null, "highway": "footway", "junction": null, "level": null, "roundabout": null, "footway": null, "layer": "conexoes_fantasmas", "path": "C:/Users/ACER/Desktop/mapa_unipe/conexoes_fantasmas.shp" }, "geometry": { "type": "MultiLineString", "coordinates": [ [ [ -34.855895729266294, -7.159187987642205 ], [ -34.85592346496842, -7.159195208522987 ], [ -34.855898078107323, -7.1593056523136 ], [ -34.855836015947418, -7.159295830530531 ] ] ] } },
{ "type": "Feature", "properties": { "id": null, "oneway": null, "highway": "footway", "junction": null, "level": null, "roundabout": null, "footway": null, "layer": "conexoes_fantasmas", "path": "C:/Users/ACER/Desktop/mapa_unipe/conexoes_fantasmas.shp" }, "geometry": { "type": "MultiLineString", "coordinates": [ [ [ -34.855898078107323, -7.1593056523136 ], [ -34.8558641703871, -7.159432915814296 ] ] ] } },
{ "type": "Feature", "properties": { "id": null, "oneway": null, "highway": "footway", "junction": null, "level": null, "roundabout": null, "footway": null, "layer": "conexoes_fantasmas", "path": "C:/Users/ACER/Desktop/mapa_unipe/conexoes_fantasmas.shp" }, "geometry": { "type": "MultiLineString", "coordinates": [ [ [ -34.855898078107323, -7.1593056523136 ], [ -34.856064165843769, -7.159365898371822 ] ] ] } },
{ "type": "Feature", "properties": { "id": null, "oneway": null, "highway": "steps", "junction": null, "level": 2, "roundabout": null, "footway": null, "layer": "corredores_level_0", "path": "C:/Users/ACER/Desktop/mapa_unipe/corredores_level_0.shp" }, "geometry": { "type": "MultiLineString", "coordinates": [ [ [ -34.855041629876844, -7.159721829388639 ], [ -34.855036010306627, -7.159743330024852 ], [ -34.854795656058087, -7.159681509066941 ], [ -34.854706952885444, -7.159658722750383 ], [ -34.854498694690797, -7.159605139538348 ], [ -34.854365825156727, -7.159570953238431 ] ] ] } },
{ "type": "Feature", "properties": { "id": null, "oneway": null, "highway": "footway", "junction": null, "level": 2, "roundabout": null, "footway": null, "layer": "corredores_level_0", "path": "C:/Users/ACER/Desktop/mapa_unipe/corredores_level_0.shp" }, "geometry": { "type": "MultiLineString", "coordinates": [ ] } },
{ "type": "Feature", "properties": { "id": null, "oneway": null, "highway": "footway", "junction": null, "level": 2, "roundabout": null, "footway": null, "layer": "corredores_level_0", "path": "C:/Users/ACER/Desktop/mapa_unipe/corredores_level_0.shp" }, "geometry": { "type": "MultiLineString", "coordinates": [ ] } },
{ "type": "Feature", "properties": { "id": null, "oneway": null, "highway": "footway", "junction": null, "level": 2, "roundabout": null, "footway": null, "layer": "corredores_level_0", "path": "C:/Users/ACER/Desktop/mapa_unipe/corredores_level_0.shp" }, "geometry": { "type": "MultiLineString", "coordinates": [ [ [ -34.854344415993658, -7.15956544663559 ], [ -34.853984658827876, -7.159472914291513 ], [ -34.853935909932893, -7.159460375694725 ], [ -34.853720616049245, -7.159405000421091 ] ] ] } },
{ "type": "Feature", "properties": { "id": null, "oneway": null, "highway": "footway", "junction": null, "level": 2, "roundabout": null, "footway": null, "layer": "corredores_level_0", "path": "C:/Users/ACER/Desktop/mapa_unipe/corredores_level_0.shp" }, "geometry": { "type": "MultiLineString", "coordinates": [ [ [ -34.854679023012821, -7.159765386902586 ], [ -34.854691992451976, -7.159715853824911 ], [ -34.854706952885444, -7.159658722750383 ], [ -34.854732463928244, -7.159561302789342 ], [ -34.854739102721148, -7.159535933409193 ], [ -34.854779287236859, -7.15938249158886 ], [ -34.854820923093541, -7.159223491780668 ], [ -34.854836225265089, -7.159205116016087 ] ] ] } },
{ "type": "Feature", "properties": { "id": null, "oneway": null, "highway": "footway", "junction": null, "level": 2, "roundabout": null, "footway": null, "layer": "corredores_level_0", "path": "C:/Users/ACER/Desktop/mapa_unipe/corredores_level_0.shp" }, "geometry": { "type": "MultiLineString", "coordinates": [ [ [ -34.85517738210185, -7.159316180762572 ], [ -34.854820923093541, -7.159223491780668 ], [ -34.85448044386883, -7.159134957957056 ] ] ] } },
{ "type": "Feature", "properties": { "id": null, "oneway": null, "highway": "footway", "junction": null, "level": 2, "roundabout": null, "footway": null, "layer": "corredores_level_0", "path": "C:/Users/ACER/Desktop/mapa_unipe/corredores_level_0.shp" }, "geometry": { "type": "MultiLineString", "coordinates": [ [ [ -34.854458317851361, -7.159129204592421 ], [ -34.854050111612395, -7.15902326672361 ], [ -34.853709354381614, -7.15893445373441 ] ] ] } },
{ "type": "Feature", "properties": { "id": null, "oneway": null, "highway": "footway", "junction": null, "level": 2, "roundabout": null, "footway": null, "layer": "corredores_level_0", "path": "C:/Users/ACER/Desktop/mapa_unipe/corredores_level_0.shp" }, "geometry": { "type": "MultiLineString", "coordinates": [ [ [ -34.853908030131919, -7.159567086068059 ], [ -34.853920918979746, -7.159517753804934 ], [ -34.853935909932893, -7.159460375694725 ], [ -34.853963102926159, -7.159356294064585 ], [ -34.854050111612395, -7.15902326672361 ], [ -34.854057085931828, -7.159002045712619 ] ] ] } },
{ "type": "Feature", "properties": { "id": null, "oneway": null, "highway": "footway", "junction": null, "level": 2, "roundabout": null, "footway": null, "layer": "corredores_level_0", "path": "C:/Users/ACER/Desktop/mapa_unipe/corredores_level_0.shp" }, "geometry": { "type": "MultiLineString", "coordinates": [ [ [ -34.854700919477722, -7.159552889549537 ], [ -34.854732463928244, -7.159561302789342 ] ] ] } },
{ "type": "Feature", "properties": { "id": null, "oneway": null, "highway": "footway", "junction": null, "level": 2, "roundabout": null, "footway": null, "layer": "corredores_level_0", "path": "C:/Users/ACER/Desktop/mapa_unipe/corredores_level_0.shp" }, "geometry": { "type": "MultiLineString", "coordinates": [ [ [ -34.854771639957349, -7.159544413714686 ], [ -34.854739102721148, -7.159535933409193 ] ] ] } },
{ "type": "Feature", "properties": { "id": null, "oneway": null, "highway": "footway", "junction": null, "level": 2, "roundabout": null, "footway": null, "layer": "corredores_level_0", "path": "C:/Users/ACER/Desktop/mapa_unipe/corredores_level_0.shp" }, "geometry": { "type": "MultiLineString", "coordinates": [ [ [ -34.854779287236859, -7.15938249158886 ], [ -34.854812401715975, -7.159390448310974 ] ] ] } },
{ "type": "Feature", "properties": { "id": null, "oneway": null, "highway": "footway", "junction": null, "level": 2, "roundabout": null, "footway": null, "layer": "corredores_level_0", "path": "C:/Users/ACER/Desktop/mapa_unipe/corredores_level_0.shp" }, "geometry": { "type": "MultiLineString", "coordinates": [ [ [ -34.854823707459936, -7.159665778067768 ], [ -34.854795656058087, -7.159681509066941 ] ] ] } },
{ "type": "Feature", "properties": { "id": null, "oneway": null, "highway": "footway", "junction": null, "level": 2, "roundabout": null, "footway": null, "layer": "corredores_level_0", "path": "C:/Users/ACER/Desktop/mapa_unipe/corredores_level_0.shp" }, "geometry": { "type": "MultiLineString", "coordinates": [ [ [ -34.854016242741473, -7.159458094544116 ], [ -34.853984658827876, -7.159472914291513 ] ] ] } },
{ "type": "Feature", "properties": { "id": null, "oneway": null, "highway": "footway", "junction": null, "level": 2, "roundabout": null, "footway": null, "layer": "corredores_level_0", "path": "C:/Users/ACER/Desktop/mapa_unipe/corredores_level_0.shp" }, "geometry": { "type": "MultiLineString", "coordinates": [ ] } },
{ "type": "Feature", "properties": { "id": null, "oneway": null, "highway": "footway", "junction": null, "level": 2, "roundabout": null, "footway": null, "layer": "corredores_level_0", "path": "C:/Users/ACER/Desktop/mapa_unipe/corredores_level_0.shp" }, "geometry": { "type": "MultiLineString", "coordinates": [ ] } },
{ "type": "Feature", "properties": { "id": null, "oneway": null, "highway": "footway", "junction": null, "level": 2, "roundabout": null, "footway": null, "layer": "corredores_level_0", "path": "C:/Users/ACER/Desktop/mapa_unipe/corredores_level_0.shp" }, "geometry": { "type": "MultiLineString", "coordinates": [ [ [ -34.855895729266294, -7.159187987642205 ], [ -34.855879949900093, -7.159183477085234 ], [ -34.855936637420669, -7.158956835045053 ], [ -34.855721473513753, -7.158898294900003 ] ] ] } },
{ "type": "Feature", "properties": { "id": null, "oneway": null, "highway": "footway", "junction": null, "level": 2, "roundabout": null, "footway": null, "layer": "corredores_level_0", "path": "C:/Users/ACER/Desktop/mapa_unipe/corredores_level_0.shp" }, "geometry": { "type": "MultiLineString", "coordinates": [ ] } },
{ "type": "Feature", "properties": { "id": null, "oneway": null, "highway": "footway", "junction": null, "level": 2, "roundabout": null, "footway": null, "layer": "corredores_level_0", "path": "C:/Users/ACER/Desktop/mapa_unipe/corredores_level_0.shp" }, "geometry": { "type": "MultiLineString", "coordinates": [ ] } },
{ "type": "Feature", "properties": { "id": null, "oneway": null, "highway": "footway", "junction": null, "level": 2, "roundabout": null, "footway": null, "layer": "corredores_level_0", "path": "C:/Users/ACER/Desktop/mapa_unipe/corredores_level_0.shp" }, "geometry": { "type": "MultiLineString", "coordinates": [ [ [ -34.855617589746082, -7.158540883895402 ], [ -34.854956935251806, -7.158373797791535 ], [ -34.854900595687575, -7.158359548951584 ] ] ] } },
{ "type": "Feature", "properties": { "id": null, "oneway": null, "highway": "footway", "junction": null, "level": 2, "roundabout": null, "footway": null, "layer": "corredores_level_0", "path": "C:/Users/ACER/Desktop/mapa_unipe/corredores_level_0.shp" }, "geometry": { "type": "MultiLineString", "coordinates": [ ] } },
{ "type": "Feature", "properties": { "id": null, "oneway": null, "highway": "footway", "junction": null, "level": 2, "roundabout": null, "footway": null, "layer": "corredores_level_0", "path": "C:/Users/ACER/Desktop/mapa_unipe/corredores_level_0.shp" }, "geometry": { "type": "MultiLineString", "coordinates": [ ] } },
{ "type": "Feature", "properties": { "id": null, "oneway": null, "highway": "steps", "junction": null, "level": 2, "roundabout": null, "footway": null, "layer": "corredores_level_0", "path": "C:/Users/ACER/Desktop/mapa_unipe/corredores_level_0.shp" }, "geometry": { "type": "MultiLineString", "coordinates": [ [ [ -34.853920918979746, -7.159517753804934 ], [ -34.85389859665213, -7.159512007832427 ], [ -34.853903629248528, -7.159492755546768 ], [ -34.85392597150048, -7.159498505133532 ] ] ] } },
{ "type": "Feature", "properties": { "id": null, "oneway": null, "highway": "steps", "junction": null, "level": 2, "roundabout": null, "footway": null, "layer": "corredores_level_0", "path": "C:/Users/ACER/Desktop/mapa_unipe/corredores_level_0.shp" }, "geometry": { "type": "MultiLineString", "coordinates": [ [ [ -34.856083129508356, -7.159510129724175 ], [ -34.856117704513565, -7.159519837180786 ], [ -34.856122596383713, -7.159502684468461 ], [ -34.856088021378504, -7.159492977011489 ] ] ] } },
{ "type": "Feature", "properties": { "id": null, "oneway": null, "highway": "footway", "junction": null, "level": 2, "roundabout": null, "footway": null, "layer": "corredores_level_0", "path": "C:/Users/ACER/Desktop/mapa_unipe/corredores_level_0.shp" }, "geometry": { "type": "MultiLineString", "coordinates": [ [ [ -34.856041762488502, -7.159486212614948 ], [ -34.856083142061536, -7.15951010832382 ] ] ] } },
{ "type": "Feature", "properties": { "id": null, "oneway": null, "highway": "footway", "junction": null, "level": 2, "roundabout": null, "footway": null, "layer": "corredores_level_0", "path": "C:/Users/ACER/Desktop/mapa_unipe/corredores_level_0.shp" }, "geometry": { "type": "MultiLineString", "coordinates": [ [ [ -34.854504594728255, -7.159583699807615 ], [ -34.854498694690797, -7.159605139538348 ] ] ] } },
{ "type": "Feature", "properties": { "id": null, "oneway": null, "highway": "footway", "junction": null, "level": 2, "roundabout": null, "footway": null, "layer": "corredores_level_0", "path": "C:/Users/ACER/Desktop/mapa_unipe/corredores_level_0.shp" }, "geometry": { "type": "MultiLineString", "coordinates": [ [ [ -34.85399527655391, -7.159364699166678 ], [ -34.853963102926159, -7.159356294064585 ] ] ] } },
{ "type": "Feature", "properties": { "id": null, "oneway": null, "highway": "stairs", "junction": null, "level": 0, "roundabout": null, "footway": null, "layer": "corredores_level_0", "path": "C:/Users/ACER/Desktop/mapa_unipe/corredores_level_0.shp" }, "geometry": { "type": "MultiLineString", "coordinates": [ [ [ -34.854691992451976, -7.159715853824911 ], [ -34.854669347238833, -7.159710024741232 ], [ -34.854674379835231, -7.159690772463932 ], [ -34.854697206935249, -7.159695848670272 ] ] ] } },
{ "type": "Feature", "properties": { "id": null, "oneway": null, "highway": "footway", "junction": null, "level": null, "roundabout": null, "footway": null, "layer": "corredores_level_0", "path": "C:/Users/ACER/Desktop/mapa_unipe/corredores_level_0.shp" }, "geometry": { "type": "MultiLineString", "coordinates": [ [ [ -34.854529090649962, -7.158680567029556 ], [ -34.854524070258861, -7.158702319451119 ], [ -34.854164304031428, -7.158608672465581 ], [ -34.853770157592734, -7.158506076094667 ] ] ] } },
{ "type": "Feature", "properties": { "id": null, "oneway": null, "highway": "footway", "junction": null, "level": null, "roundabout": null, "footway": null, "layer": "corredores_level_0", "path": "C:/Users/ACER/Desktop/mapa_unipe/corredores_level_0.shp" }, "geometry": { "type": "MultiLineString", "coordinates": [ [ [ -34.854585579434385, -7.158467469210968 ], [ -34.854580064809618, -7.158489099889491 ], [ -34.854221477141245, -7.158392439995511 ], [ -34.853828160464765, -7.158287142195316 ] ] ] } },
{ "type": "Feature", "properties": { "id": null, "oneway": null, "highway": "footway", "junction": null, "level": null, "roundabout": null, "footway": null, "layer": "corredores_level_0", "path": "C:/Users/ACER/Desktop/mapa_unipe/corredores_level_0.shp" }, "geometry": { "type": "MultiLineString", "coordinates": [ [ [ -34.854670661482949, -7.158278107700386 ], [ -34.854278684970808, -7.158176076087781 ], [ -34.853883391302872, -7.158073180995339 ] ] ] } },
{ "type": "Feature", "properties": { "id": null, "oneway": null, "highway": "footway", "junction": null, "level": null, "roundabout": null, "footway": null, "layer": "corredores_level_0", "path": "C:/Users/ACER/Desktop/mapa_unipe/corredores_level_0.shp" }, "geometry": { "type": "MultiLineString", "coordinates": [ [ [ -34.85414000929444, -7.158700556719157 ], [ -34.854164304031428, -7.158608672465581 ], [ -34.854221477141245, -7.158392439995511 ], [ -34.854278684970808, -7.158176076087781 ], [ -34.854294947839342, -7.158157068132999 ] ] ] } },
{ "type": "Feature", "properties": { "id": null, "oneway": null, "highway": "footway", "junction": null, "level": 0, "roundabout": null, "footway": null, "layer": "corredores_level_0", "path": "C:/Users/ACER/Desktop/mapa_unipe/corredores_level_0.shp" }, "geometry": { "type": "MultiLineString", "coordinates": [ [ [ -34.854933985096892, -7.158470493150425 ], [ -34.854956935251806, -7.158373797791535 ] ] ] } },
{ "type": "Feature", "properties": { "id": 1, "oneway": "no", "highway": "service", "junction": null, "level": null, "roundabout": null, "footway": null, "layer": "estradas_unipe", "path": "C:/Users/ACER/Desktop/mapa_unipe/estradas_unipe.shp" }, "geometry": { "type": "MultiLineString", "coordinates": [ [ [ -34.857998704923432, -7.157925082920399 ], [ -34.857938655131591, -7.157995179141003 ], [ -34.85792540885398, -7.15803197965251 ], [ -34.857921876513281, -7.158089809021734 ], [ -34.857936888961241, -7.158225620390336 ], [ -34.858029612904517, -7.158762732051971 ], [ -34.858049040778347, -7.158908181430649 ], [ -34.858042859182127, -7.158959877282983 ], [ -34.858028729819338, -7.15900193492124 ], [ -34.858003120349288, -7.159044868756293 ], [ -34.857970446197847, -7.159077288180084 ], [ -34.857568682113644, -7.159312484384386 ], [ -34.856945184310696, -7.159677485204346 ], [ -34.855971197119942, -7.160308118531649 ], [ -34.855205023186834, -7.160109865888597 ], [ -34.854630992707015, -7.159960646068862 ], [ -34.853864403511999, -7.159761653998356 ], [ -34.853627340030812, -7.159699766976312 ] ] ] } },
{ "type": "Feature", "properties": { "id": 1, "oneway": "no", "highway": "service", "junction": null, "level": null, "roundabout": null, "footway": null, "layer": "estradas_unipe", "path": "C:/Users/ACER/Desktop/mapa_unipe/estradas_unipe.shp" }, "geometry": { "type": "MultiLineString", "coordinates": [ [ [ -34.855205023186834, -7.160109865888597 ], [ -34.855374824525107, -7.159448903101212 ], [ -34.855383238938622, -7.159415908933409 ], [ -34.855465666756828, -7.159167157926539 ], [ -34.855647392413928, -7.158674440482651 ], [ -34.855750289679477, -7.15841122335704 ], [ -34.855819467525613, -7.158188109937337 ], [ -34.855839431611642, -7.158103656027252 ], [ -34.8558841487081, -7.157914489602586 ], [ -34.855960781812982, -7.157590308925288 ], [ -34.856021799274345, -7.157495277066932 ], [ -34.856082338781327, -7.157448008408461 ], [ -34.856138855807707, -7.157412967847185 ], [ -34.856204732493751, -7.157390588970772 ], [ -34.857364109406781, -7.157220721119304 ], [ -34.857410144792063, -7.15721712628679 ], [ -34.857461353759611, -7.157225902688627 ], [ -34.857491394164818, -7.157242492678854 ], [ -34.857512552728451, -7.157274943989622 ], [ -34.857781028416284, -7.157829568028516 ], [ -34.857923237397173, -7.157756881512578 ] ] ] } },
{ "type": "Feature", "properties": { "id": 1, "oneway": "no", "highway": "service", "junction": null, "level": null, "roundabout": null, "footway": null, "layer": "estradas_unipe", "path": "C:/Users/ACER/Desktop/mapa_unipe/estradas_unipe.shp" }, "geometry": { "type": "MultiLineString", "coordinates": [ [ [ -34.853437825729863, -7.15870030782281 ], [ -34.853353734904452, -7.158617006336794 ], [ -34.853192829239937, -7.158429416538368 ], [ -34.852933446696547, -7.15810000967628 ], [ -34.852823957283888, -7.157917770950169 ], [ -34.852815013018677, -7.157892429189942 ], [ -34.852756762418927, -7.157714549430359 ], [ -34.852561977994291, -7.15700321014436 ], [ -34.852514712857371, -7.156864659290762 ], [ -34.852484757671107, -7.156819066141273 ], [ -34.852331679273931, -7.156659011934308 ], [ -34.852288466796338, -7.156593240556182 ], [ -34.852262860930054, -7.156531904123934 ], [ -34.85222578865659, -7.156329497761856 ], [ -34.852229966320053, -7.156284814731198 ], [ -34.852248541189439, -7.15624118440168 ], [ -34.852272352147885, -7.156209022214699 ], [ -34.852300832953965, -7.156182299056739 ], [ -34.852366674844141, -7.156161198364492 ], [ -34.852667679244931, -7.156097716287728 ] ] ] } },
{ "type": "Feature", "properties": { "id": 1, "oneway": "no", "highway": "service", "junction": null, "level": null, "roundabout": null, "footway": null, "layer": "estradas_unipe", "path": "C:/Users/ACER/Desktop/mapa_unipe/estradas_unipe.shp" }, "geometry": { "type": "MultiLineString", "coordinates": [ [ [ -34.852713895497089, -7.156266414267437 ], [ -34.852465719995969, -7.156333778514637 ], [ -34.852394202498481, -7.156366266708022 ], [ -34.852360662466502, -7.156413617577946 ], [ -34.852350913897745, -7.156477574826129 ], [ -34.852381808373991, -7.15655382853383 ], [ -34.852561223298167, -7.156744728551734 ], [ -34.852599946329896, -7.156797417360056 ], [ -34.852630895109741, -7.156875373278525 ], [ -34.852786209451473, -7.157419965825831 ], [ -34.852830418998458, -7.157590808873001 ], [ -34.852898292680571, -7.157825667887351 ], [ -34.852943552651823, -7.157921100633245 ], [ -34.852966298197941, -7.1579523923217 ], [ -34.853137809127354, -7.158188344669039 ], [ -34.853234042583779, -7.158332058721448 ], [ -34.853258150749852, -7.158360667027006 ], [ -34.853374381946864, -7.158498594440612 ], [ -34.853473931742961, -7.158641847991156 ] ] ] } },
{ "type": "Feature", "properties": { "id": 3, "oneway": "yes", "highway": "service", "junction": null, "level": null, "roundabout": "yes", "footway": null, "layer": "estradas_unipe", "path": "C:/Users/ACER/Desktop/mapa_unipe/estradas_unipe.shp" }, "geometry": { "type": "MultiLineString", "coordinates": [ [ [ -34.853641803805075, -7.158734175961269 ], [ -34.85363856474887, -7.158749968389853 ], [ -34.853633626781381, -7.158763431508068 ], [ -34.853624879275074, -7.158779089313954 ], [ -34.85361986231063, -7.158785236381278 ], [ -34.853613525385043, -7.158793000739202 ], [ -34.853599908394685, -7.158804745830986 ], [ -34.853598293560033, -7.158805689589077 ], [ -34.853582813008636, -7.158814736890285 ], [ -34.853569332492434, -7.158819871479741 ], [ -34.853555261463171, -7.158823094579041 ], [ -34.853537262042487, -7.158824342824612 ], [ -34.853521096021673, -7.158822798746029 ], [ -34.853508806709179, -7.158819871831815 ], [ -34.853495326193922, -7.158814736890285 ], [ -34.853481189762491, -7.158806800707119 ], [ -34.853469810756273, -7.158797980242326 ], [ -34.853456406907192, -7.15878346675064 ], [ -34.853446039276626, -7.158766680335406 ], [ -34.853439090388072, -7.158748239570133 ], [ -34.85343581601628, -7.158728824028785 ], [ -34.853436570822758, -7.158707365648069 ], [ -34.853437825729863, -7.15870030782281 ], [ -34.853438638520537, -7.158696815102361 ], [ -34.85344243868731, -7.158684856134721 ], [ -34.853450348078923, -7.158668765884828 ], [ -34.853460952842987, -7.158654283595054 ], [ -34.853473931742961, -7.158641847991156 ], [ -34.853487316741415, -7.158632720282843 ], [ -34.853505370202811, -7.15862455705099 ], [ -34.853524664389298, -7.158619960699418 ], [ -34.853529609579304, -7.158619703720444 ], [ -34.85354268271481, -7.158619024369202 ], [ -34.853558819423675, -7.158620848108733 ], [ -34.853574469567626, -7.158625154503319 ], [ -34.853589250169961, -7.158631837657462 ], [ -34.853604208084626, -7.158641848129646 ], [ -34.853610835594196, -7.158648310286235 ], [ -34.853618359582704, -7.158655646554961 ], [ -34.85362959871739, -7.158671871560244 ], [ -34.853632242907722, -7.158678052772074 ], [ -34.853638052613327, -7.1586916338747 ], [ -34.853641300993843, -7.158705594475719 ], [ -34.85364256020123, -7.158719868618434 ], [ -34.853641803805075, -7.158734175961269 ] ] ] } },
{ "type": "Feature", "properties": { "id": 3, "oneway": "yes", "highway": "service", "junction": null, "level": null, "roundabout": "yes", "footway": null, "layer": "estradas_unipe", "path": "C:/Users/ACER/Desktop/mapa_unipe/estradas_unipe.shp" }, "geometry": { "type": "MultiLineString", "coordinates": [ [ [ -34.853627340030812, -7.159699766976312 ], [ -34.853624124263639, -7.159706308405385 ], [ -34.85361945086995, -7.159713055682061 ], [ -34.853612385977854, -7.159720189008681 ], [ -34.853603273004651, -7.1597262876985 ], [ -34.85359130858015, -7.159730844571333 ], [ -34.853578587662824, -7.159732394454129 ], [ -34.853568554230371, -7.159731436012146 ], [ -34.853558042581426, -7.159728247103001 ], [ -34.853550134754755, -7.159723717084404 ], [ -34.853546943897385, -7.159721889193635 ], [ -34.853536594511098, -7.159711620696052 ], [ -34.853531737388217, -7.159703908197864 ], [ -34.853528304085145, -7.159695476689447 ], [ -34.853526294790626, -7.159685677166971 ], [ -34.853526294585045, -7.15967476995962 ], [ -34.853529177485335, -7.1596623801587 ], [ -34.853535515728694, -7.159650299196138 ], [ -34.85354340401242, -7.159641452631619 ], [ -34.853553095828708, -7.159634593427382 ], [ -34.853561055500123, -7.159631402572323 ], [ -34.853564978812607, -7.159629829803687 ], [ -34.853578587662824, -7.159628052195189 ], [ -34.853589520306855, -7.159629192426435 ], [ -34.853599974332141, -7.159632562626806 ], [ -34.853609494062503, -7.159638015989787 ], [ -34.853617663052042, -7.159645314026811 ], [ -34.853624123632201, -7.159654137473337 ], [ -34.853629131881966, -7.159665843015238 ], [ -34.853630777072965, -7.159673865519157 ], [ -34.853631096724882, -7.159682953753584 ], [ -34.85362982064656, -7.159691959688827 ], [ -34.853627340030812, -7.159699766976312 ] ] ] } },
{ "type": "Feature", "properties": { "id": 3, "oneway": "yes", "highway": "service", "junction": null, "level": null, "roundabout": "yes", "footway": null, "layer": "estradas_unipe", "path": "C:/Users/ACER/Desktop/mapa_unipe/estradas_unipe.shp" }, "geometry": { "type": "MultiLineString", "coordinates": [ [ [ -34.853616791867729, -7.160584632298873 ], [ -34.85361579765722, -7.160590299985036 ], [ -34.85361459903207, -7.160595326393478 ], [ -34.85361110930377, -7.160605674510988 ], [ -34.853607124669431, -7.160614152864286 ], [ -34.853602268383206, -7.160622172181264 ], [ -34.853594530648607, -7.160631998307432 ], [ -34.853585491169731, -7.160640659838148 ], [ -34.853571261094984, -7.160650363713075 ], [ -34.853555425440959, -7.160657195560352 ], [ -34.853546318145263, -7.160659616563587 ], [ -34.853535440397614, -7.160661229850684 ], [ -34.853519738119132, -7.160661229942429 ], [ -34.853504275328987, -7.16065852452646 ], [ -34.853488101350109, -7.160652524392384 ], [ -34.853474642376582, -7.160644500572256 ], [ -34.853460647098537, -7.160631996568691 ], [ -34.853449578777386, -7.160616881729379 ], [ -34.853443493279649, -7.160604222702035 ], [ -34.853439478920158, -7.160590775910801 ], [ -34.853437853404671, -7.160579982919921 ], [ -34.853437524528495, -7.16057063206258 ], [ -34.853438879128028, -7.160556673241365 ], [ -34.853441919258394, -7.16054457465207 ], [ -34.853446627010293, -7.160533013434416 ], [ -34.853452910604844, -7.160522214811916 ], [ -34.853465016069151, -7.1605079011399 ], [ -34.853478528945402, -7.160497236082944 ], [ -34.853492392786713, -7.160489922046843 ], [ -34.853508861013395, -7.160484770116657 ], [ -34.853518173711599, -7.160483306591834 ], [ -34.853527589212028, -7.160482817002597 ], [ -34.853537004965375, -7.160483306725066 ], [ -34.853546317974654, -7.160484770116657 ], [ -34.853558398576645, -7.160488207567678 ], [ -34.853568484511747, -7.160492558479416 ], [ -34.853580536563008, -7.160499886406976 ], [ -34.853592386915771, -7.160510107385932 ], [ -34.853599530579935, -7.16051840547482 ], [ -34.853606374377058, -7.160528862927467 ], [ -34.853611109039072, -7.160538712066536 ], [ -34.853614599142475, -7.16054906116755 ], [ -34.853616299843935, -7.160556673333658 ], [ -34.853617448530144, -7.160565957859354 ], [ -34.853617613648936, -7.160575312869192 ], [ -34.853616791867729, -7.160584632298873 ] ] ] } },
{ "type": "Feature", "properties": { "id": 3, "oneway": "yes", "highway": "service", "junction": null, "level": null, "roundabout": "yes", "footway": null, "layer": "estradas_unipe", "path": "C:/Users/ACER/Desktop/mapa_unipe/estradas_unipe.shp" }, "geometry": { "type": "MultiLineString", "coordinates": [ [ [ -34.853066791076046, -7.160805845517937 ], [ -34.853068787003608, -7.160816530835771 ], [ -34.853068691454176, -7.160827397516174 ], [ -34.85306620767485, -7.160838990650662 ], [ -34.853063778631594, -7.160844403930608 ], [ -34.85306134958833, -7.160849817210487 ], [ -34.853055636503569, -7.160857911988887 ], [ -34.853042145591779, -7.16086954841953 ], [ -34.853027615372625, -7.160875966977869 ], [ -34.85301286492529, -7.160878154096618 ], [ -34.853000965745458, -7.160877121067782 ], [ -34.852988628161697, -7.160873261533067 ], [ -34.852981590132337, -7.16086954855139 ], [ -34.852975139444759, -7.160864898372323 ], [ -34.85296874620159, -7.160858664878925 ], [ -34.85296394888146, -7.160852347843918 ], [ -34.852958176573566, -7.16084086052144 ], [ -34.852955780817076, -7.160832288911807 ], [ -34.852954765855806, -7.160823450177249 ], [ -34.852955434492699, -7.160812602384452 ], [ -34.852956944487978, -7.160805845400337 ], [ -34.852959273140222, -7.160799320731285 ], [ -34.852965064115729, -7.160788954974357 ], [ -34.85296874611943, -7.160784278914766 ], [ -34.852973635835831, -7.160779342028702 ], [ -34.85297909518151, -7.160775033283969 ], [ -34.852988628161697, -7.1607696818376 ], [ -34.852999014559892, -7.160766233901596 ], [ -34.853005895243498, -7.160765091111325 ], [ -34.853011867752336, -7.160764780638563 ], [ -34.853018831036387, -7.160765203231078 ], [ -34.853025690932782, -7.160766464929099 ], [ -34.853032344034311, -7.160768545909447 ], [ -34.853039568175461, -7.160771888579363 ], [ -34.853047044295195, -7.160776798289071 ], [ -34.853053654891333, -7.160782808486106 ], [ -34.853060322993095, -7.160791428862784 ], [ -34.853064064957572, -7.16079841367952 ], [ -34.853066791076046, -7.160805845517937 ] ] ] } },
{ "type": "Feature", "properties": { "id": 2, "oneway": "no", "highway": "service", "junction": null, "level": null, "roundabout": null, "footway": null, "layer": "estradas_unipe", "path": "C:/Users/ACER/Desktop/mapa_unipe/estradas_unipe.shp" }, "geometry": { "type": "MultiLineString", "coordinates": [ [ [ -34.855971197119942, -7.160308118531649 ], [ -34.855068397769692, -7.160898762171819 ], [ -34.85498799932126, -7.160924634229922 ], [ -34.854959996727665, -7.160933916731346 ], [ -34.854887724592579, -7.160916109181376 ], [ -34.85459087923649, -7.160842828996016 ], [ -34.854207664251341, -7.16074520724827 ], [ -34.85361579765722, -7.160590299985036 ] ] ] } },
{ "type": "Feature", "properties": { "id": 2, "oneway": "no", "highway": "service", "junction": null, "level": null, "roundabout": null, "footway": null, "layer": "estradas_unipe", "path": "C:/Users/ACER/Desktop/mapa_unipe/estradas_unipe.shp" }, "geometry": { "type": "MultiLineString", "coordinates": [ [ [ -34.853420072971623, -7.160643356410251 ], [ -34.853122933321352, -7.160789838107852 ] ] ] } },
{ "type": "Feature", "properties": { "id": 2, "oneway": "no", "highway": "service", "junction": null, "level": null, "roundabout": null, "footway": null, "layer": "estradas_unipe", "path": "C:/Users/ACER/Desktop/mapa_unipe/estradas_unipe.shp" }, "geometry": { "type": "MultiLineString", "coordinates": [ [ [ -34.853531424494967, -7.160429208185251 ], [ -34.85353252534361, -7.160415884300804 ], [ -34.853552358498028, -7.16009607177288 ], [ -34.85356892801925, -7.159781957501568 ] ] ] } },
{ "type": "Feature", "properties": { "id": 2, "oneway": "no", "highway": "service", "junction": null, "level": null, "roundabout": null, "footway": null, "layer": "estradas_unipe", "path": "C:/Users/ACER/Desktop/mapa_unipe/estradas_unipe.shp" }, "geometry": { "type": "MultiLineString", "coordinates": [ [ [ -34.853468339096629, -7.159674020690541 ], [ -34.852954977749548, -7.159524136582642 ], [ -34.852919543956922, -7.159513950760394 ], [ -34.852871857357528, -7.159509569761505 ], [ -34.852837637807042, -7.159518550809179 ], [ -34.852566530658585, -7.159689409731211 ], [ -34.852511779377792, -7.159706057520191 ], [ -34.852466742033911, -7.159698171725488 ], [ -34.852415523093818, -7.159645599757305 ], [ -34.852255022363408, -7.159357987174116 ], [ -34.852218211612183, -7.159277492474121 ], [ -34.852215062759285, -7.159254376503756 ], [ -34.852225659781375, -7.159235538197525 ], [ -34.852710473541968, -7.1589586588162 ], [ -34.852720579421906, -7.158946574878915 ], [ -34.852747609541247, -7.158914254063247 ], [ -34.853192829239937, -7.158429416538368 ], [ -34.853225435015197, -7.158395088232911 ], [ -34.853258150749852, -7.158360667027006 ] ] ] } },
{ "type": "Feature", "properties": { "id": 2, "oneway": "no", "highway": "service", "junction": null, "level": null, "roundabout": null, "footway": null, "layer": "estradas_unipe", "path": "C:/Users/ACER/Desktop/mapa_unipe/estradas_unipe.shp" }, "geometry": { "type": "MultiLineString", "coordinates": [ [ [ -34.852720579421906, -7.158946574878915 ], [ -34.852767209252406, -7.159030207252435 ], [ -34.852840195380324, -7.159161110616447 ], [ -34.852893051401701, -7.159255909854226 ], [ -34.852896505635414, -7.159261168991634 ], [ -34.852986112380677, -7.15939759696715 ], [ -34.852988424600504, -7.159455683471759 ], [ -34.852954977749548, -7.159524136582642 ] ] ] } },
{ "type": "Feature", "properties": { "id": 2, "oneway": "no", "highway": "service", "junction": null, "level": null, "roundabout": null, "footway": null, "layer": "estradas_unipe", "path": "C:/Users/ACER/Desktop/mapa_unipe/estradas_unipe.shp" }, "geometry": { "type": "MultiLineString", "coordinates": [ [ [ -34.853588104646299, -7.159571832054079 ], [ -34.853591047044191, -7.159137648759764 ], [ -34.853591728023183, -7.159037162733016 ] ] ] } },
{ "type": "Feature", "properties": { "id": 2, "oneway": "no", "highway": "service", "junction": null, "level": null, "roundabout": null, "footway": null, "layer": "estradas_unipe", "path": "C:/Users/ACER/Desktop/mapa_unipe/estradas_unipe.shp" }, "geometry": { "type": "MultiLineString", "coordinates": [ [ [ -34.853591047044191, -7.159137648759764 ], [ -34.853288724530557, -7.159139244391991 ], [ -34.852939854915924, -7.159141127604578 ], [ -34.85290975326965, -7.159145172400668 ], [ -34.852840195380324, -7.159161110616447 ] ] ] } },
{ "type": "Feature", "properties": { "id": 2, "oneway": "no", "highway": "service", "junction": null, "level": null, "roundabout": null, "footway": null, "layer": "estradas_unipe", "path": "C:/Users/ACER/Desktop/mapa_unipe/estradas_unipe.shp" }, "geometry": { "type": "MultiLineString", "coordinates": [ [ [ -34.85352191330351, -7.158906276356613 ], [ -34.853338126329447, -7.158993049697861 ], [ -34.853322230796309, -7.159013202315212 ], [ -34.853306335263177, -7.159061393353087 ], [ -34.853288724530557, -7.159139244391991 ] ] ] } },
{ "type": "Feature", "properties": { "id": 2, "oneway": "no", "highway": "service", "junction": null, "level": null, "roundabout": null, "footway": null, "layer": "estradas_unipe", "path": "C:/Users/ACER/Desktop/mapa_unipe/estradas_unipe.shp" }, "geometry": { "type": "MultiLineString", "coordinates": [ [ [ -34.853289806841381, -7.158787339426917 ], [ -34.853263505632235, -7.158797656883486 ], [ -34.852857727994724, -7.158980782886864 ], [ -34.852808280510658, -7.159007730698909 ], [ -34.852767209252406, -7.159030207252435 ] ] ] } },
{ "type": "Feature", "properties": { "id": 2, "oneway": "no", "highway": "service", "junction": null, "level": null, "roundabout": null, "footway": null, "layer": "estradas_unipe", "path": "C:/Users/ACER/Desktop/mapa_unipe/estradas_unipe.shp" }, "geometry": { "type": "MultiLineString", "coordinates": [ [ [ -34.852215062759285, -7.159254376503756 ], [ -34.852058535912157, -7.159181432825302 ], [ -34.85183423227793, -7.158981659087662 ], [ -34.851721197375646, -7.158849352748347 ], [ -34.851677043116936, -7.158785390067235 ], [ -34.851657615243106, -7.158702150948249 ], [ -34.851669095350374, -7.158663598087994 ], [ -34.851705301842507, -7.158623292821517 ], [ -34.851805090467181, -7.158548815689306 ], [ -34.852163623047879, -7.158285078923367 ], [ -34.852595451698022, -7.15801958959968 ], [ -34.852699655748566, -7.157966141235304 ], [ -34.852815013018677, -7.157892429189942 ] ] ] } },
{ "type": "Feature", "properties": { "id": 2, "oneway": "no", "highway": "service", "junction": null, "level": null, "roundabout": null, "footway": null, "layer": "estradas_unipe", "path": "C:/Users/ACER/Desktop/mapa_unipe/estradas_unipe.shp" }, "geometry": { "type": "MultiLineString", "coordinates": [ [ [ -34.855839431611642, -7.158103656027252 ], [ -34.855780510682749, -7.158090113428139 ], [ -34.855513606655869, -7.158028789727342 ], [ -34.855255745785023, -7.157958693511903 ] ] ] } },
{ "type": "Feature", "properties": { "id": 2, "oneway": "no", "highway": "service", "junction": null, "level": null, "roundabout": null, "footway": null, "layer": "estradas_unipe", "path": "C:/Users/ACER/Desktop/mapa_unipe/estradas_unipe.shp" }, "geometry": { "type": "MultiLineString", "coordinates": [ [ [ -34.855750289679477, -7.15841122335704 ], [ -34.855364365261515, -7.158301398187811 ], [ -34.854867188308496, -7.158172596460618 ], [ -34.854356224080952, -7.158040413083948 ], [ -34.853929049327711, -7.157920842342328 ], [ -34.853811290746172, -7.157887073520501 ], [ -34.853682088004753, -7.157865816009859 ], [ -34.853219351373511, -7.157844787138847 ], [ -34.853162833922369, -7.157855301574474 ], [ -34.853044500509036, -7.157904368937531 ], [ -34.852966298197941, -7.1579523923217 ] ] ] } },
{ "type": "Feature", "properties": { "id": 2, "oneway": "no", "highway": "service", "junction": null, "level": null, "roundabout": null, "footway": null, "layer": "estradas_unipe", "path": "C:/Users/ACER/Desktop/mapa_unipe/estradas_unipe.shp" }, "geometry": { "type": "MultiLineString", "coordinates": [ [ [ -34.855465666756828, -7.159167157926539 ], [ -34.854893981648232, -7.159017704283004 ], [ -34.854665747367086, -7.158958040349194 ], [ -34.854114429673437, -7.158814705793183 ], [ -34.853767747266701, -7.158723289304904 ] ] ] } },
{ "type": "Feature", "properties": { "id": 2, "oneway": "no", "highway": "service", "junction": null, "level": null, "roundabout": null, "footway": null, "layer": "estradas_unipe", "path": "C:/Users/ACER/Desktop/mapa_unipe/estradas_unipe.shp" }, "geometry": { "type": "MultiLineString", "coordinates": [ [ [ -34.854665747367086, -7.158958040349194 ], [ -34.854867188308496, -7.158172596460618 ] ] ] } },
{ "type": "Feature", "properties": { "id": 2, "oneway": "no", "highway": "service", "junction": null, "level": null, "roundabout": null, "footway": null, "layer": "estradas_unipe", "path": "C:/Users/ACER/Desktop/mapa_unipe/estradas_unipe.shp" }, "geometry": { "type": "MultiLineString", "coordinates": [ [ [ -34.853643351731122, -7.15851999772602 ], [ -34.853811290746172, -7.157887073520501 ], [ -34.85384457567686, -7.157732742669138 ] ] ] } },
{ "type": "Feature", "properties": { "id": 2, "oneway": "no", "highway": "service", "junction": null, "level": null, "roundabout": null, "footway": null, "layer": "estradas_unipe", "path": "C:/Users/ACER/Desktop/mapa_unipe/estradas_unipe.shp" }, "geometry": { "type": "MultiLineString", "coordinates": [ [ [ -34.85498799932126, -7.160924634229922 ], [ -34.855205023186834, -7.160109865888597 ] ] ] } },
{ "type": "Feature", "properties": { "id": 1, "oneway": "no", "highway": "service", "junction": null, "level": null, "roundabout": null, "footway": null, "layer": "estradas_unipe", "path": "C:/Users/ACER/Desktop/mapa_unipe/estradas_unipe.shp" }, "geometry": { "type": "MultiLineString", "coordinates": [ [ [ -34.853591728023183, -7.159037162733016 ], [ -34.85352191330351, -7.158906276356613 ], [ -34.853488438784552, -7.158845306507566 ], [ -34.853481189762491, -7.158806800707119 ] ] ] } },
{ "type": "Feature", "properties": { "id": 1, "oneway": "no", "highway": "service", "junction": null, "level": null, "roundabout": null, "footway": null, "layer": "estradas_unipe", "path": "C:/Users/ACER/Desktop/mapa_unipe/estradas_unipe.shp" }, "geometry": { "type": "MultiLineString", "coordinates": [ [ [ -34.853598293560033, -7.158805689589077 ], [ -34.853591728023183, -7.159037162733016 ] ] ] } },
{ "type": "Feature", "properties": { "id": 1, "oneway": "no", "highway": "service", "junction": null, "level": null, "roundabout": null, "footway": null, "layer": "estradas_unipe", "path": "C:/Users/ACER/Desktop/mapa_unipe/estradas_unipe.shp" }, "geometry": { "type": "MultiLineString", "coordinates": [ [ [ -34.853289806841381, -7.158787339426917 ], [ -34.85343581601628, -7.158728824028785 ] ] ] } },
{ "type": "Feature", "properties": { "id": 1, "oneway": "no", "highway": "service", "junction": null, "level": null, "roundabout": null, "footway": null, "layer": "estradas_unipe", "path": "C:/Users/ACER/Desktop/mapa_unipe/estradas_unipe.shp" }, "geometry": { "type": "MultiLineString", "coordinates": [ [ [ -34.853481189762491, -7.158806800707119 ], [ -34.853263505632235, -7.158797656883486 ] ] ] } },
{ "type": "Feature", "properties": { "id": 1, "oneway": "no", "highway": "service", "junction": null, "level": null, "roundabout": null, "footway": null, "layer": "estradas_unipe", "path": "C:/Users/ACER/Desktop/mapa_unipe/estradas_unipe.shp" }, "geometry": { "type": "MultiLineString", "coordinates": [ [ [ -34.853767747266701, -7.158723289304904 ], [ -34.85361986231063, -7.158785236381278 ] ] ] } },
{ "type": "Feature", "properties": { "id": 1, "oneway": "no", "highway": "service", "junction": null, "level": null, "roundabout": null, "footway": null, "layer": "estradas_unipe", "path": "C:/Users/ACER/Desktop/mapa_unipe/estradas_unipe.shp" }, "geometry": { "type": "MultiLineString", "coordinates": [ [ [ -34.853632242907722, -7.158678052772074 ], [ -34.853767747266701, -7.158723289304904 ] ] ] } },
{ "type": "Feature", "properties": { "id": 1, "oneway": "no", "highway": "service", "junction": null, "level": null, "roundabout": null, "footway": null, "layer": "estradas_unipe", "path": "C:/Users/ACER/Desktop/mapa_unipe/estradas_unipe.shp" }, "geometry": { "type": "MultiLineString", "coordinates": [ [ [ -34.853643351731122, -7.15851999772602 ], [ -34.853610835594196, -7.158648310286235 ] ] ] } },
{ "type": "Feature", "properties": { "id": 1, "oneway": "no", "highway": "service", "junction": null, "level": null, "roundabout": null, "footway": null, "layer": "estradas_unipe", "path": "C:/Users/ACER/Desktop/mapa_unipe/estradas_unipe.shp" }, "geometry": { "type": "MultiLineString", "coordinates": [ [ [ -34.853529609579304, -7.158619703720444 ], [ -34.853643351731122, -7.15851999772602 ] ] ] } },
{ "type": "Feature", "properties": { "id": 1, "oneway": "no", "highway": "service", "junction": null, "level": null, "roundabout": null, "footway": null, "layer": "estradas_unipe", "path": "C:/Users/ACER/Desktop/mapa_unipe/estradas_unipe.shp" }, "geometry": { "type": "MultiLineString", "coordinates": [ [ [ -34.853588104646299, -7.159571832054079 ], [ -34.853617663052042, -7.159645314026811 ] ] ] } },
{ "type": "Feature", "properties": { "id": 1, "oneway": "no", "highway": "service", "junction": null, "level": null, "roundabout": null, "footway": null, "layer": "estradas_unipe", "path": "C:/Users/ACER/Desktop/mapa_unipe/estradas_unipe.shp" }, "geometry": { "type": "MultiLineString", "coordinates": [ [ [ -34.853561055500123, -7.159631402572323 ], [ -34.853588104646299, -7.159571832054079 ] ] ] } },
{ "type": "Feature", "properties": { "id": 1, "oneway": "no", "highway": "service", "junction": null, "level": null, "roundabout": null, "footway": null, "layer": "estradas_unipe", "path": "C:/Users/ACER/Desktop/mapa_unipe/estradas_unipe.shp" }, "geometry": { "type": "MultiLineString", "coordinates": [ [ [ -34.85356892801925, -7.159781957501568 ], [ -34.853550134754755, -7.159723717084404 ] ] ] } },
{ "type": "Feature", "properties": { "id": 1, "oneway": "no", "highway": "service", "junction": null, "level": null, "roundabout": null, "footway": null, "layer": "estradas_unipe", "path": "C:/Users/ACER/Desktop/mapa_unipe/estradas_unipe.shp" }, "geometry": { "type": "MultiLineString", "coordinates": [ [ [ -34.85359130858015, -7.159730844571333 ], [ -34.85356892801925, -7.159781957501568 ] ] ] } },
{ "type": "Feature", "properties": { "id": 1, "oneway": "no", "highway": "service", "junction": null, "level": null, "roundabout": null, "footway": null, "layer": "estradas_unipe", "path": "C:/Users/ACER/Desktop/mapa_unipe/estradas_unipe.shp" }, "geometry": { "type": "MultiLineString", "coordinates": [ [ [ -34.853468339096629, -7.159674020690541 ], [ -34.853535515728694, -7.159650299196138 ] ] ] } },
{ "type": "Feature", "properties": { "id": 1, "oneway": "no", "highway": "service", "junction": null, "level": null, "roundabout": null, "footway": null, "layer": "estradas_unipe", "path": "C:/Users/ACER/Desktop/mapa_unipe/estradas_unipe.shp" }, "geometry": { "type": "MultiLineString", "coordinates": [ [ [ -34.853536594511098, -7.159711620696052 ], [ -34.853468339096629, -7.159674020690541 ] ] ] } },
{ "type": "Feature", "properties": { "id": 1, "oneway": "no", "highway": "service", "junction": null, "level": null, "roundabout": null, "footway": null, "layer": "estradas_unipe", "path": "C:/Users/ACER/Desktop/mapa_unipe/estradas_unipe.shp" }, "geometry": { "type": "MultiLineString", "coordinates": [ [ [ -34.853531424494967, -7.160429208185251 ], [ -34.853592386915771, -7.160510107385932 ] ] ] } },
{ "type": "Feature", "properties": { "id": 1, "oneway": "no", "highway": "service", "junction": null, "level": null, "roundabout": null, "footway": null, "layer": "estradas_unipe", "path": "C:/Users/ACER/Desktop/mapa_unipe/estradas_unipe.shp" }, "geometry": { "type": "MultiLineString", "coordinates": [ [ [ -34.853465016069151, -7.1605079011399 ], [ -34.853531424494967, -7.160429208185251 ] ] ] } },
{ "type": "Feature", "properties": { "id": 1, "oneway": "no", "highway": "service", "junction": null, "level": null, "roundabout": null, "footway": null, "layer": "estradas_unipe", "path": "C:/Users/ACER/Desktop/mapa_unipe/estradas_unipe.shp" }, "geometry": { "type": "MultiLineString", "coordinates": [ [ [ -34.853420072971623, -7.160643356410251 ], [ -34.853437524528495, -7.16057063206258 ] ] ] } },
{ "type": "Feature", "properties": { "id": 1, "oneway": "no", "highway": "service", "junction": null, "level": null, "roundabout": null, "footway": null, "layer": "estradas_unipe", "path": "C:/Users/ACER/Desktop/mapa_unipe/estradas_unipe.shp" }, "geometry": { "type": "MultiLineString", "coordinates": [ [ [ -34.853474642376582, -7.160644500572256 ], [ -34.853420072971623, -7.160643356410251 ] ] ] } },
{ "type": "Feature", "properties": { "id": 1, "oneway": "no", "highway": "service", "junction": null, "level": null, "roundabout": null, "footway": null, "layer": "estradas_unipe", "path": "C:/Users/ACER/Desktop/mapa_unipe/estradas_unipe.shp" }, "geometry": { "type": "MultiLineString", "coordinates": [ [ [ -34.853122933321352, -7.160789838107852 ], [ -34.853063778631594, -7.160844403930608 ] ] ] } },
{ "type": "Feature", "properties": { "id": 1, "oneway": "no", "highway": "service", "junction": null, "level": null, "roundabout": null, "footway": null, "layer": "estradas_unipe", "path": "C:/Users/ACER/Desktop/mapa_unipe/estradas_unipe.shp" }, "geometry": { "type": "MultiLineString", "coordinates": [ [ [ -34.853047044295195, -7.160776798289071 ], [ -34.853122933321352, -7.160789838107852 ] ] ] } },
{ "type": "Feature", "properties": { "id": null, "oneway": null, "highway": "footway", "junction": null, "level": null, "roundabout": null, "footway": "crossing", "layer": "faixa_pedestre_unipe", "path": "C:/Users/ACER/Desktop/mapa_unipe/faixa_pedestre_unipe.shp" }, "geometry": { "type": "MultiLineString", "coordinates": [ [ [ -34.854887927016591, -7.159043148538654 ], [ -34.854894135182747, -7.159017058994479 ], [ -34.854902404354974, -7.158982304579978 ] ] ] } },
{ "type": "Feature", "properties": { "id": null, "oneway": null, "highway": "footway", "junction": null, "level": null, "roundabout": null, "footway": "crossing", "layer": "faixa_pedestre_unipe", "path": "C:/Users/ACER/Desktop/mapa_unipe/faixa_pedestre_unipe.shp" }, "geometry": { "type": "MultiLineString", "coordinates": [ [ [ -34.854639176617077, -7.1599306013498 ], [ -34.854630992707015, -7.159960646068862 ], [ -34.854620706089619, -7.159998450669969 ] ] ] } },
{ "type": "Feature", "properties": { "id": null, "oneway": null, "highway": "footway", "junction": null, "level": null, "roundabout": null, "footway": "crossing", "layer": "faixa_pedestre_unipe", "path": "C:/Users/ACER/Desktop/mapa_unipe/faixa_pedestre_unipe.shp" }, "geometry": { "type": "MultiLineString", "coordinates": [ [ [ -34.853871971161809, -7.159731400576653 ], [ -34.853864403511999, -7.159761653998356 ], [ -34.853856439915823, -7.15979349030461 ] ] ] } },
{ "type": "Feature", "properties": { "id": null, "oneway": null, "highway": "footway", "junction": null, "level": null, "roundabout": null, "footway": "crossing", "layer": "faixa_pedestre_unipe", "path": "C:/Users/ACER/Desktop/mapa_unipe/faixa_pedestre_unipe.shp" }, "geometry": { "type": "MultiLineString", "coordinates": [ [ [ -34.855406004883577, -7.159455658495045 ], [ -34.855374824525107, -7.159448903101212 ], [ -34.855352544905855, -7.159444073195091 ] ] ] } },
{ "type": "Feature", "properties": { "id": null, "oneway": null, "highway": "footway", "junction": null, "level": null, "roundabout": null, "footway": "crossing", "layer": "faixa_pedestre_unipe", "path": "C:/Users/ACER/Desktop/mapa_unipe/faixa_pedestre_unipe.shp" }, "geometry": { "type": "MultiLineString", "coordinates": [ [ [ -34.854351909370386, -7.158062758617714 ], [ -34.854356224080952, -7.158040413083948 ], [ -34.854362218959238, -7.158009366096901 ] ] ] } },
{ "type": "Feature", "properties": { "id": null, "oneway": null, "highway": "footway", "junction": null, "level": null, "roundabout": null, "footway": "crossing", "layer": "faixa_pedestre_unipe", "path": "C:/Users/ACER/Desktop/mapa_unipe/faixa_pedestre_unipe.shp" }, "geometry": { "type": "MultiLineString", "coordinates": [ [ [ -34.85287276987706, -7.159274516947493 ], [ -34.852896505635414, -7.159261168991634 ], [ -34.852929829072949, -7.159242429342269 ] ] ] } },
{ "type": "Feature", "properties": { "id": null, "oneway": null, "highway": "footway", "junction": null, "level": null, "roundabout": null, "footway": "crossing", "layer": "faixa_pedestre_unipe", "path": "C:/Users/ACER/Desktop/mapa_unipe/faixa_pedestre_unipe.shp" }, "geometry": { "type": "MultiLineString", "coordinates": [ [ [ -34.852919792602009, -7.159167558254631 ], [ -34.85290975326965, -7.159145172400668 ], [ -34.852893632726342, -7.159109226568998 ] ] ] } },
{ "type": "Feature", "properties": { "id": null, "oneway": null, "highway": "footway", "junction": null, "level": null, "roundabout": null, "footway": "crossing", "layer": "faixa_pedestre_unipe", "path": "C:/Users/ACER/Desktop/mapa_unipe/faixa_pedestre_unipe.shp" }, "geometry": { "type": "MultiLineString", "coordinates": [ [ [ -34.85282277338294, -7.159032937795207 ], [ -34.852808280510658, -7.159007730698909 ], [ -34.852791177085543, -7.158977983130489 ] ] ] } },
{ "type": "Feature", "properties": { "id": null, "oneway": null, "highway": "footway", "junction": null, "level": null, "roundabout": null, "footway": "crossing", "layer": "faixa_pedestre_unipe", "path": "C:/Users/ACER/Desktop/mapa_unipe/faixa_pedestre_unipe.shp" }, "geometry": { "type": "MultiLineString", "coordinates": [ [ [ -34.852767015211057, -7.158936306098469 ], [ -34.852747609541247, -7.158914254063247 ], [ -34.852723523836993, -7.158886883772378 ] ] ] } },
{ "type": "Feature", "properties": { "id": null, "oneway": null, "highway": "footway", "junction": null, "level": null, "roundabout": null, "footway": "crossing", "layer": "faixa_pedestre_unipe", "path": "C:/Users/ACER/Desktop/mapa_unipe/faixa_pedestre_unipe.shp" }, "geometry": { "type": "MultiLineString", "coordinates": [ [ [ -34.853562257379657, -7.160417850977967 ], [ -34.85353252534361, -7.160415884300804 ], [ -34.853490012839728, -7.160413072237385 ] ] ] } },
{ "type": "Feature", "properties": { "id": null, "oneway": null, "highway": "footway", "junction": null, "level": null, "roundabout": null, "footway": "crossing", "layer": "faixa_pedestre_unipe", "path": "C:/Users/ACER/Desktop/mapa_unipe/faixa_pedestre_unipe.shp" }, "geometry": { "type": "MultiLineString", "coordinates": [ [ [ -34.854199256785996, -7.160778574806829 ], [ -34.854207664251341, -7.16074520724827 ], [ -34.854218214564433, -7.160703335149474 ] ] ] } },
{ "type": "Feature", "properties": { "id": null, "oneway": null, "highway": "footway", "junction": null, "level": null, "roundabout": null, "footway": "crossing", "layer": "faixa_pedestre_unipe", "path": "C:/Users/ACER/Desktop/mapa_unipe/faixa_pedestre_unipe.shp" }, "geometry": { "type": "MultiLineString", "coordinates": [ [ [ -34.854877833737746, -7.160948417223018 ], [ -34.854887724592579, -7.160916109181376 ], [ -34.854894375328733, -7.160894384843403 ] ] ] } },
{ "type": "Feature", "properties": { "id": null, "oneway": null, "highway": "footway", "junction": null, "level": null, "roundabout": null, "footway": "crossing", "layer": "faixa_pedestre_unipe", "path": "C:/Users/ACER/Desktop/mapa_unipe/faixa_pedestre_unipe.shp" }, "geometry": { "type": "MultiLineString", "coordinates": [ [ [ -34.855772613000894, -7.158123545584304 ], [ -34.855780510682749, -7.158090113428139 ], [ -34.855788020142789, -7.158058324675044 ] ] ] } },
{ "type": "Feature", "properties": { "id": null, "oneway": null, "highway": "footway", "junction": null, "level": null, "roundabout": null, "footway": "crossing", "layer": "faixa_pedestre_unipe", "path": "C:/Users/ACER/Desktop/mapa_unipe/faixa_pedestre_unipe.shp" }, "geometry": { "type": "MultiLineString", "coordinates": [ [ [ -34.855916608479781, -7.157923147343439 ], [ -34.8558841487081, -7.157914489602586 ], [ -34.855847468346646, -7.157904706136657 ] ] ] } },
{ "type": "Feature", "properties": { "id": null, "oneway": null, "highway": "footway", "junction": null, "level": null, "roundabout": null, "footway": "crossing", "layer": "faixa_pedestre_unipe", "path": "C:/Users/ACER/Desktop/mapa_unipe/faixa_pedestre_unipe.shp" }, "geometry": { "type": "MultiLineString", "coordinates": [ [ [ -34.857585636424623, -7.159341642735033 ], [ -34.857568682113644, -7.159312484384386 ], [ -34.857552181521491, -7.159284106346319 ] ] ] } },
{ "type": "Feature", "properties": { "id": null, "oneway": null, "highway": "footway", "junction": null, "level": null, "roundabout": null, "footway": "crossing", "layer": "faixa_pedestre_unipe", "path": "C:/Users/ACER/Desktop/mapa_unipe/faixa_pedestre_unipe.shp" }, "geometry": { "type": "MultiLineString", "coordinates": [ [ [ -34.854108498755643, -7.15884117251328 ], [ -34.854114429673437, -7.158814705793183 ], [ -34.854120378234384, -7.158788160338948 ] ] ] } }
]
}
