{
"type": "FeatureCollection",
"name": "geofencing_indoor",
"crs": { "type": "name", "properties": { "name": "urn:ogc:def:crs:OGC:1.3:CRS84" } },
"features": [
{ "type": "Feature", "properties": {"id": 1, "tipo": "escada" }, "geometry": { "type": "Polygon", "coordinates": [ [ [ -34.854690112136133, -7.159723016181736 ], [ -34.854695158670395, -7.159703793305042 ], [ -34.854667332078016, -7.159696601538342 ], [ -34.854662285543753, -7.159715824415339 ], [ -34.854690112136133, -7.159723016181736 ] ] ] } },
{ "type": "Feature", "properties": {"id": 2, "tipo": "escada" }, "geometry": { "type": "Polygon", "coordinates": [ [ [ -34.853919207459853, -7.159524320161123 ], [ -34.853924352806423, -7.159504579707685 ], [ -34.853896530582531, -7.159497440492921 ], [ -34.853891397792466, -7.159517132772859 ], [ -34.853919207459853, -7.159524320161123 ] ] ] } },
{ "type": "Feature", "properties": {"id": 3, "tipo": "elevador" }, "geometry": { "type": "Polygon", "coordinates": [ [ [ -34.854257632273395, -7.159515526653155 ], [ -34.854277345146372, -7.159520776675289 ], [ -34.854284631892611, -7.159492992725627 ], [ -34.854264967125829, -7.159487755515445 ], [ -34.854257632273395, -7.159515526653155 ] ] ] } },
{ "type": "Feature", "properties": {"id": 4, "tipo": "elevador" }, "geometry": { "type": "Polygon", "coordinates": [ [ [ -34.854998338876847, -7.159705592779426 ], [ -34.855018051749823, -7.159710842801561 ], [ -34.855025338496063, -7.159683058851899 ], [ -34.855005673729281, -7.159677821641717 ], [ -34.854998338876847, -7.159705592779426 ] ] ] } }
]
}
