{
"type": "FeatureCollection",
"name": "pontos_unipe",
"crs": { "type": "name", "properties": { "name": "urn:ogc:def:crs:OGC:1.3:CRS84" } },
"features": [
{ "type": "Feature", "properties": { "id": 1, "level": 0, "nome": "Cantina CT", "tipo": "comercio", "predio": null, "layer": "pontos_locomocao", "path": "C:/Users/ACER/Desktop/mapa_unipe/pontos_lvl_0.shp" }, "geometry": { "type": "Point", "coordinates": [ -34.855945911439065, -7.159409207466834 ] } },
{ "type": "Feature", "properties": { "id": 1, "level": 0, "nome": "Tapiocabana", "tipo": "comercio", "predio": null, "layer": "pontos_locomocao", "path": "C:/Users/ACER/Desktop/mapa_unipe/pontos_lvl_0.shp" }, "geometry": { "type": "Point", "coordinates": [ -34.855272022663677, -7.159352910604063 ] } },
{ "type": "Feature", "properties": { "id": 1, "level": 0, "nome": "Restaurante - Piscina", "tipo": "comercio", "predio": null, "layer": "pontos_locomocao", "path": "C:/Users/ACER/Desktop/mapa_unipe/pontos_lvl_0.shp" }, "geometry": { "type": "Point", "coordinates": [ -34.855832889407559, -7.158614059021055 ] } },
{ "type": "Feature", "properties": { "id": 1, "level": 0, "nome": "Minaçaí", "tipo": "comercio", "predio": null, "layer": "pontos_locomocao", "path": "C:/Users/ACER/Desktop/mapa_unipe/pontos_lvl_0.shp" }, "geometry": { "type": "Point", "coordinates": [ -34.854698147504422, -7.158417404076986 ] } },
{ "type": "Feature", "properties": { "id": 1, "level": 0, "nome": "Pizzaria", "tipo": "comercio", "predio": null, "layer": "pontos_locomocao", "path": "C:/Users/ACER/Desktop/mapa_unipe/pontos_lvl_0.shp" }, "geometry": { "type": "Point", "coordinates": [ -34.853571521879772, -7.158436039440653 ] } },
{ "type": "Feature", "properties": { "id": 1, "level": 0, "nome": "Comercio do Museu", "tipo": "comercio", "predio": null, "layer": "pontos_locomocao", "path": "C:/Users/ACER/Desktop/mapa_unipe/pontos_lvl_0.shp" }, "geometry": { "type": "Point", "coordinates": [ -34.853439937482044, -7.160425778281414 ] } },
{ "type": "Feature", "properties": { "id": 1, "level": 0, "nome": "Praça das Pedras", "tipo": "turismo", "predio": null, "layer": "pontos_locomocao", "path": "C:/Users/ACER/Desktop/mapa_unipe/pontos_lvl_0.shp" }, "geometry": { "type": "Point", "coordinates": [ -34.853278681265799, -7.159405982799335 ] } },
{ "type": "Feature", "properties": { "id": 1, "level": 0, "nome": "Reitoria", "tipo": "reitoria", "predio": null, "layer": "pontos_locomocao", "path": "C:/Users/ACER/Desktop/mapa_unipe/pontos_lvl_0.shp" }, "geometry": { "type": "Point", "coordinates": [ -34.852561420454293, -7.15936717281162 ] } },
{ "type": "Feature", "properties": { "id": 1, "level": 0, "nome": "EVA", "tipo": "eva", "predio": null, "layer": "pontos_locomocao", "path": "C:/Users/ACER/Desktop/mapa_unipe/pontos_lvl_0.shp" }, "geometry": { "type": "Point", "coordinates": [ -34.854450680511448, -7.160416025304069 ] } },
{ "type": "Feature", "properties": { "id": 1, "level": 0, "nome": "Biblioteca", "tipo": "biblioteca", "predio": null, "layer": "pontos_locomocao", "path": "C:/Users/ACER/Desktop/mapa_unipe/pontos_lvl_0.shp" }, "geometry": { "type": "Point", "coordinates": [ -34.853936218990299, -7.160239473469627 ] } },
{ "type": "Feature", "properties": { "id": 1, "level": 0, "nome": "Museu", "tipo": "turismo", "predio": null, "layer": "pontos_locomocao", "path": "C:/Users/ACER/Desktop/mapa_unipe/pontos_lvl_0.shp" }, "geometry": { "type": "Point", "coordinates": [ -34.853203591167365, -7.159949889023838 ] } },
{ "type": "Feature", "properties": { "id": 1, "level": 0, "nome": "Achados e Perdidos", "tipo": "achados_e_perdidos", "predio": null, "layer": "pontos_locomocao", "path": "C:/Users/ACER/Desktop/mapa_unipe/pontos_lvl_0.shp" }, "geometry": { "type": "Point", "coordinates": [ -34.854270855710858, -7.161085796388705 ] } },
{ "type": "Feature", "properties": { "id": 1, "level": 0, "nome": "Fisioterapia", "tipo": "fisioterapia", "predio": null, "layer": "pontos_locomocao", "path": "C:/Users/ACER/Desktop/mapa_unipe/pontos_lvl_0.shp" }, "geometry": { "type": "Point", "coordinates": [ -34.854905852103933, -7.157890841494035 ] } },
{ "type": "Feature", "properties": { "id": 1, "level": 0, "nome": "Fonoaudiologia", "tipo": "fonoaudiologia", "predio": null, "layer": "pontos_locomocao", "path": "C:/Users/ACER/Desktop/mapa_unipe/pontos_lvl_0.shp" }, "geometry": { "type": "Point", "coordinates": [ -34.855682498288367, -7.158216989470679 ] } },
{ "type": "Feature", "properties": { "id": 1, "level": 0, "nome": "Auditório", "tipo": "auditorio", "predio": null, "layer": "pontos_locomocao", "path": "C:/Users/ACER/Desktop/mapa_unipe/pontos_lvl_0.shp" }, "geometry": { "type": "Point", "coordinates": [ -34.852381400562521, -7.158490873479696 ] } },
{ "type": "Feature", "properties": { "id": 1, "level": 0, "nome": "Medicina", "tipo": "medicina", "predio": null, "layer": "pontos_locomocao", "path": "C:/Users/ACER/Desktop/mapa_unipe/pontos_lvl_0.shp" }, "geometry": { "type": "Point", "coordinates": [ -34.852044914650016, -7.158970128970013 ] } },
{ "type": "Feature", "properties": { "id": 1, "level": 0, "nome": "Ginasio", "tipo": "ginasio", "predio": null, "layer": "pontos_locomocao", "path": "C:/Users/ACER/Desktop/mapa_unipe/pontos_lvl_0.shp" }, "geometry": { "type": "Point", "coordinates": [ -34.855711710527288, -7.159741118363836 ] } },
{ "type": "Feature", "properties": { "id": 1, "level": 0, "nome": "CT", "tipo": "bloco", "predio": null, "layer": "pontos_locomocao", "path": "C:/Users/ACER/Desktop/mapa_unipe/pontos_lvl_0.shp" }, "geometry": { "type": "Point", "coordinates": [ -34.856120468584976, -7.159518861624708 ] } },
{ "type": "Feature", "properties": { "id": 1, "level": 0, "nome": "Bloco L", "tipo": "bloco", "predio": null, "layer": "pontos_locomocao", "path": "C:/Users/ACER/Desktop/mapa_unipe/pontos_lvl_0.shp" }, "geometry": { "type": "Point", "coordinates": [ -34.85648053334657, -7.159809902435965 ] } },
{ "type": "Feature", "properties": { "id": 1, "level": 0, "nome": "Enfermagem", "tipo": "bloco", "predio": null, "layer": "pontos_locomocao", "path": "C:/Users/ACER/Desktop/mapa_unipe/pontos_lvl_0.shp" }, "geometry": { "type": "Point", "coordinates": [ -34.8543106493157, -7.160893593553131 ] } },
{ "type": "Feature", "properties": { "id": 1, "level": 0, "nome": "Odontologia", "tipo": "bloco", "predio": null, "layer": "pontos_locomocao", "path": "C:/Users/ACER/Desktop/mapa_unipe/pontos_lvl_0.shp" }, "geometry": { "type": "Point", "coordinates": [ -34.853500966246344, -7.160852803193841 ] } },
{ "type": "Feature", "properties": { "id": 1, "level": 0, "nome": "Estacionamento do Primeiros Socorros", "tipo": "estacionamento", "predio": null, "layer": "pontos_locomocao", "path": "C:/Users/ACER/Desktop/mapa_unipe/pontos_lvl_0.shp" }, "geometry": { "type": "Point", "coordinates": [ -34.853452151295777, -7.1580966408708 ] } },
{ "type": "Feature", "properties": { "id": 1, "level": 0, "nome": "Estacionamento do Auditório", "tipo": "estacionamento", "predio": null, "layer": "pontos_locomocao", "path": "C:/Users/ACER/Desktop/mapa_unipe/pontos_lvl_0.shp" }, "geometry": { "type": "Point", "coordinates": [ -34.852901634899617, -7.158349482661507 ] } },
{ "type": "Feature", "properties": { "id": 1, "level": 0, "nome": "Estacionamento de Psicologia", "tipo": "estacionamento", "predio": null, "layer": "pontos_locomocao", "path": "C:/Users/ACER/Desktop/mapa_unipe/pontos_lvl_0.shp" }, "geometry": { "type": "Point", "coordinates": [ -34.855156023282959, -7.158793109967688 ] } },
{ "type": "Feature", "properties": { "id": 1, "level": 0, "nome": "Estacionamento do EVA", "tipo": "estacionamento", "predio": null, "layer": "pontos_locomocao", "path": "C:/Users/ACER/Desktop/mapa_unipe/pontos_lvl_0.shp" }, "geometry": { "type": "Point", "coordinates": [ -34.855387527124186, -7.160444200920683 ] } },
{ "type": "Feature", "properties": { "id": 1, "level": 0, "nome": "Estacionamento da Reitoria", "tipo": "estacionamento", "predio": null, "layer": "pontos_locomocao", "path": "C:/Users/ACER/Desktop/mapa_unipe/pontos_lvl_0.shp" }, "geometry": { "type": "Point", "coordinates": [ -34.853134947004214, -7.158997060428605 ] } },
{ "type": "Feature", "properties": { "id": 1, "level": 0, "nome": "Bloco M", "tipo": "bloco", "predio": null, "layer": "pontos_locomocao", "path": "C:/Users/ACER/Desktop/mapa_unipe/pontos_lvl_0.shp" }, "geometry": { "type": "Point", "coordinates": [ -34.854520075760171, -7.160955401259968 ] } },
{ "type": "Feature", "properties": { "id": 1, "level": 0, "nome": "Bloco O", "tipo": "bloco", "predio": null, "layer": "pontos_locomocao", "path": "C:/Users/ACER/Desktop/mapa_unipe/pontos_lvl_0.shp" }, "geometry": { "type": "Point", "coordinates": [ -34.854478111124976, -7.161135230265642 ] } },
{ "type": "Feature", "properties": { "id": 1, "level": 0, "nome": "Bloco R", "tipo": "bloco", "predio": null, "layer": "pontos_locomocao", "path": "C:/Users/ACER/Desktop/mapa_unipe/pontos_lvl_0.shp" }, "geometry": { "type": "Point", "coordinates": [ -34.853191439905601, -7.160586617525214 ] } },
{ "type": "Feature", "properties": { "id": 1, "level": 0, "nome": "Bloco K", "tipo": "bloco", "predio": null, "layer": "pontos_locomocao", "path": "C:/Users/ACER/Desktop/mapa_unipe/pontos_lvl_0.shp" }, "geometry": { "type": "Point", "coordinates": [ -34.856482822243031, -7.159611493645989 ] } },
{ "type": "Feature", "properties": { "id": 1, "level": 0, "nome": "Bloco J", "tipo": "bloco", "predio": null, "layer": "pontos_locomocao", "path": "C:/Users/ACER/Desktop/mapa_unipe/pontos_lvl_0.shp" }, "geometry": { "type": "Point", "coordinates": [ -34.855828978353571, -7.158927519362874 ] } },
{ "type": "Feature", "properties": { "id": 1, "level": 0, "nome": "Bloco H", "tipo": "bloco", "predio": null, "layer": "pontos_locomocao", "path": "C:/Users/ACER/Desktop/mapa_unipe/pontos_lvl_0.shp" }, "geometry": { "type": "Point", "coordinates": [ -34.855716967382364, -7.157945652284462 ] } },
{ "type": "Feature", "properties": { "id": 1, "level": 0, "nome": "Bloco I", "tipo": "bloco", "predio": null, "layer": "pontos_locomocao", "path": "C:/Users/ACER/Desktop/mapa_unipe/pontos_lvl_0.shp" }, "geometry": { "type": "Point", "coordinates": [ -34.855760715848071, -7.157765912097601 ] } },
{ "type": "Feature", "properties": { "id": 1, "level": 0, "nome": "Bloco G", "tipo": "bloco", "predio": null, "layer": "pontos_locomocao", "path": "C:/Users/ACER/Desktop/mapa_unipe/pontos_lvl_0.shp" }, "geometry": { "type": "Point", "coordinates": [ -34.854028242854582, -7.157744155477948 ] } },
{ "type": "Feature", "properties": { "id": 1, "level": 0, "nome": "Bloco F1", "tipo": "bloco", "predio": null, "layer": "pontos_locomocao", "path": "C:/Users/ACER/Desktop/mapa_unipe/pontos_lvl_0.shp" }, "geometry": { "type": "Point", "coordinates": [ -34.855546786998659, -7.158563843711556 ] } },
{ "type": "Feature", "properties": { "id": 1, "level": 0, "nome": "Bloco F2", "tipo": "bloco", "predio": null, "layer": "pontos_locomocao", "path": "C:/Users/ACER/Desktop/mapa_unipe/pontos_lvl_0.shp" }, "geometry": { "type": "Point", "coordinates": [ -34.853934933364876, -7.1581240388063 ] } },
{ "type": "Feature", "properties": { "id": 1, "level": 0, "nome": "Blodo E", "tipo": "bloco", "predio": null, "layer": "pontos_locomocao", "path": "C:/Users/ACER/Desktop/mapa_unipe/pontos_lvl_0.shp" }, "geometry": { "type": "Point", "coordinates": [ -34.853877877000265, -7.158344929656421 ] } },
{ "type": "Feature", "properties": { "id": 1, "level": 0, "nome": "Bloco D", "tipo": "bloco", "predio": null, "layer": "pontos_locomocao", "path": "C:/Users/ACER/Desktop/mapa_unipe/pontos_lvl_0.shp" }, "geometry": { "type": "Point", "coordinates": [ -34.853821693646559, -7.158556989789564 ] } },
{ "type": "Feature", "properties": { "id": 1, "level": 0, "nome": "Bloco C2", "tipo": "bloco", "predio": null, "layer": "pontos_locomocao", "path": "C:/Users/ACER/Desktop/mapa_unipe/pontos_lvl_0.shp" }, "geometry": { "type": "Point", "coordinates": [ -34.853758940688465, -7.158992732487806 ] } },
{ "type": "Feature", "properties": { "id": 1, "level": 0, "nome": "Bloco B2", "tipo": "bloco", "predio": null, "layer": "pontos_locomocao", "path": "C:/Users/ACER/Desktop/mapa_unipe/pontos_lvl_0.shp" }, "geometry": { "type": "Point", "coordinates": [ -34.853729323436625, -7.159205043578607 ] } },
{ "type": "Feature", "properties": { "id": 1, "level": 0, "nome": "Bloco A2", "tipo": "bloco", "predio": null, "layer": "pontos_locomocao", "path": "C:/Users/ACER/Desktop/mapa_unipe/pontos_lvl_0.shp" }, "geometry": { "type": "Point", "coordinates": [ -34.85372485806969, -7.159451521157178 ] } },
{ "type": "Feature", "properties": { "id": 1, "level": 0, "nome": "Bloco A1", "tipo": "bloco", "predio": null, "layer": "pontos_locomocao", "path": "C:/Users/ACER/Desktop/mapa_unipe/pontos_lvl_0.shp" }, "geometry": { "type": "Point", "coordinates": [ -34.85500935780064, -7.159781978485218 ] } },
{ "type": "Feature", "properties": { "id": 1, "level": 0, "nome": "Bloco B1", "tipo": "bloco", "predio": null, "layer": "pontos_locomocao", "path": "C:/Users/ACER/Desktop/mapa_unipe/pontos_lvl_0.shp" }, "geometry": { "type": "Point", "coordinates": [ -34.855070884658957, -7.159550494364492 ] } },
{ "type": "Feature", "properties": { "id": 1, "level": 0, "nome": "Bloco C1", "tipo": "bloco", "predio": null, "layer": "pontos_locomocao", "path": "C:/Users/ACER/Desktop/mapa_unipe/pontos_lvl_0.shp" }, "geometry": { "type": "Point", "coordinates": [ -34.855124740419875, -7.159347065286942 ] } },
{ "type": "Feature", "properties": { "id": 1, "level": 0, "nome": "bebedouro", "tipo": "bebedouro", "predio": null, "layer": "pontos_locomocao", "path": "C:/Users/ACER/Desktop/mapa_unipe/pontos_lvl_0.shp" }, "geometry": { "type": "Point", "coordinates": [ -34.854588132160906, -7.160192860771179 ] } },
{ "type": "Feature", "properties": { "id": null, "level": 0, "nome": "Comercio do Eva 1", "tipo": "comer", "predio": "EVA", "layer": "pontos_locomocao_indoor", "path": "C:/Users/ACER/Desktop/mapa_unipe/pontos_lvl_0_indoor.shp" }, "geometry": { "type": "Point", "coordinates": [ -34.854412491895623, -7.160545148273097 ] } },
{ "type": "Feature", "properties": { "id": null, "level": 0, "nome": "Comercio do Eva 2", "tipo": "comer", "predio": "EVA", "layer": "pontos_locomocao_indoor", "path": "C:/Users/ACER/Desktop/mapa_unipe/pontos_lvl_0_indoor.shp" }, "geometry": { "type": "Point", "coordinates": [ -34.85430827594319, -7.160567530494803 ] } },
{ "type": "Feature", "properties": { "id": null, "level": 0, "nome": "Comercio do Eva 3", "tipo": "comer", "predio": "EVA", "layer": "pontos_locomocao_indoor", "path": "C:/Users/ACER/Desktop/mapa_unipe/pontos_lvl_0_indoor.shp" }, "geometry": { "type": "Point", "coordinates": [ -34.854595330415655, -7.160410625178375 ] } },
{ "type": "Feature", "properties": { "id": null, "level": 0, "nome": "Coordenação de TI", "tipo": "coordenacao", "predio": "EVA", "layer": "pontos_locomocao_indoor", "path": "C:/Users/ACER/Desktop/mapa_unipe/pontos_lvl_0_indoor.shp" }, "geometry": { "type": "Point", "coordinates": [ -34.854527356122233, -7.16066494135664 ] } },
{ "type": "Feature", "properties": { "id": null, "level": 0, "nome": "Central de ajuda", "tipo": "central de ajuda", "predio": "EVA", "layer": "pontos_locomocao_indoor", "path": "C:/Users/ACER/Desktop/mapa_unipe/pontos_lvl_0_indoor.shp" }, "geometry": { "type": "Point", "coordinates": [ -34.854249154004719, -7.16060947160681 ] } },
{ "type": "Feature", "properties": { "id": null, "level": 0, "nome": "Banheiro", "tipo": "banheiro", "predio": "EVA", "layer": "pontos_locomocao_indoor", "path": "C:/Users/ACER/Desktop/mapa_unipe/pontos_lvl_0_indoor.shp" }, "geometry": { "type": "Point", "coordinates": [ -34.854357642598153, -7.160207487039441 ] } },
{ "type": "Feature", "properties": { "id": null, "level": 0, "nome": "Banheiro", "tipo": "banheiro", "predio": "Bloco A", "layer": "pontos_locomocao_indoor", "path": "C:/Users/ACER/Desktop/mapa_unipe/pontos_lvl_0_indoor.shp" }, "geometry": { "type": "Point", "coordinates": [ -34.85477992871882, -7.159688712760176 ] } },
{ "type": "Feature", "properties": { "id": null, "level": 0, "nome": "Banheiro", "tipo": "banheiro", "predio": "Bloco A", "layer": "pontos_locomocao_indoor", "path": "C:/Users/ACER/Desktop/mapa_unipe/pontos_lvl_0_indoor.shp" }, "geometry": { "type": "Point", "coordinates": [ -34.854007754772091, -7.159490307336346 ] } },
{ "type": "Feature", "properties": { "id": null, "level": 0, "nome": "Banheiro", "tipo": "banheiro", "predio": "Bloco C", "layer": "pontos_locomocao_indoor", "path": "C:/Users/ACER/Desktop/mapa_unipe/pontos_lvl_0_indoor.shp" }, "geometry": { "type": "Point", "coordinates": [ -34.854123705238095, -7.159054862166694 ] } },
{ "type": "Feature", "properties": { "id": null, "level": 0, "nome": "Banheiro", "tipo": "banheiro", "predio": "Bloco C", "layer": "pontos_locomocao_indoor", "path": "C:/Users/ACER/Desktop/mapa_unipe/pontos_lvl_0_indoor.shp" }, "geometry": { "type": "Point", "coordinates": [ -34.854893725651642, -7.159255133171936 ] } },
{ "type": "Feature", "properties": { "id": null, "level": 0, "nome": "Banheiro", "tipo": "banheiro", "predio": "Bloco J", "layer": "pontos_locomocao_indoor", "path": "C:/Users/ACER/Desktop/mapa_unipe/pontos_lvl_0_indoor.shp" }, "geometry": { "type": "Point", "coordinates": [ -34.855830254636864, -7.158763108479881 ] } },
{ "type": "Feature", "properties": { "id": null, "level": 0, "nome": "Banheiro", "tipo": "banheiro", "predio": "CT", "layer": "pontos_locomocao_indoor", "path": "C:/Users/ACER/Desktop/mapa_unipe/pontos_lvl_0_indoor.shp" }, "geometry": { "type": "Point", "coordinates": [ -34.856184728074211, -7.159462280675109 ] } },
{ "type": "Feature", "properties": { "id": null, "level": 0, "nome": "Banheiro", "tipo": "banheiro", "predio": "CT", "layer": "pontos_locomocao_indoor", "path": "C:/Users/ACER/Desktop/mapa_unipe/pontos_lvl_0_indoor.shp" }, "geometry": { "type": "Point", "coordinates": [ -34.856148387428654, -7.159599787789551 ] } },
{ "type": "Feature", "properties": { "id": null, "level": 0, "nome": "A1", "tipo": "sala", "predio": "Bloco A", "layer": "pontos_locomocao_indoor", "path": "C:/Users/ACER/Desktop/mapa_unipe/pontos_lvl_0_indoor.shp" }, "geometry": { "type": "Point", "coordinates": [ -34.854997342569185, -7.159744665859477 ] } },
{ "type": "Feature", "properties": { "id": null, "level": 0, "nome": "A2", "tipo": "sala", "predio": "Bloco A", "layer": "pontos_locomocao_indoor", "path": "C:/Users/ACER/Desktop/mapa_unipe/pontos_lvl_0_indoor.shp" }, "geometry": { "type": "Point", "coordinates": [ -34.854927761447293, -7.159726839731666 ] } },
{ "type": "Feature", "properties": { "id": null, "level": 0, "nome": "A3", "tipo": "sala", "predio": "Bloco A", "layer": "pontos_locomocao_indoor", "path": "C:/Users/ACER/Desktop/mapa_unipe/pontos_lvl_0_indoor.shp" }, "geometry": { "type": "Point", "coordinates": [ -34.854858208619014, -7.159708879753468 ] } },
{ "type": "Feature", "properties": { "id": null, "level": 0, "nome": "A4", "tipo": "sala", "predio": "Bloco A", "layer": "pontos_locomocao_indoor", "path": "C:/Users/ACER/Desktop/mapa_unipe/pontos_lvl_0_indoor.shp" }, "geometry": { "type": "Point", "coordinates": [ -34.854637546016711, -7.159652123479489 ] } },
{ "type": "Feature", "properties": { "id": null, "level": 0, "nome": "A5", "tipo": "sala", "predio": "Bloco A", "layer": "pontos_locomocao_indoor", "path": "C:/Users/ACER/Desktop/mapa_unipe/pontos_lvl_0_indoor.shp" }, "geometry": { "type": "Point", "coordinates": [ -34.854567972070349, -7.159634270730102 ] } },
{ "type": "Feature", "properties": { "id": null, "level": 0, "nome": "A6", "tipo": "sala", "predio": "Bloco A", "layer": "pontos_locomocao_indoor", "path": "C:/Users/ACER/Desktop/mapa_unipe/pontos_lvl_0_indoor.shp" }, "geometry": { "type": "Point", "coordinates": [ -34.854498394887138, -7.159616417149437 ] } },
{ "type": "Feature", "properties": { "id": null, "level": 0, "nome": "A7", "tipo": "sala", "predio": "Bloco A", "layer": "pontos_locomocao_indoor", "path": "C:/Users/ACER/Desktop/mapa_unipe/pontos_lvl_0_indoor.shp" }, "geometry": { "type": "Point", "coordinates": [ -34.854413308156929, -7.159594583801236 ] } },
{ "type": "Feature", "properties": { "id": null, "level": 0, "nome": "A8", "tipo": "sala", "predio": "Bloco A", "layer": "pontos_locomocao_indoor", "path": "C:/Users/ACER/Desktop/mapa_unipe/pontos_lvl_0_indoor.shp" }, "geometry": { "type": "Point", "coordinates": [ -34.854292245909413, -7.159563308086487 ] } },
{ "type": "Feature", "properties": { "id": null, "level": 0, "nome": "A9", "tipo": "sala", "predio": "Bloco A", "layer": "pontos_locomocao_indoor", "path": "C:/Users/ACER/Desktop/mapa_unipe/pontos_lvl_0_indoor.shp" }, "geometry": { "type": "Point", "coordinates": [ -34.854225205765921, -7.159546105510296 ] } },
{ "type": "Feature", "properties": { "id": null, "level": 0, "nome": "A10", "tipo": "sala", "predio": "Bloco A", "layer": "pontos_locomocao_indoor", "path": "C:/Users/ACER/Desktop/mapa_unipe/pontos_lvl_0_indoor.shp" }, "geometry": { "type": "Point", "coordinates": [ -34.854155640670712, -7.159528255013282 ] } },
{ "type": "Feature", "properties": { "id": null, "level": 0, "nome": "A11", "tipo": "sala", "predio": "Bloco A", "layer": "pontos_locomocao_indoor", "path": "C:/Users/ACER/Desktop/mapa_unipe/pontos_lvl_0_indoor.shp" }, "geometry": { "type": "Point", "coordinates": [ -34.854086062706102, -7.159510401242635 ] } },
{ "type": "Feature", "properties": { "id": null, "level": 0, "nome": "A12", "tipo": "sala", "predio": "Bloco A", "layer": "pontos_locomocao_indoor", "path": "C:/Users/ACER/Desktop/mapa_unipe/pontos_lvl_0_indoor.shp" }, "geometry": { "type": "Point", "coordinates": [ -34.853869670062927, -7.159454465498549 ] } },
{ "type": "Feature", "properties": { "id": null, "level": 0, "nome": "A13", "tipo": "sala", "predio": "Bloco A", "layer": "pontos_locomocao_indoor", "path": "C:/Users/ACER/Desktop/mapa_unipe/pontos_lvl_0_indoor.shp" }, "geometry": { "type": "Point", "coordinates": [ -34.853808956592268, -7.159438982645634 ] } },
{ "type": "Feature", "properties": { "id": null, "level": 0, "nome": "A14", "tipo": "sala", "predio": "Bloco A", "layer": "pontos_locomocao_indoor", "path": "C:/Users/ACER/Desktop/mapa_unipe/pontos_lvl_0_indoor.shp" }, "geometry": { "type": "Point", "coordinates": [ -34.853748293360404, -7.15942337967675 ] } },
{ "type": "Feature", "properties": { "id": null, "level": 0, "nome": "A15", "tipo": "sala", "predio": "Bloco A", "layer": "pontos_locomocao_indoor", "path": "C:/Users/ACER/Desktop/mapa_unipe/pontos_lvl_0_indoor.shp" }, "geometry": { "type": "Point", "coordinates": [ -34.853720616032554, -7.159405000416809 ] } },
{ "type": "Feature", "properties": { "id": null, "level": 1, "nome": "A16", "tipo": "sala", "predio": "Bloco A", "layer": "pontos_locomocao_indoor", "path": "C:/Users/ACER/Desktop/mapa_unipe/pontos_lvl_0_indoor.shp" }, "geometry": { "type": "Point", "coordinates": [ -34.854992841280819, -7.159761923530962 ] } },
{ "type": "Feature", "properties": { "id": null, "level": 1, "nome": "A17", "tipo": "sala", "predio": "Bloco A", "layer": "pontos_locomocao_indoor", "path": "C:/Users/ACER/Desktop/mapa_unipe/pontos_lvl_0_indoor.shp" }, "geometry": { "type": "Point", "coordinates": [ -34.854923202354499, -7.159744082453648 ] } },
{ "type": "Feature", "properties": { "id": null, "level": 1, "nome": "A18", "tipo": "sala", "predio": "Bloco A", "layer": "pontos_locomocao_indoor", "path": "C:/Users/ACER/Desktop/mapa_unipe/pontos_lvl_0_indoor.shp" }, "geometry": { "type": "Point", "coordinates": [ -34.854853710215323, -7.159726138161193 ] } },
{ "type": "Feature", "properties": { "id": null, "level": 1, "nome": "A19", "tipo": "sala", "predio": "Bloco A", "layer": "pontos_locomocao_indoor", "path": "C:/Users/ACER/Desktop/mapa_unipe/pontos_lvl_0_indoor.shp" }, "geometry": { "type": "Point", "coordinates": [ -34.854633047613021, -7.159669381889366 ] } },
{ "type": "Feature", "properties": { "id": null, "level": 1, "nome": "A20", "tipo": "sala", "predio": "Bloco A", "layer": "pontos_locomocao_indoor", "path": "C:/Users/ACER/Desktop/mapa_unipe/pontos_lvl_0_indoor.shp" }, "geometry": { "type": "Point", "coordinates": [ -34.854563473666659, -7.159651529140652 ] } },
{ "type": "Feature", "properties": { "id": null, "level": 1, "nome": "A21", "tipo": "sala", "predio": "Bloco A", "layer": "pontos_locomocao_indoor", "path": "C:/Users/ACER/Desktop/mapa_unipe/pontos_lvl_0_indoor.shp" }, "geometry": { "type": "Point", "coordinates": [ -34.854493896483447, -7.159633675560659 ] } },
{ "type": "Feature", "properties": { "id": null, "level": 1, "nome": "A22", "tipo": "sala", "predio": "Bloco A", "layer": "pontos_locomocao_indoor", "path": "C:/Users/ACER/Desktop/mapa_unipe/pontos_lvl_0_indoor.shp" }, "geometry": { "type": "Point", "coordinates": [ -34.854408809753231, -7.159611842213283 ] } },
{ "type": "Feature", "properties": { "id": null, "level": 1, "nome": "A23", "tipo": "sala", "predio": "Bloco A", "layer": "pontos_locomocao_indoor", "path": "C:/Users/ACER/Desktop/mapa_unipe/pontos_lvl_0_indoor.shp" }, "geometry": { "type": "Point", "coordinates": [ -34.85428774750573, -7.159580566499725 ] } },
{ "type": "Feature", "properties": { "id": null, "level": 1, "nome": "A24", "tipo": "sala", "predio": "Bloco A", "layer": "pontos_locomocao_indoor", "path": "C:/Users/ACER/Desktop/mapa_unipe/pontos_lvl_0_indoor.shp" }, "geometry": { "type": "Point", "coordinates": [ -34.854220707362231, -7.159563363924181 ] } },
{ "type": "Feature", "properties": { "id": null, "level": 1, "nome": "A25", "tipo": "sala", "predio": "Bloco A", "layer": "pontos_locomocao_indoor", "path": "C:/Users/ACER/Desktop/mapa_unipe/pontos_lvl_0_indoor.shp" }, "geometry": { "type": "Point", "coordinates": [ -34.854151142263433, -7.159545513441616 ] } },
{ "type": "Feature", "properties": { "id": null, "level": 1, "nome": "A26", "tipo": "sala", "predio": "Bloco A", "layer": "pontos_locomocao_indoor", "path": "C:/Users/ACER/Desktop/mapa_unipe/pontos_lvl_0_indoor.shp" }, "geometry": { "type": "Point", "coordinates": [ -34.854081564302412, -7.159527659657871 ] } },
{ "type": "Feature", "properties": { "id": null, "level": 1, "nome": "A27", "tipo": "sala", "predio": "Bloco A", "layer": "pontos_locomocao_indoor", "path": "C:/Users/ACER/Desktop/mapa_unipe/pontos_lvl_0_indoor.shp" }, "geometry": { "type": "Point", "coordinates": [ -34.853865290354797, -7.159471894588154 ] } },
{ "type": "Feature", "properties": { "id": null, "level": 1, "nome": "A28", "tipo": "sala", "predio": "Bloco A", "layer": "pontos_locomocao_indoor", "path": "C:/Users/ACER/Desktop/mapa_unipe/pontos_lvl_0_indoor.shp" }, "geometry": { "type": "Point", "coordinates": [ -34.853804456879615, -7.159456246085489 ] } },
{ "type": "Feature", "properties": { "id": null, "level": 1, "nome": "A29", "tipo": "sala", "predio": "Bloco A", "layer": "pontos_locomocao_indoor", "path": "C:/Users/ACER/Desktop/mapa_unipe/pontos_lvl_0_indoor.shp" }, "geometry": { "type": "Point", "coordinates": [ -34.853743793544275, -7.159440643514202 ] } },
{ "type": "Feature", "properties": { "id": null, "level": 1, "nome": "A30", "tipo": "sala", "predio": "Bloco A", "layer": "pontos_locomocao_indoor", "path": "C:/Users/ACER/Desktop/mapa_unipe/pontos_lvl_0_indoor.shp" }, "geometry": { "type": "Point", "coordinates": [ -34.853724644482519, -7.159389521789831 ] } },
{ "type": "Feature", "properties": { "id": null, "level": null, "nome": "LAB1", "tipo": null, "predio": null, "layer": "pontos_locomocao_indoor", "path": "C:/Users/ACER/Desktop/mapa_unipe/pontos_lvl_0_indoor.shp" }, "geometry": { "type": "Point", "coordinates": [ -34.856088806650348, -7.15960253872166 ] } },
{ "type": "Feature", "properties": { "id": null, "level": null, "nome": "LAB2", "tipo": null, "predio": null, "layer": "pontos_locomocao_indoor", "path": "C:/Users/ACER/Desktop/mapa_unipe/pontos_lvl_0_indoor.shp" }, "geometry": { "type": "Point", "coordinates": [ -34.856106185343819, -7.159607097272496 ] } },
{ "type": "Feature", "properties": { "id": null, "level": null, "nome": "LAB3", "tipo": null, "predio": null, "layer": "pontos_locomocao_indoor", "path": "C:/Users/ACER/Desktop/mapa_unipe/pontos_lvl_0_indoor.shp" }, "geometry": { "type": "Point", "coordinates": [ -34.8561339408243, -7.159430427152512 ] } },
{ "type": "Feature", "properties": { "id": null, "level": null, "nome": "LAB4", "tipo": null, "predio": null, "layer": "pontos_locomocao_indoor", "path": "C:/Users/ACER/Desktop/mapa_unipe/pontos_lvl_0_indoor.shp" }, "geometry": { "type": "Point", "coordinates": [ -34.856151331230485, -7.159434970354165 ] } },
{ "type": "Feature", "properties": { "id": null, "level": null, "nome": "LAB5", "tipo": null, "predio": null, "layer": "pontos_locomocao_indoor", "path": "C:/Users/ACER/Desktop/mapa_unipe/pontos_lvl_0_indoor.shp" }, "geometry": { "type": "Point", "coordinates": [ -34.856088806650348, -7.15960253872166 ] } },
{ "type": "Feature", "properties": { "id": null, "level": null, "nome": "LAB6", "tipo": null, "predio": null, "layer": "pontos_locomocao_indoor", "path": "C:/Users/ACER/Desktop/mapa_unipe/pontos_lvl_0_indoor.shp" }, "geometry": { "type": "Point", "coordinates": [ -34.856106185343819, -7.159607097272496 ] } },
{ "type": "Feature", "properties": { "id": null, "level": null, "nome": "LAB7", "tipo": null, "predio": null, "layer": "pontos_locomocao_indoor", "path": "C:/Users/ACER/Desktop/mapa_unipe/pontos_lvl_0_indoor.shp" }, "geometry": { "type": "Point", "coordinates": [ -34.8561339408243, -7.159430427152512 ] } },
{ "type": "Feature", "properties": { "id": null, "level": null, "nome": "LAB8", "tipo": null, "predio": null, "layer": "pontos_locomocao_indoor", "path": "C:/Users/ACER/Desktop/mapa_unipe/pontos_lvl_0_indoor.shp" }, "geometry": { "type": "Point", "coordinates": [ -34.856151331230485, -7.159434970354165 ] } },
{ "type": "Feature", "properties": { "id": null, "level": null, "nome": "LAB9", "tipo": null, "predio": null, "layer": "pontos_locomocao_indoor", "path": "C:/Users/ACER/Desktop/mapa_unipe/pontos_lvl_0_indoor.shp" }, "geometry": { "type": "Point", "coordinates": [ -34.856088806650348, -7.15960253872166 ] } },
{ "type": "Feature", "properties": { "id": null, "level": null, "nome": "LAB10", "tipo": null, "predio": null, "layer": "pontos_locomocao_indoor", "path": "C:/Users/ACER/Desktop/mapa_unipe/pontos_lvl_0_indoor.shp" }, "geometry": { "type": "Point", "coordinates": [ -34.856106185343819, -7.159607097272496 ] } },
{ "type": "Feature", "properties": { "id": null, "level": null, "nome": "LAB11", "tipo": null, "predio": null, "layer": "pontos_locomocao_indoor", "path": "C:/Users/ACER/Desktop/mapa_unipe/pontos_lvl_0_indoor.shp" }, "geometry": { "type": "Point", "coordinates": [ -34.8561339408243, -7.159430427152512 ] } },
{ "type": "Feature", "properties": { "id": null, "level": null, "nome": "LAB12", "tipo": null, "predio": null, "layer": "pontos_locomocao_indoor", "path": "C:/Users/ACER/Desktop/mapa_unipe/pontos_lvl_0_indoor.shp" }, "geometry": { "type": "Point", "coordinates": [ -34.856151331230485, -7.159434970354165 ] } },
{ "type": "Feature", "properties": { "id": null, "level": null, "nome": "J1", "tipo": null, "predio": null, "layer": "pontos_locomocao_indoor", "path": "C:/Users/ACER/Desktop/mapa_unipe/pontos_lvl_0_indoor.shp" }, "geometry": { "type": "Point", "coordinates": [ -34.85585530714539, -7.159238464774051 ] } },
{ "type": "Feature", "properties": { "id": null, "level": null, "nome": "J2", "tipo": null, "predio": null, "layer": "pontos_locomocao_indoor", "path": "C:/Users/ACER/Desktop/mapa_unipe/pontos_lvl_0_indoor.shp" }, "geometry": { "type": "Point", "coordinates": [ -34.855868366384406, -7.159186495381352 ] } },
{ "type": "Feature", "properties": { "id": null, "level": null, "nome": "J3", "tipo": null, "predio": null, "layer": "pontos_locomocao_indoor", "path": "C:/Users/ACER/Desktop/mapa_unipe/pontos_lvl_0_indoor.shp" }, "geometry": { "type": "Point", "coordinates": [ -34.855881407338074, -7.159134598749434 ] } },
{ "type": "Feature", "properties": { "id": null, "level": null, "nome": "J4", "tipo": null, "predio": null, "layer": "pontos_locomocao_indoor", "path": "C:/Users/ACER/Desktop/mapa_unipe/pontos_lvl_0_indoor.shp" }, "geometry": { "type": "Point", "coordinates": [ -34.855894434896307, -7.159082755418971 ] } },
{ "type": "Feature", "properties": { "id": null, "level": null, "nome": "J5", "tipo": null, "predio": null, "layer": "pontos_locomocao_indoor", "path": "C:/Users/ACER/Desktop/mapa_unipe/pontos_lvl_0_indoor.shp" }, "geometry": { "type": "Point", "coordinates": [ -34.855714132937649, -7.159112372775295 ] } },
{ "type": "Feature", "properties": { "id": null, "level": null, "nome": "J6", "tipo": null, "predio": null, "layer": "pontos_locomocao_indoor", "path": "C:/Users/ACER/Desktop/mapa_unipe/pontos_lvl_0_indoor.shp" }, "geometry": { "type": "Point", "coordinates": [ -34.855727172159703, -7.159060483025958 ] } },
{ "type": "Feature", "properties": { "id": null, "level": null, "nome": "J7", "tipo": null, "predio": null, "layer": "pontos_locomocao_indoor", "path": "C:/Users/ACER/Desktop/mapa_unipe/pontos_lvl_0_indoor.shp" }, "geometry": { "type": "Point", "coordinates": [ -34.855740202458705, -7.159008628780112 ] } },
{ "type": "Feature", "properties": { "id": null, "level": 1, "nome": "Banheiro", "tipo": "banheiro", "predio": "Bloco A", "layer": "pontos_locomocao_indoor", "path": "C:/Users/ACER/Desktop/mapa_unipe/pontos_lvl_0_indoor.shp" }, "geometry": { "type": "Point", "coordinates": [ -34.85477992871882, -7.159688712760176 ] } },
{ "type": "Feature", "properties": { "id": null, "level": 1, "nome": "Banheiro", "tipo": "banheiro", "predio": "Bloco A", "layer": "pontos_locomocao_indoor", "path": "C:/Users/ACER/Desktop/mapa_unipe/pontos_lvl_0_indoor.shp" }, "geometry": { "type": "Point", "coordinates": [ -34.854007754772091, -7.159490307336346 ] } },
{ "type": "Feature", "properties": { "id": 1, "level": 0, "nome": "bebedouro", "tipo": "bebedouro", "predio": null, "layer": "pontos_locomocao_indoor", "path": "C:/Users/ACER/Desktop/mapa_unipe/pontos_lvl_0_indoor.shp" }, "geometry": { "type": "Point", "coordinates": [ -34.856415836727038, -7.15953534477028 ] } },
{ "type": "Feature", "properties": { "id": 1, "level": 0, "nome": "bebedouro", "tipo": "bebedouro", "predio": null, "layer": "pontos_locomocao_indoor", "path": "C:/Users/ACER/Desktop/mapa_unipe/pontos_lvl_0_indoor.shp" }, "geometry": { "type": "Point", "coordinates": [ -34.854661740543769, -7.159747252318693 ] } },
{ "type": "Feature", "properties": { "id": 1, "level": 0, "nome": "bebedouro", "tipo": "bebedouro", "predio": null, "layer": "pontos_locomocao_indoor", "path": "C:/Users/ACER/Desktop/mapa_unipe/pontos_lvl_0_indoor.shp" }, "geometry": { "type": "Point", "coordinates": [ -34.853895318124813, -7.159546160875597 ] } }
]
}
